{
"type": "FeatureCollection",
"name": "tracks",
"features": [
{ "type": "Feature", "properties": { "name": "SykkelVIKU: Baksia, Høa", "type": "mountain_biking" }, "geometry": { "type": "LineString", "coordinates": [ [ 10.041198, 61.502918 ], [ 10.041198, 61.502918 ], [ 10.041183, 61.502967 ], [ 10.041168, 61.503024 ], [ 10.041167, 61.503054 ], [ 10.041159, 61.503072 ], [ 10.04116, 61.503073 ], [ 10.041154, 61.503077 ], [ 10.041164, 61.503076 ], [ 10.041173, 61.503081 ], [ 10.041164, 61.503101 ], [ 10.041162, 61.503107 ], [ 10.041155, 61.503121 ], [ 10.041145, 61.503128 ], [ 10.041146, 61.503135 ], [ 10.041147, 61.503148 ], [ 10.041148, 61.503161 ], [ 10.041151, 61.503168 ], [ 10.041153, 61.503173 ], [ 10.041154, 61.50318 ], [ 10.041159, 61.503191 ], [ 10.041163, 61.503196 ], [ 10.04116, 61.503201 ], [ 10.041155, 61.503207 ], [ 10.041145, 61.503208 ], [ 10.041142, 61.503216 ], [ 10.041143, 61.503222 ], [ 10.041138, 61.503234 ], [ 10.041134, 61.503244 ], [ 10.04113, 61.503252 ], [ 10.041127, 61.50326 ], [ 10.041128, 61.503268 ], [ 10.041128, 61.503274 ], [ 10.041133, 61.503285 ], [ 10.041128, 61.503296 ], [ 10.041118, 61.503305 ], [ 10.04111, 61.503313 ], [ 10.041103, 61.503324 ], [ 10.041098, 61.503336 ], [ 10.041099, 61.503345 ], [ 10.041093, 61.503356 ], [ 10.04109, 61.503366 ], [ 10.041084, 61.503374 ], [ 10.041082, 61.503381 ], [ 10.041075, 61.503393 ], [ 10.04107, 61.5034 ], [ 10.041062, 61.503403 ], [ 10.041062, 61.503411 ], [ 10.041062, 61.503416 ], [ 10.041059, 61.503421 ], [ 10.041055, 61.50343 ], [ 10.041051, 61.50344 ], [ 10.041042, 61.503448 ], [ 10.041029, 61.503454 ], [ 10.041023, 61.503466 ], [ 10.041014, 61.503481 ], [ 10.041012, 61.50349 ], [ 10.041012, 61.50349 ], [ 10.041013, 61.50349 ], [ 10.041041, 61.503518 ], [ 10.04104, 61.503501 ], [ 10.041014, 61.503523 ], [ 10.041, 61.503529 ], [ 10.040989, 61.503533 ], [ 10.040973, 61.503542 ], [ 10.040958, 61.503549 ], [ 10.040954, 61.503556 ], [ 10.040949, 61.503561 ], [ 10.040941, 61.503567 ], [ 10.040934, 61.503573 ], [ 10.040924, 61.503586 ], [ 10.040919, 61.503592 ], [ 10.04091, 61.5036 ], [ 10.040898, 61.503606 ], [ 10.040888, 61.503612 ], [ 10.040876, 61.503619 ], [ 10.040859, 61.503625 ], [ 10.040845, 61.503628 ], [ 10.040838, 61.503632 ], [ 10.040835, 61.503638 ], [ 10.04084, 61.503643 ], [ 10.040839, 61.503647 ], [ 10.040836, 61.503651 ], [ 10.04083, 61.503654 ], [ 10.040829, 61.503662 ], [ 10.040821, 61.503666 ], [ 10.040816, 61.503667 ], [ 10.040816, 61.503665 ], [ 10.040816, 61.503665 ], [ 10.040821, 61.503673 ], [ 10.040817, 61.503684 ], [ 10.040811, 61.503694 ], [ 10.040801, 61.503704 ], [ 10.040793, 61.503714 ], [ 10.040782, 61.503725 ], [ 10.040776, 61.503738 ], [ 10.040775, 61.503748 ], [ 10.04078, 61.503755 ], [ 10.040781, 61.503758 ], [ 10.040785, 61.503758 ], [ 10.040785, 61.503758 ], [ 10.040793, 61.503768 ], [ 10.040801, 61.50378 ], [ 10.040812, 61.50384 ], [ 10.040808, 61.50385 ], [ 10.040805, 61.503856 ], [ 10.040804, 61.50386 ], [ 10.040799, 61.503861 ], [ 10.040798, 61.503865 ], [ 10.040791, 61.503869 ], [ 10.040795, 61.503875 ], [ 10.040797, 61.503879 ], [ 10.040794, 61.503881 ], [ 10.040794, 61.503883 ], [ 10.040794, 61.503882 ], [ 10.040787, 61.503885 ], [ 10.040787, 61.503886 ], [ 10.040779, 61.503889 ], [ 10.040775, 61.503893 ], [ 10.040768, 61.503895 ], [ 10.040761, 61.503896 ], [ 10.040756, 61.503898 ], [ 10.040757, 61.503899 ], [ 10.040755, 61.5039 ], [ 10.040752, 61.5039 ], [ 10.040752, 61.5039 ], [ 10.040719, 61.503903 ], [ 10.0407, 61.503906 ], [ 10.040688, 61.503909 ], [ 10.040665, 61.503915 ], [ 10.040636, 61.503927 ], [ 10.040623, 61.503933 ], [ 10.040625, 61.503935 ], [ 10.040625, 61.503935 ], [ 10.040618, 61.503939 ], [ 10.040594, 61.503943 ], [ 10.040579, 61.503946 ], [ 10.040564, 61.503949 ], [ 10.040547, 61.503955 ], [ 10.040543, 61.50396 ], [ 10.040537, 61.503964 ], [ 10.040523, 61.503967 ], [ 10.04051, 61.503971 ], [ 10.040498, 61.503975 ], [ 10.040492, 61.50398 ], [ 10.040479, 61.503984 ], [ 10.04047, 61.503987 ], [ 10.040462, 61.503992 ], [ 10.040451, 61.503996 ], [ 10.040437, 61.504 ], [ 10.040418, 61.504004 ], [ 10.0404, 61.504009 ], [ 10.040381, 61.504012 ], [ 10.040366, 61.504017 ], [ 10.040354, 61.504022 ], [ 10.04034, 61.504026 ], [ 10.040324, 61.50403 ], [ 10.040306, 61.504029 ], [ 10.040288, 61.50403 ], [ 10.040271, 61.50403 ], [ 10.040254, 61.504032 ], [ 10.040239, 61.504037 ], [ 10.040227, 61.50404 ], [ 10.040214, 61.504042 ], [ 10.040203, 61.504043 ], [ 10.040195, 61.504043 ], [ 10.040187, 61.504043 ], [ 10.040175, 61.504045 ], [ 10.04017, 61.504045 ], [ 10.040161, 61.504045 ], [ 10.040151, 61.504047 ], [ 10.040139, 61.50405 ], [ 10.040129, 61.504051 ], [ 10.040115, 61.504055 ], [ 10.040101, 61.504057 ], [ 10.040094, 61.504061 ], [ 10.040086, 61.504066 ], [ 10.04008, 61.504071 ], [ 10.040074, 61.504077 ], [ 10.040066, 61.504085 ], [ 10.040059, 61.50409 ], [ 10.040051, 61.504096 ], [ 10.040049, 61.504101 ], [ 10.040042, 61.504106 ], [ 10.04004, 61.50411 ], [ 10.040036, 61.504116 ], [ 10.040027, 61.504121 ], [ 10.040017, 61.504127 ], [ 10.040009, 61.504131 ], [ 10.040002, 61.504133 ], [ 10.039992, 61.504138 ], [ 10.039984, 61.50414 ], [ 10.039975, 61.504144 ], [ 10.039969, 61.504146 ], [ 10.03996, 61.504148 ], [ 10.039952, 61.504152 ], [ 10.039939, 61.504154 ], [ 10.039923, 61.504155 ], [ 10.03991, 61.504158 ], [ 10.03991, 61.504158 ], [ 10.03991, 61.504158 ], [ 10.039912, 61.504158 ], [ 10.039911, 61.504166 ], [ 10.039909, 61.504166 ], [ 10.039897, 61.50417 ], [ 10.03988, 61.504181 ], [ 10.039875, 61.504187 ], [ 10.039874, 61.504197 ], [ 10.039866, 61.504206 ], [ 10.039854, 61.504215 ], [ 10.039844, 61.504222 ], [ 10.039816, 61.50424 ], [ 10.039803, 61.504248 ], [ 10.039788, 61.504254 ], [ 10.039761, 61.504264 ], [ 10.039736, 61.50427 ], [ 10.039705, 61.504273 ], [ 10.039682, 61.504278 ], [ 10.039682, 61.504278 ], [ 10.039673, 61.504291 ], [ 10.03965, 61.504302 ], [ 10.039624, 61.504311 ], [ 10.039601, 61.50432 ], [ 10.039578, 61.504329 ], [ 10.039548, 61.504339 ], [ 10.039518, 61.504348 ], [ 10.039482, 61.504358 ], [ 10.039448, 61.504369 ], [ 10.039414, 61.504384 ], [ 10.039383, 61.504396 ], [ 10.039353, 61.50441 ], [ 10.039327, 61.504425 ], [ 10.0393, 61.504441 ], [ 10.039279, 61.504458 ], [ 10.03926, 61.504476 ], [ 10.039237, 61.504495 ], [ 10.039211, 61.504515 ], [ 10.039183, 61.504541 ], [ 10.039149, 61.50457 ], [ 10.039128, 61.504603 ], [ 10.039083, 61.504671 ], [ 10.039053, 61.504703 ], [ 10.039038, 61.504732 ], [ 10.039021, 61.504759 ], [ 10.039006, 61.504784 ], [ 10.038999, 61.504803 ], [ 10.038996, 61.50482 ], [ 10.038992, 61.504838 ], [ 10.038985, 61.504852 ], [ 10.038977, 61.504866 ], [ 10.03897, 61.504876 ], [ 10.038955, 61.504902 ], [ 10.038952, 61.504913 ], [ 10.038946, 61.504926 ], [ 10.038936, 61.504938 ], [ 10.038898, 61.504957 ], [ 10.03887, 61.504968 ], [ 10.038843, 61.50498 ], [ 10.038813, 61.505014 ], [ 10.038812, 61.505027 ], [ 10.038805, 61.505039 ], [ 10.038787, 61.505049 ], [ 10.038759, 61.505063 ], [ 10.038734, 61.505082 ], [ 10.038715, 61.505097 ], [ 10.038699, 61.505112 ], [ 10.038684, 61.505127 ], [ 10.038671, 61.50514 ], [ 10.038658, 61.50515 ], [ 10.038609, 61.505182 ], [ 10.038595, 61.505192 ], [ 10.038567, 61.505215 ], [ 10.038552, 61.505224 ], [ 10.038543, 61.505228 ], [ 10.038523, 61.505233 ], [ 10.038511, 61.50524 ], [ 10.038497, 61.505248 ], [ 10.038488, 61.505259 ], [ 10.038478, 61.505268 ], [ 10.038464, 61.505276 ], [ 10.038447, 61.505285 ], [ 10.038432, 61.505292 ], [ 10.038411, 61.505298 ], [ 10.038386, 61.505308 ], [ 10.038358, 61.505319 ], [ 10.038329, 61.505331 ], [ 10.038307, 61.505349 ], [ 10.038312, 61.505363 ], [ 10.038301, 61.505379 ], [ 10.038303, 61.505394 ], [ 10.038313, 61.505407 ], [ 10.038306, 61.505418 ], [ 10.038301, 61.505432 ], [ 10.038291, 61.505441 ], [ 10.038285, 61.505441 ], [ 10.038278, 61.505438 ], [ 10.038269, 61.505444 ], [ 10.038266, 61.505444 ], [ 10.038259, 61.505445 ], [ 10.038254, 61.505445 ], [ 10.038254, 61.505445 ], [ 10.038224, 61.505447 ], [ 10.038189, 61.505451 ], [ 10.038177, 61.505456 ], [ 10.03818, 61.505457 ], [ 10.03818, 61.505457 ], [ 10.03818, 61.505457 ], [ 10.03818, 61.505457 ], [ 10.03818, 61.505457 ], [ 10.03818, 61.505457 ], [ 10.038184, 61.505457 ], [ 10.038192, 61.505462 ], [ 10.038179, 61.505461 ], [ 10.038167, 61.505459 ], [ 10.038135, 61.505465 ], [ 10.038116, 61.505469 ], [ 10.038092, 61.505474 ], [ 10.038075, 61.505479 ], [ 10.038075, 61.50548 ], [ 10.038073, 61.505478 ], [ 10.038009, 61.505491 ], [ 10.037977, 61.505497 ], [ 10.037966, 61.505501 ], [ 10.03795, 61.505509 ], [ 10.037941, 61.505517 ], [ 10.037938, 61.505519 ], [ 10.037933, 61.505524 ], [ 10.037916, 61.505528 ], [ 10.037894, 61.505532 ], [ 10.037884, 61.505541 ], [ 10.037884, 61.505542 ], [ 10.037885, 61.505543 ], [ 10.037885, 61.505542 ], [ 10.03788, 61.505548 ], [ 10.037885, 61.505543 ], [ 10.03788, 61.505551 ], [ 10.037879, 61.505565 ], [ 10.037875, 61.505573 ], [ 10.037871, 61.505581 ], [ 10.037867, 61.505584 ], [ 10.037868, 61.505583 ], [ 10.037868, 61.505583 ], [ 10.037868, 61.505583 ], [ 10.037868, 61.505583 ], [ 10.037868, 61.505583 ], [ 10.037868, 61.505583 ], [ 10.037867, 61.505543 ], [ 10.037868, 61.505518 ], [ 10.037847, 61.505458 ], [ 10.037836, 61.505446 ], [ 10.037824, 61.505432 ], [ 10.037811, 61.505421 ], [ 10.037797, 61.505412 ], [ 10.037782, 61.505402 ], [ 10.037747, 61.505383 ], [ 10.037738, 61.505374 ], [ 10.037741, 61.505363 ], [ 10.037731, 61.505351 ], [ 10.037714, 61.505346 ], [ 10.0377, 61.505342 ], [ 10.037687, 61.505334 ], [ 10.037674, 61.505324 ], [ 10.037665, 61.505314 ], [ 10.037655, 61.5053 ], [ 10.037648, 61.505286 ], [ 10.037643, 61.505274 ], [ 10.037642, 61.505263 ], [ 10.037641, 61.505252 ], [ 10.037635, 61.505241 ], [ 10.037626, 61.505231 ], [ 10.037616, 61.50522 ], [ 10.037613, 61.505212 ], [ 10.037612, 61.50521 ], [ 10.037606, 61.505199 ], [ 10.037596, 61.505186 ], [ 10.037586, 61.505177 ], [ 10.037572, 61.505164 ], [ 10.037556, 61.505148 ], [ 10.037532, 61.505132 ], [ 10.037508, 61.505112 ], [ 10.037481, 61.505096 ], [ 10.037459, 61.505082 ], [ 10.037442, 61.505066 ], [ 10.037427, 61.505051 ], [ 10.037414, 61.505043 ], [ 10.037379, 61.505024 ], [ 10.037354, 61.505019 ], [ 10.037326, 61.505011 ], [ 10.03731, 61.505004 ], [ 10.037293, 61.504998 ], [ 10.037281, 61.504987 ], [ 10.037261, 61.504976 ], [ 10.037251, 61.504965 ], [ 10.037243, 61.504957 ], [ 10.037238, 61.504942 ], [ 10.037231, 61.504927 ], [ 10.037226, 61.504915 ], [ 10.03723, 61.504912 ], [ 10.037233, 61.504913 ], [ 10.037216, 61.504901 ], [ 10.037201, 61.504887 ], [ 10.037191, 61.504873 ], [ 10.037185, 61.504863 ], [ 10.037186, 61.504859 ], [ 10.03718, 61.504854 ], [ 10.037176, 61.504848 ], [ 10.037171, 61.504842 ], [ 10.037167, 61.504837 ], [ 10.037157, 61.504829 ], [ 10.037147, 61.504821 ], [ 10.037135, 61.504815 ], [ 10.037119, 61.504808 ], [ 10.037097, 61.504802 ], [ 10.037075, 61.504796 ], [ 10.037061, 61.504791 ], [ 10.03705, 61.504781 ], [ 10.037038, 61.504772 ], [ 10.037031, 61.504765 ], [ 10.037022, 61.504757 ], [ 10.037016, 61.504753 ], [ 10.037009, 61.504748 ], [ 10.037003, 61.504744 ], [ 10.036992, 61.504739 ], [ 10.03698, 61.504733 ], [ 10.03697, 61.50472 ], [ 10.036961, 61.50471 ], [ 10.036952, 61.504702 ], [ 10.036948, 61.504691 ], [ 10.036941, 61.50468 ], [ 10.036931, 61.504669 ], [ 10.036916, 61.504657 ], [ 10.036903, 61.504644 ], [ 10.036888, 61.504635 ], [ 10.036872, 61.50463 ], [ 10.036853, 61.504625 ], [ 10.03683, 61.504622 ], [ 10.036807, 61.504619 ], [ 10.036783, 61.504616 ], [ 10.03676, 61.504614 ], [ 10.036741, 61.504613 ], [ 10.036721, 61.504612 ], [ 10.036702, 61.504611 ], [ 10.03664, 61.504601 ], [ 10.036517, 61.504585 ], [ 10.036491, 61.504581 ], [ 10.036474, 61.504575 ], [ 10.036455, 61.504565 ], [ 10.036432, 61.504555 ], [ 10.036378, 61.504542 ], [ 10.036349, 61.504539 ], [ 10.036323, 61.504535 ], [ 10.036302, 61.504532 ], [ 10.036275, 61.504528 ], [ 10.036249, 61.504527 ], [ 10.036201, 61.504529 ], [ 10.03618, 61.504527 ], [ 10.03617, 61.504526 ], [ 10.036166, 61.504525 ], [ 10.036128, 61.504524 ], [ 10.036122, 61.504521 ], [ 10.036027, 61.504521 ], [ 10.035999, 61.504522 ], [ 10.035805, 61.504509 ], [ 10.035692, 61.504507 ], [ 10.035657, 61.504506 ], [ 10.035631, 61.504498 ], [ 10.035602, 61.504488 ], [ 10.03556, 61.504482 ], [ 10.035521, 61.504482 ], [ 10.035489, 61.504485 ], [ 10.035458, 61.504481 ], [ 10.03522, 61.504456 ], [ 10.035183, 61.50445 ], [ 10.03498, 61.504447 ], [ 10.034704, 61.504446 ], [ 10.034654, 61.504448 ], [ 10.034605, 61.504448 ], [ 10.034564, 61.504446 ], [ 10.034416, 61.504474 ], [ 10.034365, 61.504481 ], [ 10.034094, 61.504528 ], [ 10.034046, 61.504537 ], [ 10.033997, 61.504545 ], [ 10.033945, 61.504542 ], [ 10.033901, 61.504539 ], [ 10.033857, 61.504537 ], [ 10.033824, 61.504536 ], [ 10.033755, 61.504527 ], [ 10.033681, 61.504514 ], [ 10.033639, 61.504508 ], [ 10.033607, 61.504504 ], [ 10.033439, 61.504504 ], [ 10.033401, 61.50451 ], [ 10.033375, 61.504511 ], [ 10.033286, 61.504493 ], [ 10.033261, 61.504483 ], [ 10.03324, 61.504475 ], [ 10.033213, 61.504466 ], [ 10.033192, 61.504458 ], [ 10.033148, 61.504454 ], [ 10.033127, 61.504457 ], [ 10.033108, 61.504459 ], [ 10.03308, 61.504459 ], [ 10.033048, 61.504461 ], [ 10.033021, 61.504466 ], [ 10.03299, 61.504471 ], [ 10.032961, 61.504474 ], [ 10.032934, 61.504476 ], [ 10.032909, 61.504477 ], [ 10.032889, 61.504479 ], [ 10.032867, 61.504479 ], [ 10.032841, 61.504479 ], [ 10.032807, 61.504479 ], [ 10.03277, 61.50448 ], [ 10.032733, 61.504478 ], [ 10.032693, 61.504478 ], [ 10.032655, 61.504476 ], [ 10.032618, 61.504473 ], [ 10.03258, 61.504469 ], [ 10.032543, 61.504465 ], [ 10.032512, 61.50446 ], [ 10.032479, 61.504456 ], [ 10.032447, 61.504456 ], [ 10.032416, 61.504455 ], [ 10.032382, 61.504454 ], [ 10.032344, 61.504458 ], [ 10.032302, 61.504459 ], [ 10.032265, 61.50446 ], [ 10.032228, 61.50446 ], [ 10.032196, 61.504459 ], [ 10.032169, 61.504456 ], [ 10.032141, 61.504457 ], [ 10.032109, 61.504459 ], [ 10.032077, 61.50446 ], [ 10.032047, 61.504461 ], [ 10.032018, 61.504463 ], [ 10.031986, 61.504468 ], [ 10.031958, 61.504474 ], [ 10.031927, 61.504476 ], [ 10.031898, 61.504481 ], [ 10.031872, 61.504489 ], [ 10.031847, 61.504494 ], [ 10.031823, 61.504492 ], [ 10.031793, 61.504492 ], [ 10.03177, 61.504494 ], [ 10.031744, 61.504495 ], [ 10.031718, 61.504497 ], [ 10.031694, 61.504499 ], [ 10.031671, 61.504498 ], [ 10.031643, 61.504497 ], [ 10.031614, 61.504497 ], [ 10.031592, 61.504496 ], [ 10.031572, 61.504495 ], [ 10.031551, 61.504496 ], [ 10.03153, 61.504496 ], [ 10.031498, 61.504498 ], [ 10.031475, 61.504501 ], [ 10.031454, 61.504505 ], [ 10.031427, 61.504507 ], [ 10.031394, 61.50451 ], [ 10.031362, 61.504512 ], [ 10.031328, 61.504514 ], [ 10.031299, 61.504514 ], [ 10.031268, 61.504515 ], [ 10.031236, 61.504517 ], [ 10.031213, 61.504519 ], [ 10.031184, 61.50452 ], [ 10.031157, 61.504523 ], [ 10.03113, 61.504526 ], [ 10.031103, 61.50453 ], [ 10.031082, 61.504531 ], [ 10.031059, 61.504533 ], [ 10.031029, 61.504536 ], [ 10.030998, 61.504541 ], [ 10.030966, 61.504544 ], [ 10.030931, 61.504545 ], [ 10.030896, 61.504548 ], [ 10.030861, 61.504551 ], [ 10.030822, 61.504554 ], [ 10.030713, 61.50457 ], [ 10.030631, 61.504587 ], [ 10.030542, 61.504605 ], [ 10.030336, 61.50466 ], [ 10.030295, 61.504672 ], [ 10.030208, 61.504698 ], [ 10.030174, 61.504705 ], [ 10.03014, 61.504713 ], [ 10.030037, 61.504748 ], [ 10.029996, 61.504759 ], [ 10.029956, 61.504769 ], [ 10.029921, 61.504775 ], [ 10.029891, 61.504781 ], [ 10.029858, 61.504785 ], [ 10.029821, 61.504793 ], [ 10.029789, 61.5048 ], [ 10.029757, 61.504809 ], [ 10.029713, 61.504829 ], [ 10.02969, 61.504839 ], [ 10.029672, 61.50485 ], [ 10.029649, 61.504861 ], [ 10.02963, 61.504874 ], [ 10.029615, 61.504884 ], [ 10.029601, 61.504896 ], [ 10.029589, 61.504906 ], [ 10.029579, 61.504913 ], [ 10.029565, 61.50492 ], [ 10.029551, 61.504928 ], [ 10.029526, 61.504939 ], [ 10.029503, 61.504948 ], [ 10.029488, 61.504953 ], [ 10.029464, 61.504959 ], [ 10.029439, 61.504968 ], [ 10.029419, 61.50498 ], [ 10.029402, 61.504989 ], [ 10.029382, 61.505 ], [ 10.029357, 61.505011 ], [ 10.029334, 61.50502 ], [ 10.029317, 61.50503 ], [ 10.029298, 61.50504 ], [ 10.029276, 61.505053 ], [ 10.029257, 61.505057 ], [ 10.029241, 61.505066 ], [ 10.02922, 61.505076 ], [ 10.029193, 61.505085 ], [ 10.029174, 61.505095 ], [ 10.029163, 61.505105 ], [ 10.029148, 61.505111 ], [ 10.029116, 61.50512 ], [ 10.02909, 61.505126 ], [ 10.029068, 61.50513 ], [ 10.029037, 61.50514 ], [ 10.029008, 61.50515 ], [ 10.028985, 61.505158 ], [ 10.02896, 61.505167 ], [ 10.028933, 61.505174 ], [ 10.028914, 61.50518 ], [ 10.028896, 61.505188 ], [ 10.028879, 61.505195 ], [ 10.02886, 61.505201 ], [ 10.02885, 61.505202 ], [ 10.028849, 61.505204 ], [ 10.028849, 61.505204 ], [ 10.028849, 61.505204 ], [ 10.028849, 61.505204 ], [ 10.028849, 61.505204 ], [ 10.028849, 61.505204 ], [ 10.028849, 61.505204 ], [ 10.028851, 61.505205 ], [ 10.028849, 61.505204 ], [ 10.028849, 61.505204 ], [ 10.028849, 61.505204 ], [ 10.028849, 61.505204 ], [ 10.028849, 61.505204 ], [ 10.028849, 61.505204 ], [ 10.028849, 61.505204 ], [ 10.028849, 61.505204 ], [ 10.028849, 61.505204 ], [ 10.028854, 61.505198 ], [ 10.028849, 61.505204 ], [ 10.028863, 61.505219 ], [ 10.02885, 61.505234 ], [ 10.02885, 61.505239 ], [ 10.02885, 61.505239 ], [ 10.02885, 61.505239 ], [ 10.02885, 61.505239 ], [ 10.02885, 61.505239 ], [ 10.02885, 61.505239 ], [ 10.02885, 61.505239 ], [ 10.02885, 61.505239 ], [ 10.02885, 61.505239 ], [ 10.02885, 61.505239 ], [ 10.02885, 61.505239 ], [ 10.02885, 61.505239 ], [ 10.02885, 61.505239 ], [ 10.02885, 61.505239 ], [ 10.02885, 61.505239 ], [ 10.02885, 61.505239 ], [ 10.02885, 61.505239 ], [ 10.028852, 61.505258 ], [ 10.028852, 61.505258 ], [ 10.028873, 61.505268 ], [ 10.028902, 61.505269 ], [ 10.028972, 61.505299 ], [ 10.029034, 61.505322 ], [ 10.029116, 61.505362 ], [ 10.029234, 61.505383 ], [ 10.029351, 61.505393 ], [ 10.029433, 61.505379 ], [ 10.029512, 61.505361 ], [ 10.029621, 61.505368 ], [ 10.029731, 61.505397 ], [ 10.029848, 61.505421 ], [ 10.029962, 61.505437 ], [ 10.030072, 61.50545 ], [ 10.03019, 61.505466 ], [ 10.030304, 61.505488 ], [ 10.03059, 61.505523 ], [ 10.030753, 61.50553 ], [ 10.031065, 61.505555 ], [ 10.031207, 61.505572 ], [ 10.031353, 61.505584 ], [ 10.031489, 61.505593 ], [ 10.031611, 61.505606 ], [ 10.031742, 61.505622 ], [ 10.031886, 61.505639 ], [ 10.032046, 61.505652 ], [ 10.032187, 61.505674 ], [ 10.032301, 61.505692 ], [ 10.03239, 61.505712 ], [ 10.032482, 61.505726 ], [ 10.03257, 61.50576 ], [ 10.032664, 61.5058 ], [ 10.032757, 61.505838 ], [ 10.032836, 61.505869 ], [ 10.032927, 61.505887 ], [ 10.033027, 61.505913 ], [ 10.033126, 61.505949 ], [ 10.033337, 61.506037 ], [ 10.033404, 61.506091 ], [ 10.033464, 61.506139 ], [ 10.033502, 61.506185 ], [ 10.033555, 61.506227 ], [ 10.033619, 61.506262 ], [ 10.033687, 61.506288 ], [ 10.033754, 61.506312 ], [ 10.033815, 61.506332 ], [ 10.033872, 61.506358 ], [ 10.033925, 61.506374 ], [ 10.033985, 61.506387 ], [ 10.034131, 61.506395 ], [ 10.034211, 61.506424 ], [ 10.034402, 61.506465 ], [ 10.034495, 61.506498 ], [ 10.034598, 61.50652 ], [ 10.034825, 61.506523 ], [ 10.034931, 61.506518 ], [ 10.035034, 61.506514 ], [ 10.035126, 61.506521 ], [ 10.035233, 61.506537 ], [ 10.035337, 61.506538 ], [ 10.035437, 61.506543 ], [ 10.035539, 61.506546 ], [ 10.035639, 61.506548 ], [ 10.035741, 61.506543 ], [ 10.035844, 61.506532 ], [ 10.036052, 61.506509 ], [ 10.036156, 61.506492 ], [ 10.036243, 61.50647 ], [ 10.03633, 61.506451 ], [ 10.036523, 61.506407 ], [ 10.03662, 61.506387 ], [ 10.036804, 61.506334 ], [ 10.03687, 61.506302 ], [ 10.03694, 61.506268 ], [ 10.037164, 61.506161 ], [ 10.03722, 61.506128 ], [ 10.037268, 61.506103 ], [ 10.037306, 61.506082 ], [ 10.037335, 61.50606 ], [ 10.037366, 61.506039 ], [ 10.037393, 61.506017 ], [ 10.037415, 61.505993 ], [ 10.03744, 61.505968 ], [ 10.037479, 61.505883 ], [ 10.037492, 61.505853 ], [ 10.037543, 61.505828 ], [ 10.037595, 61.505789 ], [ 10.037643, 61.505755 ], [ 10.037694, 61.505722 ], [ 10.037742, 61.505693 ], [ 10.037791, 61.505664 ], [ 10.037825, 61.505636 ], [ 10.03785, 61.505613 ], [ 10.037867, 61.505592 ], [ 10.037874, 61.505572 ], [ 10.037886, 61.505555 ], [ 10.037965, 61.505504 ], [ 10.038052, 61.50549 ], [ 10.038144, 61.505469 ], [ 10.038219, 61.505446 ], [ 10.038279, 61.505426 ], [ 10.038346, 61.505408 ], [ 10.038433, 61.505396 ], [ 10.038553, 61.505381 ], [ 10.038685, 61.505384 ], [ 10.038805, 61.505373 ], [ 10.038916, 61.505347 ], [ 10.038997, 61.505299 ], [ 10.03907, 61.505258 ], [ 10.039176, 61.505237 ], [ 10.039268, 61.505206 ], [ 10.039378, 61.505195 ], [ 10.039498, 61.505196 ], [ 10.039601, 61.505198 ], [ 10.039695, 61.505221 ], [ 10.039799, 61.505228 ], [ 10.039916, 61.505224 ], [ 10.04002, 61.505219 ], [ 10.040125, 61.505216 ], [ 10.040226, 61.505233 ], [ 10.040318, 61.50525 ], [ 10.040414, 61.505252 ], [ 10.040495, 61.505263 ], [ 10.040581, 61.505264 ], [ 10.0407, 61.505266 ], [ 10.040819, 61.505256 ], [ 10.040925, 61.505244 ], [ 10.041037, 61.505246 ], [ 10.041146, 61.505236 ], [ 10.041259, 61.505243 ], [ 10.041507, 61.50527 ], [ 10.041633, 61.505281 ], [ 10.041753, 61.505286 ], [ 10.041848, 61.50526 ], [ 10.041949, 61.505235 ], [ 10.042061, 61.505218 ], [ 10.04218, 61.505197 ], [ 10.042307, 61.505184 ], [ 10.042443, 61.505175 ], [ 10.042708, 61.505175 ], [ 10.042828, 61.505181 ], [ 10.042937, 61.5052 ], [ 10.043049, 61.505207 ], [ 10.043164, 61.505215 ], [ 10.043279, 61.505217 ], [ 10.043407, 61.505228 ], [ 10.043529, 61.505242 ], [ 10.043642, 61.505257 ], [ 10.04375, 61.505262 ], [ 10.04384, 61.505254 ], [ 10.043924, 61.505254 ], [ 10.043982, 61.505262 ], [ 10.044022, 61.505268 ], [ 10.044056, 61.505292 ], [ 10.0441, 61.505331 ], [ 10.044183, 61.505366 ], [ 10.044277, 61.5054 ], [ 10.044394, 61.505441 ], [ 10.044606, 61.505535 ], [ 10.044712, 61.505579 ], [ 10.044825, 61.505595 ], [ 10.045082, 61.505609 ], [ 10.04519, 61.505587 ], [ 10.045295, 61.505585 ], [ 10.045342, 61.505617 ], [ 10.045373, 61.505662 ], [ 10.045431, 61.505701 ], [ 10.04554, 61.505783 ], [ 10.045585, 61.505831 ], [ 10.045638, 61.505884 ], [ 10.045693, 61.505946 ], [ 10.045745, 61.506018 ], [ 10.045817, 61.506082 ], [ 10.045989, 61.506191 ], [ 10.046058, 61.506254 ], [ 10.0461, 61.506304 ], [ 10.046132, 61.506326 ], [ 10.046141, 61.506335 ], [ 10.046135, 61.506336 ], [ 10.046134, 61.506336 ], [ 10.046134, 61.506336 ], [ 10.046114, 61.506377 ], [ 10.046127, 61.506405 ], [ 10.046154, 61.506435 ], [ 10.046192, 61.506466 ], [ 10.046256, 61.506497 ], [ 10.046314, 61.506532 ], [ 10.046393, 61.506606 ], [ 10.04643, 61.50664 ], [ 10.04645, 61.506677 ], [ 10.046469, 61.506711 ], [ 10.046506, 61.506737 ], [ 10.046533, 61.506764 ], [ 10.046557, 61.50679 ], [ 10.046594, 61.50681 ], [ 10.046648, 61.506829 ], [ 10.046719, 61.506846 ], [ 10.046794, 61.506857 ], [ 10.046866, 61.506869 ], [ 10.046899, 61.506892 ], [ 10.046887, 61.506924 ], [ 10.046865, 61.506957 ], [ 10.046894, 61.50699 ], [ 10.046946, 61.507009 ], [ 10.046984, 61.507031 ], [ 10.047031, 61.50705 ], [ 10.047082, 61.507051 ], [ 10.047127, 61.507054 ], [ 10.047151, 61.507056 ], [ 10.047176, 61.507059 ], [ 10.04719, 61.507062 ], [ 10.047216, 61.507064 ], [ 10.04736, 61.50708 ], [ 10.047456, 61.507083 ], [ 10.047564, 61.507084 ], [ 10.047724, 61.507087 ], [ 10.047772, 61.507094 ], [ 10.047803, 61.507109 ], [ 10.047841, 61.507123 ], [ 10.047879, 61.507133 ], [ 10.047884, 61.507142 ], [ 10.047889, 61.507142 ], [ 10.047898, 61.507144 ], [ 10.0479, 61.507144 ], [ 10.0479, 61.507144 ], [ 10.047904, 61.50714 ], [ 10.047916, 61.507137 ], [ 10.047931, 61.50713 ], [ 10.048, 61.507119 ], [ 10.048043, 61.507124 ], [ 10.048075, 61.507127 ], [ 10.048101, 61.507131 ], [ 10.048116, 61.507133 ], [ 10.048121, 61.507137 ], [ 10.048132, 61.507138 ], [ 10.048134, 61.50714 ], [ 10.048184, 61.507128 ], [ 10.04823, 61.507121 ], [ 10.048392, 61.507105 ], [ 10.048625, 61.507094 ], [ 10.048666, 61.507078 ], [ 10.048716, 61.50707 ], [ 10.04877, 61.507064 ], [ 10.048873, 61.507026 ], [ 10.049102, 61.506961 ], [ 10.04915, 61.506962 ], [ 10.049187, 61.506958 ], [ 10.049236, 61.50695 ], [ 10.049281, 61.506947 ], [ 10.049311, 61.506945 ], [ 10.049341, 61.506946 ], [ 10.04949, 61.506901 ], [ 10.049586, 61.506891 ], [ 10.04962, 61.506884 ], [ 10.049651, 61.506885 ], [ 10.049687, 61.506886 ], [ 10.049764, 61.506888 ], [ 10.049797, 61.506887 ], [ 10.049826, 61.506888 ], [ 10.049844, 61.506891 ], [ 10.049868, 61.506894 ], [ 10.049887, 61.5069 ], [ 10.04991, 61.506908 ], [ 10.049936, 61.506913 ], [ 10.049966, 61.506909 ], [ 10.049994, 61.506909 ], [ 10.05002, 61.506914 ], [ 10.050029, 61.506918 ], [ 10.050035, 61.50693 ], [ 10.050037, 61.506941 ], [ 10.05005, 61.506967 ], [ 10.050059, 61.506984 ], [ 10.050072, 61.507 ], [ 10.050081, 61.507015 ], [ 10.050094, 61.507028 ], [ 10.05011, 61.507039 ], [ 10.050126, 61.50705 ], [ 10.050148, 61.507065 ], [ 10.050165, 61.507077 ], [ 10.050197, 61.507093 ], [ 10.050236, 61.507101 ], [ 10.050274, 61.507106 ], [ 10.050326, 61.507108 ], [ 10.050373, 61.507103 ], [ 10.050417, 61.507095 ], [ 10.050476, 61.507092 ], [ 10.050527, 61.507082 ], [ 10.050593, 61.507061 ], [ 10.050655, 61.507039 ], [ 10.050713, 61.507037 ], [ 10.050753, 61.507039 ], [ 10.050796, 61.507033 ], [ 10.05083, 61.507017 ], [ 10.050858, 61.507004 ], [ 10.05088, 61.506991 ], [ 10.050916, 61.50698 ], [ 10.050958, 61.506974 ], [ 10.050998, 61.506969 ], [ 10.05103, 61.506969 ], [ 10.051061, 61.506977 ], [ 10.051102, 61.50698 ], [ 10.051138, 61.506975 ], [ 10.051176, 61.506963 ], [ 10.051213, 61.506949 ], [ 10.051243, 61.506932 ], [ 10.051268, 61.506916 ], [ 10.051298, 61.506907 ], [ 10.051347, 61.506887 ], [ 10.051365, 61.506874 ], [ 10.051484, 61.506802 ], [ 10.051508, 61.50678 ], [ 10.05154, 61.506761 ], [ 10.051577, 61.506742 ], [ 10.051658, 61.506701 ], [ 10.051712, 61.506675 ], [ 10.051764, 61.506616 ], [ 10.051777, 61.506592 ], [ 10.051787, 61.506574 ], [ 10.0518, 61.506556 ], [ 10.051817, 61.506543 ], [ 10.051832, 61.506528 ], [ 10.051847, 61.506512 ], [ 10.051864, 61.506498 ], [ 10.051918, 61.506474 ], [ 10.051941, 61.506463 ], [ 10.051969, 61.506457 ], [ 10.051997, 61.506457 ], [ 10.052019, 61.506467 ], [ 10.052041, 61.506478 ], [ 10.052137, 61.506492 ], [ 10.052166, 61.506486 ], [ 10.052179, 61.506482 ], [ 10.052188, 61.506477 ], [ 10.052185, 61.506467 ], [ 10.052182, 61.506458 ], [ 10.052189, 61.506452 ], [ 10.052193, 61.506444 ], [ 10.052189, 61.506448 ], [ 10.052189, 61.506448 ], [ 10.052189, 61.506448 ], [ 10.052189, 61.506448 ], [ 10.052189, 61.50644 ], [ 10.052182, 61.506437 ], [ 10.052183, 61.506437 ], [ 10.052189, 61.506448 ], [ 10.052189, 61.506448 ], [ 10.052194, 61.506435 ], [ 10.052189, 61.506448 ], [ 10.052189, 61.506448 ], [ 10.052189, 61.506448 ], [ 10.052189, 61.506448 ], [ 10.052189, 61.506448 ], [ 10.052189, 61.506448 ], [ 10.052189, 61.506448 ], [ 10.052189, 61.506448 ], [ 10.052189, 61.506448 ], [ 10.052189, 61.506448 ], [ 10.052189, 61.506448 ], [ 10.052189, 61.506448 ], [ 10.052189, 61.506448 ], [ 10.052189, 61.506448 ], [ 10.052189, 61.506448 ], [ 10.052189, 61.506448 ], [ 10.052189, 61.506448 ], [ 10.052189, 61.506448 ], [ 10.052189, 61.506448 ], [ 10.052189, 61.506448 ], [ 10.052189, 61.506448 ], [ 10.052189, 61.506448 ], [ 10.0522, 61.506435 ], [ 10.0522, 61.506435 ], [ 10.0522, 61.506435 ], [ 10.0522, 61.506435 ], [ 10.0522, 61.506435 ], [ 10.0522, 61.506435 ], [ 10.052214, 61.506431 ], [ 10.0522, 61.506435 ], [ 10.0522, 61.506435 ], [ 10.0522, 61.506435 ], [ 10.0522, 61.506435 ], [ 10.05222, 61.50643 ], [ 10.052228, 61.506389 ], [ 10.052259, 61.506285 ], [ 10.052268, 61.50626 ], [ 10.052351, 61.506145 ], [ 10.052384, 61.506114 ], [ 10.052419, 61.506084 ], [ 10.052455, 61.506056 ], [ 10.052491, 61.506031 ], [ 10.052561, 61.505975 ], [ 10.052593, 61.505946 ], [ 10.052617, 61.505924 ], [ 10.052644, 61.505906 ], [ 10.052664, 61.505893 ], [ 10.052678, 61.505885 ], [ 10.052692, 61.505875 ], [ 10.052702, 61.505871 ], [ 10.052713, 61.505864 ], [ 10.052718, 61.505858 ], [ 10.052729, 61.50584 ], [ 10.052736, 61.505827 ], [ 10.052747, 61.505819 ], [ 10.052756, 61.50581 ], [ 10.052766, 61.505803 ], [ 10.052781, 61.505799 ], [ 10.052797, 61.505798 ], [ 10.052826, 61.505801 ], [ 10.05286, 61.505808 ], [ 10.053006, 61.505818 ], [ 10.053043, 61.505813 ], [ 10.053074, 61.505809 ], [ 10.053098, 61.505807 ], [ 10.053109, 61.505809 ], [ 10.053129, 61.505812 ], [ 10.053125, 61.505811 ], [ 10.053146, 61.505811 ], [ 10.053221, 61.505812 ], [ 10.053255, 61.505812 ], [ 10.053295, 61.505812 ], [ 10.053429, 61.505811 ], [ 10.053466, 61.505816 ], [ 10.053536, 61.505828 ], [ 10.053562, 61.505834 ], [ 10.053589, 61.505836 ], [ 10.053615, 61.505843 ], [ 10.053651, 61.505852 ], [ 10.053694, 61.505858 ], [ 10.053726, 61.505865 ], [ 10.053761, 61.505866 ], [ 10.053792, 61.505868 ], [ 10.053818, 61.505869 ], [ 10.053837, 61.505876 ], [ 10.053854, 61.505877 ], [ 10.053857, 61.505881 ], [ 10.05388, 61.505895 ], [ 10.053916, 61.505906 ], [ 10.053962, 61.505912 ], [ 10.053999, 61.505915 ], [ 10.054036, 61.505917 ], [ 10.054073, 61.505916 ], [ 10.054097, 61.505917 ], [ 10.054117, 61.505923 ], [ 10.054148, 61.505928 ], [ 10.054183, 61.505926 ], [ 10.05421, 61.505933 ], [ 10.05424, 61.50594 ], [ 10.054267, 61.505945 ], [ 10.054296, 61.505955 ], [ 10.05432, 61.505968 ], [ 10.054341, 61.505982 ], [ 10.054364, 61.506 ], [ 10.054388, 61.506019 ], [ 10.054407, 61.506038 ], [ 10.05443, 61.506054 ], [ 10.054455, 61.506067 ], [ 10.054479, 61.506083 ], [ 10.054507, 61.506097 ], [ 10.054544, 61.50611 ], [ 10.054576, 61.50612 ], [ 10.054606, 61.50613 ], [ 10.054635, 61.506138 ], [ 10.054654, 61.506143 ], [ 10.054676, 61.506158 ], [ 10.054701, 61.506171 ], [ 10.054725, 61.506182 ], [ 10.054751, 61.506193 ], [ 10.054778, 61.506204 ], [ 10.054808, 61.506215 ], [ 10.054833, 61.506225 ], [ 10.054866, 61.506239 ], [ 10.054895, 61.506252 ], [ 10.054917, 61.506263 ], [ 10.054938, 61.506274 ], [ 10.054963, 61.506287 ], [ 10.054979, 61.5063 ], [ 10.054995, 61.506313 ], [ 10.055021, 61.506319 ], [ 10.055043, 61.506321 ], [ 10.055054, 61.506322 ], [ 10.055071, 61.506329 ], [ 10.055111, 61.506347 ], [ 10.055127, 61.506354 ], [ 10.05513, 61.506363 ], [ 10.055131, 61.506375 ], [ 10.055133, 61.506385 ], [ 10.055122, 61.506388 ], [ 10.055129, 61.506386 ], [ 10.055134, 61.506389 ], [ 10.055157, 61.506404 ], [ 10.055181, 61.506414 ], [ 10.055188, 61.506416 ], [ 10.055188, 61.506416 ], [ 10.055188, 61.506416 ], [ 10.055188, 61.506416 ], [ 10.055192, 61.506416 ], [ 10.055216, 61.506417 ], [ 10.055228, 61.506419 ], [ 10.055229, 61.506419 ], [ 10.055321, 61.50646 ], [ 10.055347, 61.506468 ], [ 10.055372, 61.506479 ], [ 10.055398, 61.506492 ], [ 10.055421, 61.506499 ], [ 10.05545, 61.506503 ], [ 10.055464, 61.506515 ], [ 10.055488, 61.506521 ], [ 10.05551, 61.506527 ], [ 10.055616, 61.506562 ], [ 10.055643, 61.506566 ], [ 10.055673, 61.506569 ], [ 10.055698, 61.506576 ], [ 10.055728, 61.506581 ], [ 10.05576, 61.506587 ], [ 10.055801, 61.506592 ], [ 10.055831, 61.506597 ], [ 10.055862, 61.506603 ], [ 10.05589, 61.506608 ], [ 10.055916, 61.50661 ], [ 10.055943, 61.506607 ], [ 10.055966, 61.506606 ], [ 10.055991, 61.506604 ], [ 10.056008, 61.506604 ], [ 10.056005, 61.50661 ], [ 10.056008, 61.506611 ], [ 10.056007, 61.506611 ], [ 10.056007, 61.506611 ], [ 10.056007, 61.506611 ], [ 10.056007, 61.506611 ], [ 10.056064, 61.506606 ], [ 10.056224, 61.506598 ], [ 10.056311, 61.506588 ], [ 10.056332, 61.506579 ], [ 10.05635, 61.506568 ], [ 10.056369, 61.506563 ], [ 10.056382, 61.506559 ], [ 10.056396, 61.506558 ], [ 10.056405, 61.506554 ], [ 10.056413, 61.50655 ], [ 10.056425, 61.506545 ], [ 10.056438, 61.506539 ], [ 10.056447, 61.506531 ], [ 10.056454, 61.506527 ], [ 10.056467, 61.506525 ], [ 10.056487, 61.506524 ], [ 10.056501, 61.506523 ], [ 10.056514, 61.506523 ], [ 10.056532, 61.506526 ], [ 10.05655, 61.506531 ], [ 10.056574, 61.506534 ], [ 10.056599, 61.506534 ], [ 10.056628, 61.506531 ], [ 10.056657, 61.506529 ], [ 10.056681, 61.506527 ], [ 10.056713, 61.506522 ], [ 10.056737, 61.506516 ], [ 10.056761, 61.506508 ], [ 10.05678, 61.506503 ], [ 10.056803, 61.506498 ], [ 10.056826, 61.506496 ], [ 10.05686, 61.506496 ], [ 10.056892, 61.506489 ], [ 10.056931, 61.506491 ], [ 10.056954, 61.506492 ], [ 10.05698, 61.5065 ], [ 10.057014, 61.506507 ], [ 10.057046, 61.50651 ], [ 10.057078, 61.506508 ], [ 10.057093, 61.506513 ], [ 10.057125, 61.506509 ], [ 10.05715, 61.506514 ], [ 10.05718, 61.506516 ], [ 10.057228, 61.506515 ], [ 10.057284, 61.506516 ], [ 10.057345, 61.506517 ], [ 10.057394, 61.506516 ], [ 10.057442, 61.50651 ], [ 10.057491, 61.506505 ], [ 10.057613, 61.506493 ], [ 10.057675, 61.506494 ], [ 10.057726, 61.506497 ], [ 10.057893, 61.506501 ], [ 10.057946, 61.506501 ], [ 10.058158, 61.506515 ], [ 10.058201, 61.506517 ], [ 10.058248, 61.506515 ], [ 10.058282, 61.506517 ], [ 10.058317, 61.506518 ], [ 10.058351, 61.506517 ], [ 10.058381, 61.506517 ], [ 10.058402, 61.506514 ], [ 10.058414, 61.506513 ], [ 10.058434, 61.50651 ], [ 10.058443, 61.506506 ], [ 10.058442, 61.506507 ], [ 10.058442, 61.506507 ], [ 10.058442, 61.506507 ], [ 10.058449, 61.506502 ], [ 10.058556, 61.506498 ], [ 10.058625, 61.506491 ], [ 10.058784, 61.506479 ], [ 10.058815, 61.506485 ], [ 10.058852, 61.506491 ], [ 10.058888, 61.506499 ], [ 10.058934, 61.506508 ], [ 10.059045, 61.506537 ], [ 10.05916, 61.506576 ], [ 10.059183, 61.506591 ], [ 10.059216, 61.506608 ], [ 10.059255, 61.506622 ], [ 10.059311, 61.506658 ], [ 10.059396, 61.506668 ], [ 10.059456, 61.50667 ], [ 10.059513, 61.506681 ], [ 10.059574, 61.506695 ], [ 10.059694, 61.506715 ], [ 10.059752, 61.506728 ], [ 10.059863, 61.506744 ], [ 10.059921, 61.506735 ], [ 10.059972, 61.506726 ], [ 10.060023, 61.506714 ], [ 10.060059, 61.506698 ], [ 10.060094, 61.506681 ], [ 10.060125, 61.506666 ], [ 10.060154, 61.506654 ], [ 10.060218, 61.506648 ], [ 10.060286, 61.506644 ], [ 10.060342, 61.506642 ], [ 10.060387, 61.506629 ], [ 10.060469, 61.506608 ], [ 10.060519, 61.506611 ], [ 10.060565, 61.506618 ], [ 10.060617, 61.506624 ], [ 10.06088, 61.50665 ], [ 10.060933, 61.506656 ], [ 10.060984, 61.506661 ], [ 10.061023, 61.506679 ], [ 10.061088, 61.506721 ], [ 10.061138, 61.506743 ], [ 10.061198, 61.506749 ], [ 10.061262, 61.506736 ], [ 10.061331, 61.506719 ], [ 10.061516, 61.506686 ], [ 10.06159, 61.50666 ], [ 10.061663, 61.506644 ], [ 10.06174, 61.506634 ], [ 10.06182, 61.506626 ], [ 10.061893, 61.506624 ], [ 10.061978, 61.506631 ], [ 10.062053, 61.506643 ], [ 10.062122, 61.506654 ], [ 10.062185, 61.506666 ], [ 10.062243, 61.506675 ], [ 10.062298, 61.506682 ], [ 10.062398, 61.506721 ], [ 10.062479, 61.506773 ], [ 10.0625, 61.506802 ], [ 10.062514, 61.506834 ], [ 10.062524, 61.506864 ], [ 10.062532, 61.506896 ], [ 10.062545, 61.506926 ], [ 10.062567, 61.507017 ], [ 10.062601, 61.507103 ], [ 10.062622, 61.50716 ], [ 10.062631, 61.507189 ], [ 10.06264, 61.507215 ], [ 10.062649, 61.507241 ], [ 10.06266, 61.507262 ], [ 10.062669, 61.507284 ], [ 10.062664, 61.507303 ], [ 10.062646, 61.507322 ], [ 10.06264, 61.507339 ], [ 10.062647, 61.507357 ], [ 10.062666, 61.507373 ], [ 10.062682, 61.507387 ], [ 10.062701, 61.507397 ], [ 10.062715, 61.507406 ], [ 10.062758, 61.507438 ], [ 10.062767, 61.507453 ], [ 10.062774, 61.507463 ], [ 10.062781, 61.507473 ], [ 10.062795, 61.50751 ], [ 10.062826, 61.507539 ], [ 10.062854, 61.507549 ], [ 10.062894, 61.507551 ], [ 10.062927, 61.507552 ], [ 10.062957, 61.507553 ], [ 10.062985, 61.507557 ], [ 10.06302, 61.507553 ], [ 10.063044, 61.507543 ], [ 10.063073, 61.507534 ], [ 10.0631, 61.507527 ], [ 10.063131, 61.507523 ], [ 10.063184, 61.507512 ], [ 10.063204, 61.507507 ], [ 10.063224, 61.5075 ], [ 10.063243, 61.507491 ], [ 10.063257, 61.507487 ], [ 10.063273, 61.507481 ], [ 10.063293, 61.507482 ], [ 10.063301, 61.507481 ], [ 10.063307, 61.507475 ], [ 10.063303, 61.507478 ], [ 10.063319, 61.507476 ], [ 10.06334, 61.507471 ], [ 10.063365, 61.507467 ], [ 10.063393, 61.507464 ], [ 10.063413, 61.507464 ], [ 10.063451, 61.507456 ], [ 10.063473, 61.50745 ], [ 10.06348, 61.507447 ], [ 10.063496, 61.507446 ], [ 10.063539, 61.507443 ], [ 10.063571, 61.507443 ], [ 10.063596, 61.507444 ], [ 10.063614, 61.507445 ], [ 10.063626, 61.507451 ], [ 10.063628, 61.507461 ], [ 10.063692, 61.507521 ], [ 10.063716, 61.507518 ], [ 10.063724, 61.507516 ], [ 10.06373, 61.507516 ], [ 10.063731, 61.507515 ], [ 10.063791, 61.507515 ], [ 10.063855, 61.507514 ], [ 10.063889, 61.50751 ], [ 10.063914, 61.507505 ], [ 10.063966, 61.507507 ], [ 10.06399, 61.507507 ], [ 10.064101, 61.507489 ], [ 10.064133, 61.507492 ], [ 10.064171, 61.507499 ], [ 10.064203, 61.507504 ], [ 10.064229, 61.507508 ], [ 10.06426, 61.507512 ], [ 10.064286, 61.507509 ], [ 10.064316, 61.507506 ], [ 10.064351, 61.5075 ], [ 10.064383, 61.507502 ], [ 10.064414, 61.507507 ], [ 10.064449, 61.50751 ], [ 10.064482, 61.507507 ], [ 10.06451, 61.507502 ], [ 10.064542, 61.507496 ], [ 10.064573, 61.507488 ], [ 10.0646, 61.507475 ], [ 10.064621, 61.507463 ], [ 10.064636, 61.507447 ], [ 10.064653, 61.507441 ], [ 10.064675, 61.507434 ], [ 10.064701, 61.507429 ], [ 10.064729, 61.507422 ], [ 10.064746, 61.507415 ], [ 10.064777, 61.507406 ], [ 10.064811, 61.507396 ], [ 10.064844, 61.507385 ], [ 10.064872, 61.507384 ], [ 10.064912, 61.507386 ], [ 10.064959, 61.507386 ], [ 10.065005, 61.507376 ], [ 10.065043, 61.507365 ], [ 10.065091, 61.507359 ], [ 10.065149, 61.507354 ], [ 10.065207, 61.50735 ], [ 10.065266, 61.507351 ], [ 10.065318, 61.507351 ], [ 10.06536, 61.507351 ], [ 10.065399, 61.507357 ], [ 10.065439, 61.507363 ], [ 10.065525, 61.507355 ], [ 10.065564, 61.507356 ], [ 10.065598, 61.507365 ], [ 10.065644, 61.507376 ], [ 10.065682, 61.50739 ], [ 10.065718, 61.507404 ], [ 10.065758, 61.507416 ], [ 10.065797, 61.507428 ], [ 10.065851, 61.50746 ], [ 10.065884, 61.507475 ], [ 10.065915, 61.507483 ], [ 10.065936, 61.507498 ], [ 10.065954, 61.50752 ], [ 10.065951, 61.507538 ], [ 10.065934, 61.507556 ], [ 10.065922, 61.50759 ], [ 10.065916, 61.507607 ], [ 10.065917, 61.507625 ], [ 10.065914, 61.507643 ], [ 10.065922, 61.507662 ], [ 10.065942, 61.507679 ], [ 10.06597, 61.507694 ], [ 10.065987, 61.507711 ], [ 10.06598, 61.507729 ], [ 10.065979, 61.507755 ], [ 10.065994, 61.507775 ], [ 10.066003, 61.507794 ], [ 10.066012, 61.507811 ], [ 10.066007, 61.507827 ], [ 10.066008, 61.507841 ], [ 10.066025, 61.507858 ], [ 10.066042, 61.507875 ], [ 10.066064, 61.507889 ], [ 10.066094, 61.507896 ], [ 10.066111, 61.507901 ], [ 10.066142, 61.507912 ], [ 10.066166, 61.507919 ], [ 10.066188, 61.507926 ], [ 10.066217, 61.507936 ], [ 10.066245, 61.507944 ], [ 10.066277, 61.507948 ], [ 10.066312, 61.507949 ], [ 10.066329, 61.507953 ], [ 10.066345, 61.507957 ], [ 10.066353, 61.507963 ], [ 10.06635, 61.507964 ], [ 10.06635, 61.507964 ], [ 10.066349, 61.507965 ], [ 10.06635, 61.507964 ], [ 10.06635, 61.507964 ], [ 10.06635, 61.507964 ], [ 10.06635, 61.507964 ], [ 10.06635, 61.507964 ], [ 10.06635, 61.507964 ], [ 10.06635, 61.507964 ], [ 10.06635, 61.507964 ], [ 10.06635, 61.507964 ], [ 10.06635, 61.507964 ], [ 10.06635, 61.507964 ], [ 10.06635, 61.507964 ], [ 10.06635, 61.507964 ], [ 10.06635, 61.507964 ], [ 10.06635, 61.507964 ], [ 10.06635, 61.507964 ], [ 10.06635, 61.507964 ], [ 10.06635, 61.507964 ], [ 10.06635, 61.507964 ], [ 10.06635, 61.507964 ], [ 10.06635, 61.507964 ], [ 10.06635, 61.507964 ], [ 10.06635, 61.507964 ], [ 10.06635, 61.507964 ], [ 10.06635, 61.507964 ], [ 10.06635, 61.507964 ], [ 10.06635, 61.507964 ], [ 10.06635, 61.507964 ], [ 10.06635, 61.507964 ], [ 10.06635, 61.507964 ], [ 10.06635, 61.507964 ], [ 10.06635, 61.507964 ], [ 10.06635, 61.507964 ], [ 10.06635, 61.507964 ], [ 10.06635, 61.507964 ], [ 10.06635, 61.507964 ], [ 10.06635, 61.507964 ], [ 10.06635, 61.507964 ], [ 10.06635, 61.507964 ], [ 10.06635, 61.507964 ], [ 10.06635, 61.507964 ], [ 10.06635, 61.507964 ], [ 10.06635, 61.507964 ], [ 10.066352, 61.507961 ], [ 10.06635, 61.507964 ], [ 10.06635, 61.507964 ], [ 10.06635, 61.507964 ], [ 10.06635, 61.507964 ], [ 10.066346, 61.507976 ], [ 10.066351, 61.507981 ], [ 10.066371, 61.507991 ], [ 10.066392, 61.508001 ], [ 10.066414, 61.508031 ], [ 10.066429, 61.508043 ], [ 10.066445, 61.508052 ], [ 10.066457, 61.508061 ], [ 10.066474, 61.508071 ], [ 10.066519, 61.508132 ], [ 10.066514, 61.508147 ], [ 10.066513, 61.508163 ], [ 10.066546, 61.508219 ], [ 10.066581, 61.50824 ], [ 10.066638, 61.508256 ], [ 10.066699, 61.508267 ], [ 10.066754, 61.508291 ], [ 10.06686, 61.508358 ], [ 10.066903, 61.508396 ], [ 10.066947, 61.508438 ], [ 10.067018, 61.508479 ], [ 10.067146, 61.50854 ], [ 10.06719, 61.508559 ], [ 10.067229, 61.508578 ], [ 10.06726, 61.508593 ], [ 10.06728, 61.508617 ], [ 10.067288, 61.508649 ], [ 10.067294, 61.508681 ], [ 10.067316, 61.508719 ], [ 10.067381, 61.508744 ], [ 10.067454, 61.508755 ], [ 10.067524, 61.508771 ], [ 10.067606, 61.508781 ], [ 10.067672, 61.508782 ], [ 10.067735, 61.508782 ], [ 10.067788, 61.508785 ], [ 10.067836, 61.508793 ], [ 10.067882, 61.508817 ], [ 10.067922, 61.508842 ], [ 10.067986, 61.508866 ], [ 10.068051, 61.50889 ], [ 10.068104, 61.50892 ], [ 10.068148, 61.508953 ], [ 10.068206, 61.508963 ], [ 10.068254, 61.50897 ], [ 10.068289, 61.508991 ], [ 10.068424, 61.509069 ], [ 10.068467, 61.509097 ], [ 10.068526, 61.509125 ], [ 10.068568, 61.509159 ], [ 10.068634, 61.509192 ], [ 10.068709, 61.509218 ], [ 10.068739, 61.509252 ], [ 10.068728, 61.509287 ], [ 10.068711, 61.509324 ], [ 10.068717, 61.509355 ], [ 10.0687, 61.509392 ], [ 10.068675, 61.509434 ], [ 10.068694, 61.509474 ], [ 10.068724, 61.50951 ], [ 10.068751, 61.509553 ], [ 10.068765, 61.509654 ], [ 10.06878, 61.509698 ], [ 10.068742, 61.509734 ], [ 10.06871, 61.509773 ], [ 10.068688, 61.509803 ], [ 10.068688, 61.50984 ], [ 10.068733, 61.509867 ], [ 10.068771, 61.509887 ], [ 10.068837, 61.50994 ], [ 10.068877, 61.50996 ], [ 10.0689, 61.509989 ], [ 10.06893, 61.510009 ], [ 10.068923, 61.510028 ], [ 10.068889, 61.510039 ], [ 10.068723, 61.510088 ], [ 10.068706, 61.51012 ], [ 10.068716, 61.51015 ], [ 10.068719, 61.510181 ], [ 10.068762, 61.510208 ], [ 10.068814, 61.510221 ], [ 10.068848, 61.510241 ], [ 10.068878, 61.51026 ], [ 10.068868, 61.510288 ], [ 10.068884, 61.510323 ], [ 10.068925, 61.510347 ], [ 10.06898, 61.510366 ], [ 10.069004, 61.51039 ], [ 10.069035, 61.510418 ], [ 10.069133, 61.510459 ], [ 10.069194, 61.510478 ], [ 10.069224, 61.510506 ], [ 10.069211, 61.510528 ], [ 10.069179, 61.510541 ], [ 10.069109, 61.510594 ], [ 10.069091, 61.510628 ], [ 10.069038, 61.510656 ], [ 10.068967, 61.510683 ], [ 10.068885, 61.510757 ], [ 10.068874, 61.510803 ], [ 10.068891, 61.510844 ], [ 10.06894, 61.510866 ], [ 10.068992, 61.510889 ], [ 10.069061, 61.510911 ], [ 10.069108, 61.510943 ], [ 10.069126, 61.510982 ], [ 10.069112, 61.511025 ], [ 10.069118, 61.511069 ], [ 10.069088, 61.511113 ], [ 10.069091, 61.511157 ], [ 10.069131, 61.511191 ], [ 10.06918, 61.511223 ], [ 10.069277, 61.511286 ], [ 10.069318, 61.51132 ], [ 10.069347, 61.511345 ], [ 10.069368, 61.51137 ], [ 10.069389, 61.511397 ], [ 10.069394, 61.51142 ], [ 10.069383, 61.511443 ], [ 10.069378, 61.51147 ], [ 10.069397, 61.511493 ], [ 10.069408, 61.511512 ], [ 10.069401, 61.511531 ], [ 10.069405, 61.511553 ], [ 10.069389, 61.51162 ], [ 10.069349, 61.511654 ], [ 10.069349, 61.511692 ], [ 10.069344, 61.511734 ], [ 10.069286, 61.511855 ], [ 10.069291, 61.511893 ], [ 10.069305, 61.511936 ], [ 10.069314, 61.511973 ], [ 10.069337, 61.512011 ], [ 10.069325, 61.512042 ], [ 10.069309, 61.512072 ], [ 10.06927, 61.512132 ], [ 10.069245, 61.512161 ], [ 10.069235, 61.512191 ], [ 10.06924, 61.512219 ], [ 10.069232, 61.512277 ], [ 10.069243, 61.512339 ], [ 10.069275, 61.512426 ], [ 10.069285, 61.512474 ], [ 10.069316, 61.51252 ], [ 10.069376, 61.512551 ], [ 10.069431, 61.512568 ], [ 10.069463, 61.512588 ], [ 10.069489, 61.512607 ], [ 10.069521, 61.512625 ], [ 10.069557, 61.512628 ], [ 10.069597, 61.512629 ], [ 10.069618, 61.512628 ], [ 10.069682, 61.512626 ], [ 10.069755, 61.512623 ], [ 10.069788, 61.512635 ], [ 10.069811, 61.512641 ], [ 10.069846, 61.512654 ], [ 10.069875, 61.512667 ], [ 10.069904, 61.51268 ], [ 10.069937, 61.512686 ], [ 10.06996, 61.51269 ], [ 10.06999, 61.512714 ], [ 10.070117, 61.512789 ], [ 10.070161, 61.512799 ], [ 10.070209, 61.51281 ], [ 10.070247, 61.512819 ], [ 10.070268, 61.512838 ], [ 10.07029, 61.512855 ], [ 10.070301, 61.512877 ], [ 10.070322, 61.512895 ], [ 10.070349, 61.51291 ], [ 10.070382, 61.512925 ], [ 10.070416, 61.512934 ], [ 10.070442, 61.51294 ], [ 10.070477, 61.512954 ], [ 10.070507, 61.512968 ], [ 10.070633, 61.513016 ], [ 10.070649, 61.513046 ], [ 10.070643, 61.513073 ], [ 10.070631, 61.513099 ], [ 10.070637, 61.513121 ], [ 10.070636, 61.513144 ], [ 10.070681, 61.513196 ], [ 10.070696, 61.513234 ], [ 10.070714, 61.513277 ], [ 10.070753, 61.513324 ], [ 10.070783, 61.513367 ], [ 10.070805, 61.513414 ], [ 10.070822, 61.513459 ], [ 10.07084, 61.513503 ], [ 10.07084, 61.513541 ], [ 10.070819, 61.513578 ], [ 10.070813, 61.513616 ], [ 10.070828, 61.513645 ], [ 10.070852, 61.513669 ], [ 10.070861, 61.513695 ], [ 10.070858, 61.513726 ], [ 10.070883, 61.513779 ], [ 10.070902, 61.5138 ], [ 10.070904, 61.513821 ], [ 10.070902, 61.513844 ], [ 10.070904, 61.513864 ], [ 10.070905, 61.513885 ], [ 10.070908, 61.513906 ], [ 10.070913, 61.51392 ], [ 10.07091, 61.513931 ], [ 10.070914, 61.513937 ], [ 10.070914, 61.513937 ], [ 10.070872, 61.513972 ], [ 10.070796, 61.514029 ], [ 10.070775, 61.514099 ], [ 10.070779, 61.514129 ], [ 10.07074, 61.514152 ], [ 10.070696, 61.514166 ], [ 10.07065, 61.514172 ], [ 10.070555, 61.514212 ], [ 10.070501, 61.514227 ], [ 10.070449, 61.514236 ], [ 10.070381, 61.514245 ], [ 10.07032, 61.514256 ], [ 10.070275, 61.514269 ], [ 10.07023, 61.514279 ], [ 10.070193, 61.514284 ], [ 10.070161, 61.514295 ], [ 10.070133, 61.514306 ], [ 10.070095, 61.514317 ], [ 10.070063, 61.514329 ], [ 10.069948, 61.514373 ], [ 10.069877, 61.514398 ], [ 10.069817, 61.514416 ], [ 10.069756, 61.514437 ], [ 10.069668, 61.51447 ], [ 10.069582, 61.514491 ], [ 10.069488, 61.514492 ], [ 10.069371, 61.514486 ], [ 10.069264, 61.514487 ], [ 10.069182, 61.514502 ], [ 10.069106, 61.514513 ], [ 10.069038, 61.514521 ], [ 10.068964, 61.514519 ], [ 10.0689, 61.514519 ], [ 10.068837, 61.51453 ], [ 10.068782, 61.514546 ], [ 10.068722, 61.514562 ], [ 10.068676, 61.514589 ], [ 10.068671, 61.514615 ], [ 10.068644, 61.514637 ], [ 10.06859, 61.514654 ], [ 10.068516, 61.514708 ], [ 10.068519, 61.514736 ], [ 10.06852, 61.514757 ], [ 10.06853, 61.514776 ], [ 10.068554, 61.514793 ], [ 10.068584, 61.51481 ], [ 10.068629, 61.514823 ], [ 10.068655, 61.514837 ], [ 10.068657, 61.514849 ], [ 10.068639, 61.514872 ], [ 10.068631, 61.514921 ], [ 10.068657, 61.514949 ], [ 10.068698, 61.514974 ], [ 10.06874, 61.514996 ], [ 10.068781, 61.515012 ], [ 10.06882, 61.515028 ], [ 10.068904, 61.515068 ], [ 10.068959, 61.515092 ], [ 10.068992, 61.515115 ], [ 10.069011, 61.515143 ], [ 10.069036, 61.515175 ], [ 10.06906, 61.515202 ], [ 10.069065, 61.515222 ], [ 10.069043, 61.515247 ], [ 10.069026, 61.515277 ], [ 10.069006, 61.5153 ], [ 10.068968, 61.515326 ], [ 10.068942, 61.515348 ], [ 10.068921, 61.515373 ], [ 10.068897, 61.515397 ], [ 10.068894, 61.515418 ], [ 10.068899, 61.515434 ], [ 10.068907, 61.515456 ], [ 10.06889, 61.51548 ], [ 10.068843, 61.515504 ], [ 10.068787, 61.515527 ], [ 10.068742, 61.515551 ], [ 10.068698, 61.515574 ], [ 10.068679, 61.515598 ], [ 10.068674, 61.515625 ], [ 10.068672, 61.515653 ], [ 10.068653, 61.515673 ], [ 10.068607, 61.515698 ], [ 10.068554, 61.515721 ], [ 10.068508, 61.515748 ], [ 10.06849, 61.515778 ], [ 10.068491, 61.515811 ], [ 10.068464, 61.515842 ], [ 10.068427, 61.515872 ], [ 10.068384, 61.515903 ], [ 10.068342, 61.515938 ], [ 10.068292, 61.515971 ], [ 10.068237, 61.516004 ], [ 10.068229, 61.516047 ], [ 10.068259, 61.516087 ], [ 10.068305, 61.516121 ], [ 10.068354, 61.516155 ], [ 10.068397, 61.51619 ], [ 10.068431, 61.516219 ], [ 10.068446, 61.516244 ], [ 10.068419, 61.516268 ], [ 10.068423, 61.516294 ], [ 10.068466, 61.516347 ], [ 10.068511, 61.516382 ], [ 10.068562, 61.516404 ], [ 10.068596, 61.516426 ], [ 10.068639, 61.516481 ], [ 10.068728, 61.516552 ], [ 10.068757, 61.516568 ], [ 10.068819, 61.516619 ], [ 10.068813, 61.516648 ], [ 10.068783, 61.516686 ], [ 10.068749, 61.516735 ], [ 10.068709, 61.516785 ], [ 10.068645, 61.516825 ], [ 10.068577, 61.516865 ], [ 10.068516, 61.516901 ], [ 10.06847, 61.516935 ], [ 10.068453, 61.516973 ], [ 10.068449, 61.516997 ], [ 10.068431, 61.51702 ], [ 10.068407, 61.517088 ], [ 10.068417, 61.51711 ], [ 10.068369, 61.517244 ], [ 10.068353, 61.517274 ], [ 10.068352, 61.517311 ], [ 10.068332, 61.51739 ], [ 10.068286, 61.517435 ], [ 10.068252, 61.51753 ], [ 10.06825, 61.51757 ], [ 10.068258, 61.517602 ], [ 10.06826, 61.51763 ], [ 10.068267, 61.517656 ], [ 10.06826, 61.517682 ], [ 10.068247, 61.517702 ], [ 10.06823, 61.517716 ], [ 10.068178, 61.517753 ], [ 10.068174, 61.517804 ], [ 10.068173, 61.517831 ], [ 10.068163, 61.517852 ], [ 10.06815, 61.517864 ], [ 10.06815, 61.51788 ], [ 10.068153, 61.517894 ], [ 10.068144, 61.51791 ], [ 10.068147, 61.517931 ], [ 10.068152, 61.51795 ], [ 10.068159, 61.517971 ], [ 10.068164, 61.517983 ], [ 10.068172, 61.517996 ], [ 10.068178, 61.518004 ], [ 10.068187, 61.518012 ], [ 10.0682, 61.518027 ], [ 10.068209, 61.51804 ], [ 10.068218, 61.518056 ], [ 10.068211, 61.518075 ], [ 10.068199, 61.518088 ], [ 10.068191, 61.518101 ], [ 10.068185, 61.518112 ], [ 10.068184, 61.518124 ], [ 10.068173, 61.518136 ], [ 10.068162, 61.518147 ], [ 10.068149, 61.518156 ], [ 10.06813, 61.518164 ], [ 10.068114, 61.518178 ], [ 10.068104, 61.518191 ], [ 10.068096, 61.518203 ], [ 10.068089, 61.51822 ], [ 10.068073, 61.518229 ], [ 10.068042, 61.518233 ], [ 10.068005, 61.518243 ], [ 10.067975, 61.518255 ], [ 10.067946, 61.518266 ], [ 10.06792, 61.518277 ], [ 10.067896, 61.518286 ], [ 10.06787, 61.518297 ], [ 10.067844, 61.518306 ], [ 10.067813, 61.518317 ], [ 10.067779, 61.518322 ], [ 10.067744, 61.518327 ], [ 10.067655, 61.518365 ], [ 10.067625, 61.518379 ], [ 10.067592, 61.518391 ], [ 10.067568, 61.518401 ], [ 10.067428, 61.518459 ], [ 10.067392, 61.518475 ], [ 10.067351, 61.518488 ], [ 10.067325, 61.5185 ], [ 10.067281, 61.51853 ], [ 10.06725, 61.518542 ], [ 10.067219, 61.51855 ], [ 10.067196, 61.518557 ], [ 10.067186, 61.518563 ], [ 10.06718, 61.518569 ], [ 10.067177, 61.518568 ], [ 10.067168, 61.518569 ], [ 10.067168, 61.518569 ], [ 10.067141, 61.518582 ], [ 10.067053, 61.518606 ], [ 10.067022, 61.518609 ], [ 10.066979, 61.518617 ], [ 10.066829, 61.518645 ], [ 10.066783, 61.518667 ], [ 10.066738, 61.518685 ], [ 10.066685, 61.518699 ], [ 10.066631, 61.518709 ], [ 10.066574, 61.518711 ], [ 10.066512, 61.518721 ], [ 10.066493, 61.518742 ], [ 10.066422, 61.518747 ], [ 10.066344, 61.51875 ], [ 10.066209, 61.518776 ], [ 10.066152, 61.518784 ], [ 10.066092, 61.518801 ], [ 10.066042, 61.51881 ], [ 10.065989, 61.518803 ], [ 10.065891, 61.518823 ], [ 10.065862, 61.518847 ], [ 10.065822, 61.518865 ], [ 10.065783, 61.518873 ], [ 10.065728, 61.51888 ], [ 10.065679, 61.518881 ], [ 10.065622, 61.51888 ], [ 10.06558, 61.518873 ], [ 10.065485, 61.51889 ], [ 10.065448, 61.518907 ], [ 10.065412, 61.51896 ], [ 10.065448, 61.518986 ], [ 10.065462, 61.519014 ], [ 10.065446, 61.519039 ], [ 10.065414, 61.519074 ], [ 10.065416, 61.519107 ], [ 10.065442, 61.519132 ], [ 10.065461, 61.519152 ], [ 10.065477, 61.519161 ], [ 10.065466, 61.519157 ], [ 10.06546, 61.519152 ], [ 10.065461, 61.519152 ], [ 10.06546, 61.519152 ], [ 10.06546, 61.519152 ], [ 10.06546, 61.519152 ], [ 10.06546, 61.519152 ], [ 10.065469, 61.51915 ], [ 10.065454, 61.519155 ], [ 10.065454, 61.519161 ], [ 10.06546, 61.519152 ], [ 10.065438, 61.519156 ], [ 10.065444, 61.519164 ], [ 10.065449, 61.519167 ], [ 10.065449, 61.519168 ], [ 10.065451, 61.519172 ], [ 10.06555, 61.51923 ], [ 10.06562, 61.519255 ], [ 10.06567, 61.519283 ], [ 10.065697, 61.51931 ], [ 10.06574, 61.519336 ], [ 10.065782, 61.519356 ], [ 10.065824, 61.519369 ], [ 10.065846, 61.519378 ], [ 10.065892, 61.519393 ], [ 10.065937, 61.519404 ], [ 10.065981, 61.519413 ], [ 10.066242, 61.519456 ], [ 10.066273, 61.51946 ], [ 10.066343, 61.519475 ], [ 10.066447, 61.519503 ], [ 10.066509, 61.519531 ], [ 10.066678, 61.519587 ], [ 10.066715, 61.519607 ], [ 10.066813, 61.519648 ], [ 10.066882, 61.519653 ], [ 10.066934, 61.519655 ], [ 10.067017, 61.519665 ], [ 10.067102, 61.519664 ], [ 10.067178, 61.519662 ], [ 10.067248, 61.519656 ], [ 10.067294, 61.519653 ], [ 10.067323, 61.519649 ], [ 10.067383, 61.519641 ], [ 10.067558, 61.519614 ], [ 10.067612, 61.519599 ], [ 10.067678, 61.519588 ], [ 10.067852, 61.51957 ], [ 10.067933, 61.519563 ], [ 10.068019, 61.519561 ], [ 10.068086, 61.519563 ], [ 10.06813, 61.519572 ], [ 10.06818, 61.519609 ], [ 10.068175, 61.519627 ], [ 10.068165, 61.519647 ], [ 10.068167, 61.519663 ], [ 10.068148, 61.519681 ], [ 10.068144, 61.519692 ], [ 10.068133, 61.519704 ], [ 10.068106, 61.51975 ], [ 10.068095, 61.519761 ], [ 10.068087, 61.51977 ], [ 10.068085, 61.519775 ], [ 10.068107, 61.519812 ], [ 10.068118, 61.519824 ], [ 10.068114, 61.519838 ], [ 10.068099, 61.519868 ], [ 10.068107, 61.519877 ], [ 10.06811, 61.519894 ], [ 10.068111, 61.519911 ], [ 10.06814, 61.520026 ], [ 10.068171, 61.520054 ], [ 10.068207, 61.520074 ], [ 10.068246, 61.520088 ], [ 10.068273, 61.520096 ], [ 10.0683, 61.520116 ], [ 10.068324, 61.52014 ], [ 10.068394, 61.520212 ], [ 10.068444, 61.520245 ], [ 10.068484, 61.520314 ], [ 10.068502, 61.52035 ], [ 10.068522, 61.520393 ], [ 10.068558, 61.520443 ], [ 10.068609, 61.520486 ], [ 10.06862, 61.520511 ], [ 10.068619, 61.520534 ], [ 10.068612, 61.520557 ], [ 10.068596, 61.520576 ], [ 10.068589, 61.520581 ], [ 10.068593, 61.520589 ], [ 10.068595, 61.520596 ], [ 10.068587, 61.520605 ], [ 10.068556, 61.520625 ], [ 10.06854, 61.520626 ], [ 10.068523, 61.520634 ], [ 10.068475, 61.520642 ], [ 10.068442, 61.520644 ], [ 10.068406, 61.520647 ], [ 10.068361, 61.520654 ], [ 10.068313, 61.520665 ], [ 10.068271, 61.520675 ], [ 10.068216, 61.520688 ], [ 10.068169, 61.520701 ], [ 10.068132, 61.520712 ], [ 10.068083, 61.520724 ], [ 10.067977, 61.520744 ], [ 10.067864, 61.520753 ], [ 10.067812, 61.520757 ], [ 10.06776, 61.520761 ], [ 10.067725, 61.52077 ], [ 10.067684, 61.520778 ], [ 10.067605, 61.520799 ], [ 10.067549, 61.520799 ], [ 10.067442, 61.520816 ], [ 10.067382, 61.520829 ], [ 10.067329, 61.520842 ], [ 10.067282, 61.52086 ], [ 10.067254, 61.520885 ], [ 10.067281, 61.520916 ], [ 10.067312, 61.520948 ], [ 10.067277, 61.520977 ], [ 10.067256, 61.520998 ], [ 10.067248, 61.521005 ], [ 10.067222, 61.521015 ], [ 10.0672, 61.521028 ], [ 10.067099, 61.521072 ], [ 10.067075, 61.521085 ], [ 10.067063, 61.521094 ], [ 10.067049, 61.521102 ], [ 10.067032, 61.521109 ], [ 10.067009, 61.52111 ], [ 10.066974, 61.521121 ], [ 10.066951, 61.52113 ], [ 10.066862, 61.521159 ], [ 10.066778, 61.52117 ], [ 10.066735, 61.521175 ], [ 10.066574, 61.521205 ], [ 10.066454, 61.521238 ], [ 10.066406, 61.521254 ], [ 10.066349, 61.521271 ], [ 10.066182, 61.52129 ], [ 10.066021, 61.521312 ], [ 10.065954, 61.521325 ], [ 10.06589, 61.521337 ], [ 10.065837, 61.521344 ], [ 10.065796, 61.521349 ], [ 10.065745, 61.521351 ], [ 10.065566, 61.521375 ], [ 10.065513, 61.52138 ], [ 10.065463, 61.521387 ], [ 10.065162, 61.521415 ], [ 10.065082, 61.521416 ], [ 10.065009, 61.521417 ], [ 10.064852, 61.521433 ], [ 10.064781, 61.521442 ], [ 10.064707, 61.521444 ], [ 10.064631, 61.521447 ], [ 10.06442, 61.52149 ], [ 10.064348, 61.521513 ], [ 10.064269, 61.521522 ], [ 10.06411, 61.521547 ], [ 10.063952, 61.521571 ], [ 10.063885, 61.521573 ], [ 10.063822, 61.521585 ], [ 10.063768, 61.521604 ], [ 10.06371, 61.521617 ], [ 10.063556, 61.521625 ], [ 10.063475, 61.521638 ], [ 10.063385, 61.521636 ], [ 10.063284, 61.521645 ], [ 10.063188, 61.521673 ], [ 10.063091, 61.521709 ], [ 10.062967, 61.521726 ], [ 10.062844, 61.521742 ], [ 10.062748, 61.52177 ], [ 10.062697, 61.521805 ], [ 10.062632, 61.521829 ], [ 10.062569, 61.521844 ], [ 10.062515, 61.521876 ], [ 10.062371, 61.521928 ], [ 10.062322, 61.521959 ], [ 10.062275, 61.521988 ], [ 10.062227, 61.522005 ], [ 10.062159, 61.522016 ], [ 10.062106, 61.522026 ], [ 10.062067, 61.522044 ], [ 10.06203, 61.522071 ], [ 10.061971, 61.522099 ], [ 10.061897, 61.522124 ], [ 10.061704, 61.522146 ], [ 10.061622, 61.522162 ], [ 10.061549, 61.522172 ], [ 10.061382, 61.522186 ], [ 10.061305, 61.522205 ], [ 10.06124, 61.522218 ], [ 10.061057, 61.522249 ], [ 10.060949, 61.522266 ], [ 10.060881, 61.522283 ], [ 10.060816, 61.522289 ], [ 10.060752, 61.522277 ], [ 10.060659, 61.522262 ], [ 10.060559, 61.522253 ], [ 10.060478, 61.522252 ], [ 10.060393, 61.52225 ], [ 10.060324, 61.522253 ], [ 10.06026, 61.52226 ], [ 10.060208, 61.522276 ], [ 10.060168, 61.522288 ], [ 10.060134, 61.522298 ], [ 10.060093, 61.522308 ], [ 10.06006, 61.522316 ], [ 10.060029, 61.522331 ], [ 10.059997, 61.522334 ], [ 10.059966, 61.522333 ], [ 10.059942, 61.52234 ], [ 10.059916, 61.522356 ], [ 10.059884, 61.522371 ], [ 10.05986, 61.522387 ], [ 10.059836, 61.522396 ], [ 10.059814, 61.522401 ], [ 10.0598, 61.522409 ], [ 10.059781, 61.522421 ], [ 10.059693, 61.522436 ], [ 10.059607, 61.522459 ], [ 10.059581, 61.522473 ], [ 10.059545, 61.522495 ], [ 10.059491, 61.522513 ], [ 10.059445, 61.522526 ], [ 10.059411, 61.52254 ], [ 10.059378, 61.522564 ], [ 10.059336, 61.522581 ], [ 10.059287, 61.522606 ], [ 10.059184, 61.52265 ], [ 10.059095, 61.522706 ], [ 10.059037, 61.522723 ], [ 10.058982, 61.522749 ], [ 10.058938, 61.522786 ], [ 10.058914, 61.52282 ], [ 10.058869, 61.522847 ], [ 10.058784, 61.522902 ], [ 10.058697, 61.522954 ], [ 10.058646, 61.522974 ], [ 10.058602, 61.522997 ], [ 10.058546, 61.523013 ], [ 10.058501, 61.523023 ], [ 10.058461, 61.523043 ], [ 10.058419, 61.523054 ], [ 10.058368, 61.523058 ], [ 10.05825, 61.523095 ], [ 10.058144, 61.52315 ], [ 10.05809, 61.523172 ], [ 10.058038, 61.523191 ], [ 10.057974, 61.523211 ], [ 10.05791, 61.52324 ], [ 10.057785, 61.523291 ], [ 10.05773, 61.523315 ], [ 10.057658, 61.523336 ], [ 10.057595, 61.523348 ], [ 10.057532, 61.52336 ], [ 10.057398, 61.523381 ], [ 10.057343, 61.523389 ], [ 10.0573, 61.523398 ], [ 10.057261, 61.523403 ], [ 10.05723, 61.523401 ], [ 10.057197, 61.523401 ], [ 10.05717, 61.5234 ], [ 10.057163, 61.523399 ], [ 10.057163, 61.523399 ], [ 10.057147, 61.523394 ], [ 10.057076, 61.523411 ], [ 10.057036, 61.523434 ], [ 10.056992, 61.523446 ], [ 10.056875, 61.52348 ], [ 10.056728, 61.523495 ], [ 10.056578, 61.523513 ], [ 10.056521, 61.523529 ], [ 10.056468, 61.523535 ], [ 10.056417, 61.523547 ], [ 10.056303, 61.52357 ], [ 10.056086, 61.523619 ], [ 10.056024, 61.523628 ], [ 10.055803, 61.523665 ], [ 10.055732, 61.523677 ], [ 10.05568, 61.523707 ], [ 10.055627, 61.523728 ], [ 10.055552, 61.523747 ], [ 10.055491, 61.523767 ], [ 10.055426, 61.52379 ], [ 10.055356, 61.523803 ], [ 10.055199, 61.523844 ], [ 10.055026, 61.523893 ], [ 10.05495, 61.523916 ], [ 10.054869, 61.523941 ], [ 10.054795, 61.523962 ], [ 10.054725, 61.523973 ], [ 10.054656, 61.523979 ], [ 10.054585, 61.523982 ], [ 10.054517, 61.523983 ], [ 10.054473, 61.523978 ], [ 10.054436, 61.523971 ], [ 10.054421, 61.523962 ], [ 10.054402, 61.523951 ], [ 10.054392, 61.523948 ], [ 10.054392, 61.523948 ], [ 10.054392, 61.523948 ], [ 10.054392, 61.523948 ], [ 10.054392, 61.523948 ], [ 10.054392, 61.523948 ], [ 10.054392, 61.523948 ], [ 10.054392, 61.523948 ], [ 10.054392, 61.523948 ], [ 10.054392, 61.523948 ], [ 10.054392, 61.523948 ], [ 10.054392, 61.523948 ], [ 10.054392, 61.523948 ], [ 10.054359, 61.523941 ], [ 10.054228, 61.523937 ], [ 10.05416, 61.523918 ], [ 10.054099, 61.523908 ], [ 10.054047, 61.523904 ], [ 10.05399, 61.52389 ], [ 10.053941, 61.523879 ], [ 10.05387, 61.523879 ], [ 10.053756, 61.523907 ], [ 10.053736, 61.523928 ], [ 10.053739, 61.523948 ], [ 10.053751, 61.523978 ], [ 10.053799, 61.524016 ], [ 10.053829, 61.524043 ], [ 10.053851, 61.524072 ], [ 10.053881, 61.524098 ], [ 10.053877, 61.524116 ], [ 10.053866, 61.524147 ], [ 10.053859, 61.52417 ], [ 10.053833, 61.524242 ], [ 10.053823, 61.524264 ], [ 10.053832, 61.524284 ], [ 10.053857, 61.524299 ], [ 10.053878, 61.524314 ], [ 10.053892, 61.524335 ], [ 10.05391, 61.524359 ], [ 10.053922, 61.52438 ], [ 10.053935, 61.524398 ], [ 10.053945, 61.524416 ], [ 10.053972, 61.52443 ], [ 10.053995, 61.524441 ], [ 10.054008, 61.524459 ], [ 10.054025, 61.52448 ], [ 10.054045, 61.524495 ], [ 10.054069, 61.5245 ], [ 10.054131, 61.524499 ], [ 10.054157, 61.524506 ], [ 10.054183, 61.524509 ], [ 10.054284, 61.524521 ], [ 10.054366, 61.524537 ], [ 10.054441, 61.52456 ], [ 10.054501, 61.52459 ], [ 10.054555, 61.524628 ], [ 10.054629, 61.524662 ], [ 10.054688, 61.524691 ], [ 10.054727, 61.524719 ], [ 10.054758, 61.524751 ], [ 10.054764, 61.52478 ], [ 10.054752, 61.524821 ], [ 10.054751, 61.524863 ], [ 10.054775, 61.524904 ], [ 10.054781, 61.524943 ], [ 10.054794, 61.524985 ], [ 10.054783, 61.525028 ], [ 10.054773, 61.525069 ], [ 10.054767, 61.525107 ], [ 10.054759, 61.525146 ], [ 10.054754, 61.525186 ], [ 10.054749, 61.525221 ], [ 10.05474, 61.525251 ], [ 10.054708, 61.525282 ], [ 10.054651, 61.525305 ], [ 10.054585, 61.525314 ], [ 10.054446, 61.525331 ], [ 10.054388, 61.525339 ], [ 10.054331, 61.525347 ], [ 10.05429, 61.525357 ], [ 10.054235, 61.525377 ], [ 10.054197, 61.525405 ], [ 10.054207, 61.525431 ], [ 10.05432, 61.525465 ], [ 10.054404, 61.525472 ], [ 10.054578, 61.525496 ], [ 10.054696, 61.525506 ], [ 10.054818, 61.525515 ], [ 10.054935, 61.525527 ], [ 10.055051, 61.525537 ], [ 10.055156, 61.52556 ], [ 10.055282, 61.52559 ], [ 10.055412, 61.525613 ], [ 10.055544, 61.525641 ], [ 10.055668, 61.525668 ], [ 10.055796, 61.525687 ], [ 10.055935, 61.525702 ], [ 10.056069, 61.525719 ], [ 10.056194, 61.525735 ], [ 10.056312, 61.525748 ], [ 10.056405, 61.525755 ], [ 10.056483, 61.525764 ], [ 10.05653, 61.525786 ], [ 10.056539, 61.525815 ], [ 10.056536, 61.525842 ], [ 10.056511, 61.525863 ], [ 10.056492, 61.525876 ], [ 10.056475, 61.525889 ], [ 10.056457, 61.525903 ], [ 10.056425, 61.525921 ], [ 10.056239, 61.526008 ], [ 10.056179, 61.526046 ], [ 10.056111, 61.526094 ], [ 10.056041, 61.526142 ], [ 10.055934, 61.52618 ], [ 10.055681, 61.526252 ], [ 10.055567, 61.526293 ], [ 10.055454, 61.526336 ], [ 10.055336, 61.526386 ], [ 10.055251, 61.526438 ], [ 10.055156, 61.526481 ], [ 10.055071, 61.526509 ], [ 10.055001, 61.526526 ], [ 10.05494, 61.526551 ], [ 10.054919, 61.526577 ], [ 10.054947, 61.52661 ], [ 10.054991, 61.526642 ], [ 10.055052, 61.526674 ], [ 10.055117, 61.526696 ], [ 10.05519, 61.526707 ], [ 10.055266, 61.526713 ], [ 10.05534, 61.52672 ], [ 10.055411, 61.526722 ], [ 10.055495, 61.526733 ], [ 10.055567, 61.526749 ], [ 10.05563, 61.526787 ], [ 10.055687, 61.526824 ], [ 10.055719, 61.526852 ], [ 10.05574, 61.526872 ], [ 10.055735, 61.526878 ], [ 10.055734, 61.526879 ], [ 10.055781, 61.526922 ], [ 10.055848, 61.526949 ], [ 10.055912, 61.526976 ], [ 10.055993, 61.526998 ], [ 10.056077, 61.527013 ], [ 10.056132, 61.527043 ], [ 10.056129, 61.527077 ], [ 10.056113, 61.527129 ], [ 10.056076, 61.527183 ], [ 10.056019, 61.527245 ], [ 10.055992, 61.527307 ], [ 10.055889, 61.527415 ], [ 10.055818, 61.527475 ], [ 10.055748, 61.527537 ], [ 10.055705, 61.527602 ], [ 10.055665, 61.52773 ], [ 10.055631, 61.527789 ], [ 10.055636, 61.527847 ], [ 10.055654, 61.527898 ], [ 10.055672, 61.527955 ], [ 10.055689, 61.528007 ], [ 10.055739, 61.528061 ], [ 10.055816, 61.528107 ], [ 10.055897, 61.528153 ], [ 10.055977, 61.528193 ], [ 10.056033, 61.528245 ], [ 10.056106, 61.528301 ], [ 10.056178, 61.528338 ], [ 10.056248, 61.528366 ], [ 10.056341, 61.528389 ], [ 10.056444, 61.528406 ], [ 10.056539, 61.528438 ], [ 10.056626, 61.528467 ], [ 10.05671, 61.528498 ], [ 10.056806, 61.528515 ], [ 10.056908, 61.528533 ], [ 10.056987, 61.528557 ], [ 10.057062, 61.528583 ], [ 10.057143, 61.528601 ], [ 10.057232, 61.528616 ], [ 10.057309, 61.528623 ], [ 10.057398, 61.528627 ], [ 10.057483, 61.528629 ], [ 10.05757, 61.528634 ], [ 10.057624, 61.52866 ], [ 10.057638, 61.5287 ], [ 10.057538, 61.528793 ], [ 10.057468, 61.528857 ], [ 10.057381, 61.52891 ], [ 10.057275, 61.52896 ], [ 10.057162, 61.529013 ], [ 10.057041, 61.529067 ], [ 10.056784, 61.529185 ], [ 10.056647, 61.529235 ], [ 10.056505, 61.52927 ], [ 10.056379, 61.529304 ], [ 10.056248, 61.52934 ], [ 10.056118, 61.529373 ], [ 10.055983, 61.529396 ], [ 10.055843, 61.529414 ], [ 10.055543, 61.529443 ], [ 10.055193, 61.529458 ], [ 10.055061, 61.529478 ], [ 10.054995, 61.529518 ], [ 10.055023, 61.529566 ], [ 10.055091, 61.529594 ], [ 10.055193, 61.529609 ], [ 10.055297, 61.529639 ], [ 10.055405, 61.529687 ], [ 10.055502, 61.52974 ], [ 10.055615, 61.529776 ], [ 10.055715, 61.529793 ], [ 10.055789, 61.529809 ], [ 10.055848, 61.529832 ], [ 10.055879, 61.52986 ], [ 10.055919, 61.529887 ], [ 10.055953, 61.529894 ], [ 10.055947, 61.529888 ], [ 10.055937, 61.529884 ], [ 10.055935, 61.529882 ], [ 10.055935, 61.529882 ], [ 10.055935, 61.529882 ], [ 10.055935, 61.529882 ], [ 10.055935, 61.529882 ], [ 10.055935, 61.529882 ], [ 10.055935, 61.529882 ], [ 10.055935, 61.529882 ], [ 10.055935, 61.529882 ], [ 10.055935, 61.529882 ], [ 10.055935, 61.529882 ], [ 10.055935, 61.529882 ], [ 10.055935, 61.529882 ], [ 10.055935, 61.529882 ], [ 10.055935, 61.529882 ], [ 10.055935, 61.529882 ], [ 10.055935, 61.529882 ], [ 10.055935, 61.529882 ], [ 10.055935, 61.529882 ], [ 10.055936, 61.529868 ], [ 10.055936, 61.529868 ], [ 10.055936, 61.529868 ], [ 10.055936, 61.529868 ], [ 10.055936, 61.529868 ], [ 10.055936, 61.529868 ], [ 10.055936, 61.529868 ], [ 10.055936, 61.529868 ], [ 10.055936, 61.529868 ], [ 10.055936, 61.529868 ], [ 10.055936, 61.529868 ], [ 10.055924, 61.529893 ], [ 10.055917, 61.529903 ], [ 10.055924, 61.529893 ], [ 10.055924, 61.529893 ], [ 10.055924, 61.529893 ], [ 10.055924, 61.529893 ], [ 10.055924, 61.529893 ], [ 10.055933, 61.529883 ], [ 10.055924, 61.529893 ], [ 10.055924, 61.529893 ], [ 10.055933, 61.529878 ], [ 10.055933, 61.529878 ], [ 10.055933, 61.529878 ], [ 10.055933, 61.529878 ], [ 10.055933, 61.529878 ], [ 10.055933, 61.529878 ], [ 10.055933, 61.529878 ], [ 10.055933, 61.529878 ], [ 10.055933, 61.529878 ], [ 10.055933, 61.529878 ], [ 10.055933, 61.529878 ], [ 10.055933, 61.529878 ], [ 10.055933, 61.529878 ], [ 10.055933, 61.529878 ], [ 10.055933, 61.529878 ], [ 10.055923, 61.529871 ], [ 10.055917, 61.529866 ], [ 10.055933, 61.529878 ], [ 10.055919, 61.529875 ], [ 10.055931, 61.529878 ], [ 10.055952, 61.529877 ], [ 10.056168, 61.529826 ], [ 10.056218, 61.529806 ], [ 10.056419, 61.529738 ], [ 10.056513, 61.529718 ], [ 10.056606, 61.529706 ], [ 10.056788, 61.529667 ], [ 10.056968, 61.529631 ], [ 10.057479, 61.529543 ], [ 10.057706, 61.529503 ], [ 10.057946, 61.529462 ], [ 10.05806, 61.52944 ], [ 10.058162, 61.529416 ], [ 10.058355, 61.529352 ], [ 10.058509, 61.529265 ], [ 10.058579, 61.529214 ], [ 10.058633, 61.529161 ], [ 10.05868, 61.529105 ], [ 10.0588, 61.528982 ], [ 10.058956, 61.528856 ], [ 10.059024, 61.528791 ], [ 10.059084, 61.528731 ], [ 10.059134, 61.528675 ], [ 10.059177, 61.52862 ], [ 10.059209, 61.528563 ], [ 10.059263, 61.528507 ], [ 10.059334, 61.528454 ], [ 10.059434, 61.528409 ], [ 10.059568, 61.528381 ], [ 10.059711, 61.528382 ], [ 10.059886, 61.528398 ], [ 10.06006, 61.528388 ], [ 10.060255, 61.52835 ], [ 10.060391, 61.528306 ], [ 10.0605, 61.528261 ], [ 10.060586, 61.528222 ], [ 10.060651, 61.528197 ], [ 10.060687, 61.528179 ], [ 10.06071, 61.528163 ], [ 10.060728, 61.52815 ], [ 10.060739, 61.528142 ], [ 10.06076, 61.528128 ], [ 10.060769, 61.528121 ], [ 10.060773, 61.528119 ], [ 10.060773, 61.528119 ], [ 10.060785, 61.528113 ], [ 10.060848, 61.52808 ], [ 10.060869, 61.52807 ], [ 10.060924, 61.528041 ], [ 10.060959, 61.52804 ], [ 10.060995, 61.528046 ], [ 10.061207, 61.528062 ], [ 10.06127, 61.528035 ], [ 10.061326, 61.528002 ], [ 10.061394, 61.527959 ], [ 10.061481, 61.527912 ], [ 10.06159, 61.527873 ], [ 10.061745, 61.527835 ], [ 10.061921, 61.5278 ], [ 10.062145, 61.527757 ], [ 10.062393, 61.527722 ], [ 10.062611, 61.527685 ], [ 10.062787, 61.527652 ], [ 10.062952, 61.527621 ], [ 10.063315, 61.527584 ], [ 10.063448, 61.527582 ], [ 10.063604, 61.527563 ], [ 10.063898, 61.527508 ], [ 10.064063, 61.527481 ], [ 10.064199, 61.527454 ], [ 10.064312, 61.527428 ], [ 10.064422, 61.527402 ], [ 10.064534, 61.527389 ], [ 10.064646, 61.527378 ], [ 10.06515, 61.527331 ], [ 10.06531, 61.527316 ], [ 10.065597, 61.527272 ], [ 10.065744, 61.527255 ], [ 10.065865, 61.527248 ], [ 10.065999, 61.527252 ], [ 10.066118, 61.527261 ], [ 10.066225, 61.52726 ], [ 10.066318, 61.527262 ], [ 10.06642, 61.527258 ], [ 10.066711, 61.527236 ], [ 10.066881, 61.527224 ], [ 10.067046, 61.527214 ], [ 10.067212, 61.527232 ], [ 10.067374, 61.527257 ], [ 10.067697, 61.527286 ], [ 10.068033, 61.527294 ], [ 10.068165, 61.527284 ], [ 10.068262, 61.527272 ], [ 10.068333, 61.527262 ], [ 10.068387, 61.527253 ], [ 10.068423, 61.527246 ], [ 10.068449, 61.527242 ], [ 10.068467, 61.527239 ], [ 10.068462, 61.527236 ], [ 10.068461, 61.527239 ], [ 10.068464, 61.527238 ], [ 10.068464, 61.527238 ], [ 10.068464, 61.527238 ], [ 10.068464, 61.527238 ], [ 10.068464, 61.527238 ], [ 10.068467, 61.527238 ], [ 10.068464, 61.527238 ], [ 10.068464, 61.527238 ], [ 10.068464, 61.527238 ], [ 10.068464, 61.527238 ], [ 10.068464, 61.527238 ], [ 10.068464, 61.527238 ], [ 10.068464, 61.527238 ], [ 10.068464, 61.527238 ], [ 10.068579, 61.527236 ], [ 10.068633, 61.52723 ], [ 10.06865, 61.527229 ], [ 10.068667, 61.527226 ], [ 10.06869, 61.527219 ], [ 10.068812, 61.527201 ], [ 10.06885, 61.5272 ], [ 10.068888, 61.527203 ], [ 10.068916, 61.527217 ], [ 10.068948, 61.527231 ], [ 10.068996, 61.527237 ], [ 10.069046, 61.527238 ], [ 10.069097, 61.527232 ], [ 10.069164, 61.527218 ], [ 10.069216, 61.527205 ], [ 10.069295, 61.527198 ], [ 10.069385, 61.527191 ], [ 10.069484, 61.527185 ], [ 10.069573, 61.527182 ], [ 10.069665, 61.527176 ], [ 10.069773, 61.527176 ], [ 10.069867, 61.527171 ], [ 10.069966, 61.527164 ], [ 10.070063, 61.527164 ], [ 10.070138, 61.527166 ], [ 10.07023, 61.527178 ], [ 10.070402, 61.527206 ], [ 10.070468, 61.527226 ], [ 10.07053, 61.527243 ], [ 10.070599, 61.527255 ], [ 10.070662, 61.527259 ], [ 10.070718, 61.527268 ], [ 10.070879, 61.527305 ], [ 10.071043, 61.527338 ], [ 10.071159, 61.527351 ], [ 10.071282, 61.527357 ], [ 10.071395, 61.527358 ], [ 10.071529, 61.527357 ], [ 10.071835, 61.527379 ], [ 10.071958, 61.527382 ], [ 10.072068, 61.527395 ], [ 10.072177, 61.527405 ], [ 10.072409, 61.527417 ], [ 10.072512, 61.52742 ], [ 10.072622, 61.527422 ], [ 10.072723, 61.527421 ], [ 10.072791, 61.527424 ], [ 10.072828, 61.527429 ], [ 10.072846, 61.527435 ], [ 10.072878, 61.52745 ], [ 10.072897, 61.527464 ], [ 10.072936, 61.52748 ], [ 10.072976, 61.527485 ], [ 10.073011, 61.527491 ], [ 10.073061, 61.52751 ], [ 10.073085, 61.527529 ], [ 10.073108, 61.527544 ], [ 10.073142, 61.527564 ], [ 10.073179, 61.527581 ], [ 10.073216, 61.527596 ], [ 10.073249, 61.527615 ], [ 10.073274, 61.527625 ], [ 10.0733, 61.527634 ], [ 10.07331, 61.527643 ], [ 10.073332, 61.527659 ], [ 10.073342, 61.527671 ], [ 10.073345, 61.527677 ], [ 10.073352, 61.527686 ], [ 10.073348, 61.527709 ], [ 10.073343, 61.527725 ], [ 10.073356, 61.527744 ], [ 10.073373, 61.527766 ], [ 10.073378, 61.527778 ], [ 10.073383, 61.527785 ], [ 10.073403, 61.527791 ], [ 10.073425, 61.527802 ], [ 10.073429, 61.527818 ], [ 10.073419, 61.527824 ], [ 10.073399, 61.52783 ], [ 10.07338, 61.527853 ], [ 10.07337, 61.527872 ], [ 10.07337, 61.527881 ], [ 10.073365, 61.527904 ], [ 10.073344, 61.527917 ], [ 10.073317, 61.527923 ], [ 10.073285, 61.527929 ], [ 10.073247, 61.527935 ], [ 10.073215, 61.527937 ], [ 10.07319, 61.527942 ], [ 10.073079, 61.527974 ], [ 10.073059, 61.527977 ], [ 10.073028, 61.527979 ], [ 10.072905, 61.527999 ], [ 10.072831, 61.528014 ], [ 10.072795, 61.528018 ], [ 10.072747, 61.528025 ], [ 10.072713, 61.528036 ], [ 10.072671, 61.528046 ], [ 10.072428, 61.528108 ], [ 10.072177, 61.528131 ], [ 10.072041, 61.528154 ], [ 10.071988, 61.528168 ], [ 10.071939, 61.528181 ], [ 10.071898, 61.528187 ], [ 10.07179, 61.5282 ], [ 10.071738, 61.528205 ], [ 10.071684, 61.528211 ], [ 10.07159, 61.528229 ], [ 10.07155, 61.528238 ], [ 10.071514, 61.528243 ], [ 10.071479, 61.528251 ], [ 10.071445, 61.528256 ], [ 10.071412, 61.528257 ], [ 10.07138, 61.528256 ], [ 10.071357, 61.528253 ], [ 10.071302, 61.528253 ], [ 10.071256, 61.528247 ], [ 10.071256, 61.528245 ], [ 10.07125, 61.528245 ], [ 10.071183, 61.528247 ], [ 10.071157, 61.52825 ], [ 10.071133, 61.528252 ], [ 10.071035, 61.528255 ], [ 10.071005, 61.528258 ], [ 10.070938, 61.528273 ], [ 10.070908, 61.528284 ], [ 10.070884, 61.528297 ], [ 10.070855, 61.52831 ], [ 10.070725, 61.528344 ], [ 10.070679, 61.52835 ], [ 10.070644, 61.52836 ], [ 10.070605, 61.528373 ], [ 10.070579, 61.528386 ], [ 10.070571, 61.528399 ], [ 10.070573, 61.528409 ], [ 10.070583, 61.52841 ], [ 10.070593, 61.528412 ], [ 10.070597, 61.528417 ], [ 10.070625, 61.528424 ], [ 10.07069, 61.528426 ], [ 10.070737, 61.528424 ], [ 10.070841, 61.528425 ], [ 10.070906, 61.528421 ], [ 10.070974, 61.528412 ], [ 10.07102, 61.528406 ], [ 10.071064, 61.5284 ], [ 10.071107, 61.528391 ], [ 10.071144, 61.52839 ], [ 10.071189, 61.528393 ], [ 10.071309, 61.528392 ], [ 10.071388, 61.528396 ], [ 10.071577, 61.528407 ], [ 10.071645, 61.528408 ], [ 10.071703, 61.528406 ], [ 10.071757, 61.528406 ], [ 10.071813, 61.528401 ], [ 10.071947, 61.528393 ], [ 10.072032, 61.528392 ], [ 10.072112, 61.528396 ], [ 10.072164, 61.528406 ], [ 10.072244, 61.528418 ], [ 10.07234, 61.528425 ], [ 10.072503, 61.528436 ], [ 10.072587, 61.528441 ], [ 10.072798, 61.528463 ], [ 10.072882, 61.528467 ], [ 10.072949, 61.528463 ], [ 10.072998, 61.528463 ], [ 10.073062, 61.528452 ], [ 10.073125, 61.528447 ], [ 10.073192, 61.528445 ], [ 10.073251, 61.528438 ], [ 10.073318, 61.52843 ], [ 10.073398, 61.528429 ], [ 10.073473, 61.528433 ], [ 10.073544, 61.528438 ], [ 10.073627, 61.528443 ], [ 10.073711, 61.528463 ], [ 10.073811, 61.528485 ], [ 10.073926, 61.528506 ], [ 10.07403, 61.528513 ], [ 10.074122, 61.528515 ], [ 10.074222, 61.52852 ], [ 10.07431, 61.528529 ], [ 10.07439, 61.528538 ], [ 10.074477, 61.528543 ], [ 10.074568, 61.528539 ], [ 10.07475, 61.528535 ], [ 10.074857, 61.528533 ], [ 10.074943, 61.528536 ], [ 10.075048, 61.528549 ], [ 10.075159, 61.528553 ], [ 10.075248, 61.528554 ], [ 10.075346, 61.528562 ], [ 10.075427, 61.528561 ], [ 10.075517, 61.528568 ], [ 10.075591, 61.528574 ], [ 10.075685, 61.528579 ], [ 10.075756, 61.528591 ], [ 10.075819, 61.528618 ], [ 10.075887, 61.528654 ], [ 10.075962, 61.528678 ], [ 10.076038, 61.528695 ], [ 10.076125, 61.528702 ], [ 10.076212, 61.528698 ], [ 10.076292, 61.528689 ], [ 10.076395, 61.528679 ], [ 10.076521, 61.52867 ], [ 10.076632, 61.528664 ], [ 10.076727, 61.528666 ], [ 10.076817, 61.528662 ], [ 10.076921, 61.528655 ], [ 10.077015, 61.528644 ], [ 10.0771, 61.528642 ], [ 10.077196, 61.528647 ], [ 10.077293, 61.528651 ], [ 10.07739, 61.528655 ], [ 10.077528, 61.52866 ], [ 10.077801, 61.528676 ], [ 10.077907, 61.528681 ], [ 10.077988, 61.528682 ], [ 10.078072, 61.528684 ], [ 10.078165, 61.528685 ], [ 10.078255, 61.528688 ], [ 10.07833, 61.528691 ], [ 10.078411, 61.528705 ], [ 10.0785, 61.528725 ], [ 10.07866, 61.528768 ], [ 10.078716, 61.52879 ], [ 10.078801, 61.5288 ], [ 10.078883, 61.528813 ], [ 10.078961, 61.528822 ], [ 10.079044, 61.528827 ], [ 10.079114, 61.528828 ], [ 10.079199, 61.52882 ], [ 10.079297, 61.528806 ], [ 10.079518, 61.528786 ], [ 10.079632, 61.528777 ], [ 10.079742, 61.528772 ], [ 10.079857, 61.528783 ], [ 10.079985, 61.528806 ], [ 10.080091, 61.528822 ], [ 10.080223, 61.528854 ], [ 10.080359, 61.528875 ], [ 10.08046, 61.528899 ], [ 10.080555, 61.528928 ], [ 10.080631, 61.528951 ], [ 10.080724, 61.528973 ], [ 10.080837, 61.528989 ], [ 10.080908, 61.529015 ], [ 10.080985, 61.529052 ], [ 10.081049, 61.529088 ], [ 10.081081, 61.529126 ], [ 10.081099, 61.529167 ], [ 10.081146, 61.5292 ], [ 10.081211, 61.52924 ], [ 10.08128, 61.529273 ], [ 10.081356, 61.529295 ], [ 10.081416, 61.529316 ], [ 10.081457, 61.529341 ], [ 10.081488, 61.529366 ], [ 10.081536, 61.529387 ], [ 10.081609, 61.529411 ], [ 10.081718, 61.529418 ], [ 10.08183, 61.529416 ], [ 10.081927, 61.529391 ], [ 10.082016, 61.529368 ], [ 10.082094, 61.529348 ], [ 10.082158, 61.529334 ], [ 10.082217, 61.529323 ], [ 10.08227, 61.529309 ], [ 10.082319, 61.529297 ], [ 10.08237, 61.529284 ], [ 10.082631, 61.52923 ], [ 10.082832, 61.529194 ], [ 10.083126, 61.529139 ], [ 10.083374, 61.5291 ], [ 10.083453, 61.529091 ], [ 10.083528, 61.529087 ], [ 10.083692, 61.529072 ], [ 10.084043, 61.529035 ], [ 10.084135, 61.529025 ], [ 10.084225, 61.529016 ], [ 10.084408, 61.528994 ], [ 10.085146, 61.528882 ], [ 10.085239, 61.528868 ], [ 10.085333, 61.52885 ], [ 10.085428, 61.528835 ], [ 10.08552, 61.528817 ], [ 10.085705, 61.528783 ], [ 10.085971, 61.528735 ], [ 10.086063, 61.528715 ], [ 10.086334, 61.528649 ], [ 10.086651, 61.528591 ], [ 10.08676, 61.52857 ], [ 10.087199, 61.528489 ], [ 10.087422, 61.528445 ], [ 10.087657, 61.528396 ], [ 10.088152, 61.528292 ], [ 10.088405, 61.528239 ], [ 10.088802, 61.528167 ], [ 10.08933, 61.528068 ], [ 10.089468, 61.528043 ], [ 10.089898, 61.527969 ], [ 10.090043, 61.527947 ], [ 10.090186, 61.527928 ], [ 10.090324, 61.52791 ], [ 10.090458, 61.527889 ], [ 10.090587, 61.52787 ], [ 10.090713, 61.527847 ], [ 10.090836, 61.527822 ], [ 10.090953, 61.527801 ], [ 10.091072, 61.527782 ], [ 10.091184, 61.52776 ], [ 10.091288, 61.527737 ], [ 10.091395, 61.527717 ], [ 10.091608, 61.527675 ], [ 10.092119, 61.527549 ], [ 10.092219, 61.527525 ], [ 10.092517, 61.52745 ], [ 10.093062, 61.52732 ], [ 10.093416, 61.527236 ], [ 10.093526, 61.527211 ], [ 10.093627, 61.527182 ], [ 10.093729, 61.527155 ], [ 10.093948, 61.527102 ], [ 10.094401, 61.526994 ], [ 10.094762, 61.526901 ], [ 10.094997, 61.526837 ], [ 10.095098, 61.526811 ], [ 10.095184, 61.526779 ], [ 10.095339, 61.526769 ], [ 10.095427, 61.526741 ], [ 10.095518, 61.52671 ], [ 10.095619, 61.52668 ], [ 10.096076, 61.526563 ], [ 10.096179, 61.526535 ], [ 10.096278, 61.52651 ], [ 10.09638, 61.526485 ], [ 10.096479, 61.526459 ], [ 10.096582, 61.526433 ], [ 10.096675, 61.526408 ], [ 10.096764, 61.526383 ], [ 10.097152, 61.526255 ], [ 10.097551, 61.526111 ], [ 10.097749, 61.526042 ], [ 10.097849, 61.526012 ], [ 10.098052, 61.525957 ], [ 10.098278, 61.525901 ], [ 10.098386, 61.525878 ], [ 10.098496, 61.525856 ], [ 10.098606, 61.525836 ], [ 10.098834, 61.525798 ], [ 10.099053, 61.52576 ], [ 10.099156, 61.525745 ], [ 10.099254, 61.52573 ], [ 10.09935, 61.525715 ], [ 10.099446, 61.525703 ], [ 10.099544, 61.525688 ], [ 10.099732, 61.525654 ], [ 10.100411, 61.525557 ], [ 10.100706, 61.52551 ], [ 10.101408, 61.525399 ], [ 10.10222, 61.525271 ], [ 10.102759, 61.525242 ], [ 10.102886, 61.525241 ], [ 10.103006, 61.525247 ], [ 10.103122, 61.525256 ], [ 10.103237, 61.525266 ], [ 10.103348, 61.525273 ], [ 10.103462, 61.525281 ], [ 10.103575, 61.525286 ], [ 10.103686, 61.525286 ], [ 10.103905, 61.525276 ], [ 10.104243, 61.525244 ], [ 10.104356, 61.525231 ], [ 10.104468, 61.525217 ], [ 10.104578, 61.525203 ], [ 10.104681, 61.525193 ], [ 10.104896, 61.525177 ], [ 10.105115, 61.525168 ], [ 10.105224, 61.525166 ], [ 10.105679, 61.525198 ], [ 10.105784, 61.525218 ], [ 10.105889, 61.525241 ], [ 10.105988, 61.525265 ], [ 10.106089, 61.525288 ], [ 10.106185, 61.525312 ], [ 10.106275, 61.525336 ], [ 10.106361, 61.525359 ], [ 10.10645, 61.52538 ], [ 10.106541, 61.525401 ], [ 10.106632, 61.525421 ], [ 10.106722, 61.52544 ], [ 10.106809, 61.525454 ], [ 10.106894, 61.525468 ], [ 10.106979, 61.525484 ], [ 10.10707, 61.5255 ], [ 10.10768, 61.525566 ], [ 10.108026, 61.525572 ], [ 10.108399, 61.52555 ], [ 10.108775, 61.525507 ], [ 10.108893, 61.525489 ], [ 10.109014, 61.52547 ], [ 10.109251, 61.525432 ], [ 10.1096, 61.525363 ], [ 10.109942, 61.525275 ], [ 10.110051, 61.525244 ], [ 10.110368, 61.525153 ], [ 10.110475, 61.525128 ], [ 10.11092, 61.525032 ], [ 10.111171, 61.524994 ], [ 10.11143, 61.524962 ], [ 10.111555, 61.524946 ], [ 10.111679, 61.52493 ], [ 10.111803, 61.524914 ], [ 10.111921, 61.524898 ], [ 10.112036, 61.524883 ], [ 10.112149, 61.524868 ], [ 10.112264, 61.524854 ], [ 10.112845, 61.524777 ], [ 10.113089, 61.524749 ], [ 10.113209, 61.524735 ], [ 10.113321, 61.52472 ], [ 10.113548, 61.524697 ], [ 10.11366, 61.524685 ], [ 10.113767, 61.524669 ], [ 10.113875, 61.524656 ], [ 10.11398, 61.524644 ], [ 10.114391, 61.524572 ], [ 10.114489, 61.524549 ], [ 10.114584, 61.524523 ], [ 10.115038, 61.524372 ], [ 10.115203, 61.524311 ], [ 10.115286, 61.524281 ], [ 10.115374, 61.524251 ], [ 10.115464, 61.524223 ], [ 10.11555, 61.524196 ], [ 10.115631, 61.524168 ], [ 10.115707, 61.524142 ], [ 10.115777, 61.524117 ], [ 10.11585, 61.52409 ], [ 10.115998, 61.52403 ], [ 10.116313, 61.523914 ], [ 10.116404, 61.523886 ], [ 10.117124, 61.52371 ], [ 10.117229, 61.523693 ], [ 10.117332, 61.523677 ], [ 10.117431, 61.523658 ], [ 10.11753, 61.523644 ], [ 10.117631, 61.523628 ], [ 10.117838, 61.523595 ], [ 10.11804, 61.523554 ], [ 10.118239, 61.523505 ], [ 10.118432, 61.523451 ], [ 10.11865, 61.523388 ], [ 10.119119, 61.523259 ], [ 10.119577, 61.52312 ], [ 10.119917, 61.523022 ], [ 10.120034, 61.522989 ], [ 10.120503, 61.522852 ], [ 10.12062, 61.522821 ], [ 10.120736, 61.522792 ], [ 10.120851, 61.522765 ], [ 10.120965, 61.522736 ], [ 10.121075, 61.522711 ], [ 10.121184, 61.522684 ], [ 10.12129, 61.522656 ], [ 10.121499, 61.522601 ], [ 10.121595, 61.522574 ], [ 10.121686, 61.52255 ], [ 10.121777, 61.522528 ], [ 10.121864, 61.52251 ], [ 10.121949, 61.522492 ], [ 10.122033, 61.522474 ], [ 10.122113, 61.522457 ], [ 10.122189, 61.522439 ], [ 10.122264, 61.522423 ], [ 10.122336, 61.522407 ], [ 10.122403, 61.522392 ], [ 10.122467, 61.522377 ], [ 10.122532, 61.522363 ], [ 10.122596, 61.52235 ], [ 10.122662, 61.522337 ], [ 10.122791, 61.52231 ], [ 10.122851, 61.522297 ], [ 10.122912, 61.522287 ], [ 10.12297, 61.522274 ], [ 10.123028, 61.522262 ], [ 10.123088, 61.522249 ], [ 10.123149, 61.522236 ], [ 10.123213, 61.522221 ], [ 10.123272, 61.522206 ], [ 10.123326, 61.522192 ], [ 10.12338, 61.522175 ], [ 10.123433, 61.52216 ], [ 10.123489, 61.522147 ], [ 10.123541, 61.522132 ], [ 10.123595, 61.522117 ], [ 10.123648, 61.522104 ], [ 10.123696, 61.522089 ], [ 10.123735, 61.522075 ], [ 10.12378, 61.522061 ], [ 10.123828, 61.522046 ], [ 10.123877, 61.522034 ], [ 10.12393, 61.522019 ], [ 10.123975, 61.522005 ], [ 10.124018, 61.521989 ], [ 10.124061, 61.521975 ], [ 10.1241, 61.521962 ], [ 10.124137, 61.521948 ], [ 10.124179, 61.521934 ], [ 10.124217, 61.521921 ], [ 10.124259, 61.521903 ], [ 10.1243, 61.521885 ], [ 10.124341, 61.521868 ], [ 10.124382, 61.521852 ], [ 10.124424, 61.521837 ], [ 10.124458, 61.52182 ], [ 10.124496, 61.521802 ], [ 10.124537, 61.521789 ], [ 10.124575, 61.521771 ], [ 10.124608, 61.521751 ], [ 10.124639, 61.521738 ], [ 10.12467, 61.521721 ], [ 10.124707, 61.521704 ], [ 10.124742, 61.521686 ], [ 10.124778, 61.521666 ], [ 10.124813, 61.521644 ], [ 10.124847, 61.521623 ], [ 10.124882, 61.521602 ], [ 10.124913, 61.521581 ], [ 10.124946, 61.52156 ], [ 10.124983, 61.521543 ], [ 10.125013, 61.521521 ], [ 10.125042, 61.5215 ], [ 10.125079, 61.521478 ], [ 10.125119, 61.521456 ], [ 10.125158, 61.521435 ], [ 10.125198, 61.521415 ], [ 10.125233, 61.521395 ], [ 10.125275, 61.521376 ], [ 10.125312, 61.521358 ], [ 10.125351, 61.521341 ], [ 10.125395, 61.521327 ], [ 10.125438, 61.521311 ], [ 10.125483, 61.521293 ], [ 10.125529, 61.521277 ], [ 10.125576, 61.521261 ], [ 10.125622, 61.521244 ], [ 10.125669, 61.52123 ], [ 10.125716, 61.521214 ], [ 10.125754, 61.5212 ], [ 10.125797, 61.521186 ], [ 10.125844, 61.521173 ], [ 10.125888, 61.521156 ], [ 10.125933, 61.521143 ], [ 10.125978, 61.521133 ], [ 10.126024, 61.521121 ], [ 10.126074, 61.521108 ], [ 10.126122, 61.521097 ], [ 10.126171, 61.521089 ], [ 10.126224, 61.521078 ], [ 10.126273, 61.521065 ], [ 10.126322, 61.521053 ], [ 10.126373, 61.521046 ], [ 10.12642, 61.521035 ], [ 10.126467, 61.521023 ], [ 10.126516, 61.521013 ], [ 10.126562, 61.521002 ], [ 10.126609, 61.520989 ], [ 10.126655, 61.520974 ], [ 10.126701, 61.520961 ], [ 10.12675, 61.520948 ], [ 10.126795, 61.520933 ], [ 10.126839, 61.520919 ], [ 10.126885, 61.520904 ], [ 10.126931, 61.52089 ], [ 10.126976, 61.520873 ], [ 10.127018, 61.520856 ], [ 10.127063, 61.520839 ], [ 10.127104, 61.520822 ], [ 10.127146, 61.520803 ], [ 10.127186, 61.520786 ], [ 10.12723, 61.520766 ], [ 10.12727, 61.520748 ], [ 10.127303, 61.520731 ], [ 10.127339, 61.520714 ], [ 10.127374, 61.520697 ], [ 10.127414, 61.520683 ], [ 10.127443, 61.520668 ], [ 10.127476, 61.520652 ], [ 10.127511, 61.520635 ], [ 10.127551, 61.520618 ], [ 10.127587, 61.520603 ], [ 10.127613, 61.520586 ], [ 10.127642, 61.520572 ], [ 10.127673, 61.520557 ], [ 10.127705, 61.520545 ], [ 10.127737, 61.520532 ], [ 10.127766, 61.520514 ], [ 10.12779, 61.520499 ], [ 10.127818, 61.520481 ], [ 10.127849, 61.520465 ], [ 10.127879, 61.520449 ], [ 10.127906, 61.520433 ], [ 10.127931, 61.520417 ], [ 10.127962, 61.5204 ], [ 10.127992, 61.520386 ], [ 10.128026, 61.52037 ], [ 10.128055, 61.520353 ], [ 10.128086, 61.520337 ], [ 10.128118, 61.520324 ], [ 10.128154, 61.52031 ], [ 10.128191, 61.520298 ], [ 10.128231, 61.520285 ], [ 10.128276, 61.520273 ], [ 10.128318, 61.520265 ], [ 10.128359, 61.520258 ], [ 10.128401, 61.520249 ], [ 10.128439, 61.520243 ], [ 10.128482, 61.520238 ], [ 10.128529, 61.520235 ], [ 10.128573, 61.52023 ], [ 10.12862, 61.520225 ], [ 10.128668, 61.520224 ], [ 10.128725, 61.520226 ], [ 10.128784, 61.520224 ], [ 10.128847, 61.520219 ], [ 10.12892, 61.520215 ], [ 10.129001, 61.520218 ], [ 10.129089, 61.520222 ], [ 10.129186, 61.520232 ], [ 10.129293, 61.52025 ], [ 10.129415, 61.520269 ], [ 10.129544, 61.520292 ], [ 10.129684, 61.520317 ], [ 10.129837, 61.52034 ], [ 10.130001, 61.520352 ], [ 10.13018, 61.520357 ], [ 10.130371, 61.520357 ], [ 10.130573, 61.520354 ], [ 10.130788, 61.520336 ], [ 10.131002, 61.520299 ], [ 10.131207, 61.520244 ], [ 10.131384, 61.520165 ], [ 10.131542, 61.520074 ], [ 10.13171, 61.519989 ], [ 10.131891, 61.519909 ], [ 10.132108, 61.519836 ], [ 10.132355, 61.519781 ], [ 10.132627, 61.519743 ], [ 10.132906, 61.519721 ], [ 10.133181, 61.519709 ], [ 10.133465, 61.519694 ], [ 10.133752, 61.519682 ], [ 10.134048, 61.519666 ], [ 10.13434, 61.519644 ], [ 10.134622, 61.519608 ], [ 10.134875, 61.51955 ], [ 10.1351, 61.519481 ], [ 10.135309, 61.519423 ], [ 10.135511, 61.519378 ], [ 10.135707, 61.519345 ], [ 10.1359, 61.519316 ], [ 10.136103, 61.519292 ], [ 10.136306, 61.519275 ], [ 10.136502, 61.519261 ], [ 10.136698, 61.519244 ], [ 10.136889, 61.519223 ], [ 10.137077, 61.519198 ], [ 10.137257, 61.519167 ], [ 10.137418, 61.519127 ], [ 10.13756, 61.519075 ], [ 10.137689, 61.519015 ], [ 10.137807, 61.518961 ], [ 10.137945, 61.518925 ], [ 10.138109, 61.518908 ], [ 10.138273, 61.518915 ], [ 10.138431, 61.518933 ], [ 10.138598, 61.518956 ], [ 10.138787, 61.518969 ], [ 10.138992, 61.518961 ], [ 10.139199, 61.518939 ], [ 10.139397, 61.518919 ], [ 10.139588, 61.518894 ], [ 10.139784, 61.51887 ], [ 10.139972, 61.518851 ], [ 10.140149, 61.518835 ], [ 10.14032, 61.518811 ], [ 10.140482, 61.518778 ], [ 10.140618, 61.518735 ], [ 10.140729, 61.518676 ], [ 10.140825, 61.518608 ], [ 10.140907, 61.518543 ], [ 10.140998, 61.518479 ], [ 10.14112, 61.518436 ], [ 10.141261, 61.518419 ], [ 10.141386, 61.518433 ], [ 10.141475, 61.518472 ], [ 10.141539, 61.51852 ], [ 10.141599, 61.518568 ], [ 10.141672, 61.518616 ], [ 10.141741, 61.518666 ], [ 10.141812, 61.518716 ], [ 10.141875, 61.518765 ], [ 10.142002, 61.518862 ], [ 10.14206, 61.518909 ], [ 10.142125, 61.518958 ], [ 10.142179, 61.519006 ], [ 10.142237, 61.519049 ], [ 10.142287, 61.519089 ], [ 10.142342, 61.519125 ], [ 10.142397, 61.519167 ], [ 10.142448, 61.519206 ], [ 10.142497, 61.519244 ], [ 10.142659, 61.519364 ], [ 10.142772, 61.519448 ], [ 10.142824, 61.51949 ], [ 10.143279, 61.519841 ], [ 10.143672, 61.52022 ], [ 10.143776, 61.520311 ], [ 10.144159, 61.52066 ], [ 10.144269, 61.520765 ], [ 10.144329, 61.520816 ], [ 10.144606, 61.521079 ], [ 10.144668, 61.52113 ], [ 10.144731, 61.52118 ], [ 10.14479, 61.521228 ], [ 10.145074, 61.521475 ], [ 10.145134, 61.521526 ], [ 10.145195, 61.521574 ], [ 10.145258, 61.521622 ], [ 10.145559, 61.521871 ], [ 10.145617, 61.521918 ], [ 10.145675, 61.521964 ], [ 10.145972, 61.5222 ], [ 10.146028, 61.522246 ], [ 10.146084, 61.522292 ], [ 10.146196, 61.522383 ], [ 10.146251, 61.522425 ], [ 10.146308, 61.522467 ], [ 10.146359, 61.522508 ], [ 10.146746, 61.522806 ], [ 10.1468, 61.522851 ], [ 10.146919, 61.522937 ], [ 10.14721, 61.523151 ], [ 10.147325, 61.523238 ], [ 10.14738, 61.523282 ], [ 10.147494, 61.523368 ], [ 10.147552, 61.523411 ], [ 10.147727, 61.523539 ], [ 10.147779, 61.52358 ], [ 10.14783, 61.52362 ], [ 10.147882, 61.523663 ], [ 10.147995, 61.523746 ], [ 10.148105, 61.523827 ], [ 10.148159, 61.523868 ], [ 10.148211, 61.523907 ], [ 10.148255, 61.523948 ], [ 10.148277, 61.523993 ], [ 10.148266, 61.524042 ], [ 10.148226, 61.52409 ], [ 10.148159, 61.524129 ], [ 10.147989, 61.524191 ], [ 10.147904, 61.524222 ], [ 10.147722, 61.524276 ], [ 10.147628, 61.524302 ], [ 10.147373, 61.524385 ], [ 10.147291, 61.524409 ], [ 10.147207, 61.524434 ], [ 10.146862, 61.524543 ], [ 10.146689, 61.524599 ], [ 10.146607, 61.524626 ], [ 10.146075, 61.524789 ], [ 10.145988, 61.524818 ], [ 10.145901, 61.524847 ], [ 10.145815, 61.524875 ], [ 10.14573, 61.524902 ], [ 10.145215, 61.525064 ], [ 10.14513, 61.525089 ], [ 10.144879, 61.525174 ], [ 10.144795, 61.5252 ], [ 10.144381, 61.525332 ], [ 10.144217, 61.525388 ], [ 10.144056, 61.525444 ], [ 10.143978, 61.525471 ], [ 10.143812, 61.525523 ], [ 10.143733, 61.52555 ], [ 10.14349, 61.525626 ], [ 10.143412, 61.525652 ], [ 10.143082, 61.525758 ], [ 10.143, 61.525783 ], [ 10.142848, 61.525833 ], [ 10.142772, 61.525858 ], [ 10.142696, 61.525883 ], [ 10.14262, 61.525907 ], [ 10.142552, 61.525931 ], [ 10.142488, 61.525952 ], [ 10.142421, 61.525972 ], [ 10.142287, 61.526011 ], [ 10.142228, 61.526028 ], [ 10.142176, 61.526043 ], [ 10.142134, 61.526063 ], [ 10.142113, 61.526087 ], [ 10.14212, 61.526115 ], [ 10.142282, 61.526234 ], [ 10.142444, 61.526335 ], [ 10.142614, 61.526436 ], [ 10.142667, 61.526471 ], [ 10.142722, 61.526504 ], [ 10.142829, 61.526569 ], [ 10.142885, 61.526598 ], [ 10.143041, 61.526696 ], [ 10.143087, 61.526728 ], [ 10.143342, 61.5269 ], [ 10.143384, 61.52693 ], [ 10.143426, 61.52696 ], [ 10.143518, 61.52702 ], [ 10.143663, 61.527104 ], [ 10.143706, 61.527132 ], [ 10.143745, 61.527162 ], [ 10.143789, 61.52719 ], [ 10.143878, 61.527245 ], [ 10.144012, 61.527333 ], [ 10.144057, 61.52736 ], [ 10.144189, 61.52744 ], [ 10.144368, 61.527556 ], [ 10.144532, 61.527681 ], [ 10.144601, 61.527744 ], [ 10.144631, 61.527777 ], [ 10.144654, 61.527808 ], [ 10.144678, 61.527842 ], [ 10.144692, 61.527874 ], [ 10.144701, 61.527907 ], [ 10.144729, 61.527973 ], [ 10.144736, 61.528006 ], [ 10.144745, 61.528035 ], [ 10.144752, 61.528062 ], [ 10.144758, 61.528089 ], [ 10.144765, 61.528119 ], [ 10.144775, 61.528141 ], [ 10.14477, 61.528157 ], [ 10.144763, 61.528173 ], [ 10.144722, 61.528208 ], [ 10.144695, 61.528231 ], [ 10.144656, 61.528289 ], [ 10.144693, 61.528338 ], [ 10.144699, 61.528371 ], [ 10.14471, 61.528403 ], [ 10.144696, 61.528426 ], [ 10.144683, 61.528459 ], [ 10.144672, 61.528489 ], [ 10.144577, 61.52867 ], [ 10.144573, 61.528812 ], [ 10.144599, 61.528837 ], [ 10.144634, 61.52886 ], [ 10.144672, 61.528885 ], [ 10.144714, 61.528917 ], [ 10.144749, 61.528954 ], [ 10.144777, 61.528991 ], [ 10.144798, 61.529027 ], [ 10.14483, 61.5291 ], [ 10.144812, 61.529126 ], [ 10.144778, 61.52914 ], [ 10.14468, 61.529166 ], [ 10.14463, 61.529174 ], [ 10.144577, 61.529183 ], [ 10.144525, 61.529189 ], [ 10.144465, 61.529195 ], [ 10.144404, 61.529199 ], [ 10.144337, 61.529204 ], [ 10.144266, 61.52921 ], [ 10.144195, 61.529216 ], [ 10.144121, 61.529223 ], [ 10.144048, 61.529229 ], [ 10.143975, 61.529235 ], [ 10.143903, 61.529238 ], [ 10.143824, 61.529242 ], [ 10.143749, 61.529247 ], [ 10.143674, 61.529253 ], [ 10.143602, 61.529259 ], [ 10.143532, 61.529259 ], [ 10.143462, 61.52926 ], [ 10.143397, 61.529262 ], [ 10.143332, 61.529263 ], [ 10.143046, 61.529291 ], [ 10.142983, 61.529308 ], [ 10.142918, 61.529322 ], [ 10.142855, 61.529331 ], [ 10.142792, 61.529333 ], [ 10.142663, 61.529336 ], [ 10.142599, 61.52934 ], [ 10.142114, 61.529372 ], [ 10.142047, 61.529375 ], [ 10.141838, 61.529386 ], [ 10.141771, 61.52939 ], [ 10.141706, 61.529393 ], [ 10.141639, 61.529396 ], [ 10.141575, 61.529399 ], [ 10.14151, 61.529403 ], [ 10.141444, 61.529406 ], [ 10.141381, 61.529408 ], [ 10.141034, 61.529427 ], [ 10.140971, 61.52943 ], [ 10.140913, 61.529433 ], [ 10.140861, 61.529436 ], [ 10.140807, 61.529437 ], [ 10.140743, 61.529436 ], [ 10.14068, 61.529434 ], [ 10.140619, 61.529432 ], [ 10.140568, 61.529433 ], [ 10.14052, 61.52944 ], [ 10.140496, 61.529451 ], [ 10.140477, 61.52947 ], [ 10.140476, 61.529494 ], [ 10.140412, 61.529566 ], [ 10.140355, 61.529578 ], [ 10.140302, 61.529599 ], [ 10.140288, 61.529632 ], [ 10.140294, 61.529665 ], [ 10.140314, 61.529862 ], [ 10.140322, 61.529894 ], [ 10.140332, 61.529922 ], [ 10.140342, 61.529951 ], [ 10.140353, 61.529982 ], [ 10.140375, 61.530041 ], [ 10.140384, 61.530071 ], [ 10.140393, 61.530098 ], [ 10.140397, 61.530122 ], [ 10.140389, 61.530143 ], [ 10.140369, 61.530162 ], [ 10.140339, 61.530175 ], [ 10.14032, 61.530184 ], [ 10.140296, 61.530188 ], [ 10.14027, 61.530189 ], [ 10.14021, 61.530194 ], [ 10.140184, 61.530202 ], [ 10.140162, 61.530212 ], [ 10.140144, 61.53022 ], [ 10.14013, 61.53023 ], [ 10.140119, 61.530243 ], [ 10.140113, 61.530253 ], [ 10.140107, 61.530253 ], [ 10.140108, 61.53025 ], [ 10.140115, 61.530252 ], [ 10.140115, 61.530268 ], [ 10.14012, 61.530274 ], [ 10.140123, 61.530277 ], [ 10.140123, 61.530277 ], [ 10.140123, 61.530277 ], [ 10.140108, 61.530276 ], [ 10.140088, 61.530275 ], [ 10.140088, 61.530274 ], [ 10.140088, 61.530274 ], [ 10.140088, 61.530274 ], [ 10.140088, 61.530274 ], [ 10.140092, 61.530275 ], [ 10.140107, 61.530276 ], [ 10.140117, 61.530277 ], [ 10.140117, 61.530277 ], [ 10.140117, 61.530277 ], [ 10.140117, 61.530277 ], [ 10.140117, 61.530277 ], [ 10.140117, 61.530277 ] ] } }
]
}
