{
"type": "FeatureCollection",
"name": "tracks",
"features": [
{ "type": "Feature", "properties": { "name": "SykkelVIKU: Høstadlia", "type": "mountain_biking" }, "geometry": { "type": "LineString", "coordinates": [ [ 10.123979, 61.566661 ], [ 10.123979, 61.566661 ], [ 10.123979, 61.566661 ], [ 10.123979, 61.566661 ], [ 10.123951, 61.566659 ], [ 10.123946, 61.566655 ], [ 10.123917, 61.566646 ], [ 10.123904, 61.566641 ], [ 10.123908, 61.566639 ], [ 10.12391, 61.566631 ], [ 10.123894, 61.566628 ], [ 10.123878, 61.566621 ], [ 10.123864, 61.566615 ], [ 10.12385, 61.566607 ], [ 10.123861, 61.566606 ], [ 10.123836, 61.5666 ], [ 10.123829, 61.566591 ], [ 10.123821, 61.566579 ], [ 10.123801, 61.566567 ], [ 10.123784, 61.566552 ], [ 10.123764, 61.566539 ], [ 10.123755, 61.566528 ], [ 10.12375, 61.566511 ], [ 10.123744, 61.566481 ], [ 10.123756, 61.566428 ], [ 10.123761, 61.566413 ], [ 10.123806, 61.566381 ], [ 10.12382, 61.566367 ], [ 10.123827, 61.566351 ], [ 10.12383, 61.566333 ], [ 10.123838, 61.566319 ], [ 10.123844, 61.56629 ], [ 10.123848, 61.566281 ], [ 10.123863, 61.566272 ], [ 10.123911, 61.566184 ], [ 10.123926, 61.566176 ], [ 10.123938, 61.566169 ], [ 10.123972, 61.56615 ], [ 10.123994, 61.566138 ], [ 10.124011, 61.566121 ], [ 10.124026, 61.566104 ], [ 10.124045, 61.566089 ], [ 10.124062, 61.566078 ], [ 10.124082, 61.56607 ], [ 10.1241, 61.566056 ], [ 10.124107, 61.566037 ], [ 10.124115, 61.566022 ], [ 10.124123, 61.566005 ], [ 10.124129, 61.565986 ], [ 10.124135, 61.565967 ], [ 10.124146, 61.565951 ], [ 10.12415, 61.565934 ], [ 10.124154, 61.565914 ], [ 10.124156, 61.565896 ], [ 10.124159, 61.565877 ], [ 10.124165, 61.565857 ], [ 10.124173, 61.565842 ], [ 10.12418, 61.565806 ], [ 10.124179, 61.565792 ], [ 10.124172, 61.565778 ], [ 10.124172, 61.565765 ], [ 10.124186, 61.56575 ], [ 10.124184, 61.565739 ], [ 10.124188, 61.565719 ], [ 10.124199, 61.565714 ], [ 10.1242, 61.565712 ], [ 10.124198, 61.5657 ], [ 10.124204, 61.565686 ], [ 10.124201, 61.565675 ], [ 10.124195, 61.565654 ], [ 10.124191, 61.565643 ], [ 10.124196, 61.565634 ], [ 10.124206, 61.565623 ], [ 10.124215, 61.565611 ], [ 10.124225, 61.5656 ], [ 10.124239, 61.56559 ], [ 10.124249, 61.565581 ], [ 10.124259, 61.565573 ], [ 10.124261, 61.565569 ], [ 10.124272, 61.565565 ], [ 10.124287, 61.565557 ], [ 10.12432, 61.565513 ], [ 10.124328, 61.565504 ], [ 10.124338, 61.565493 ], [ 10.12436, 61.565462 ], [ 10.124343, 61.565433 ], [ 10.124337, 61.565426 ], [ 10.124337, 61.565417 ], [ 10.124338, 61.565407 ], [ 10.124325, 61.565386 ], [ 10.124326, 61.56536 ], [ 10.124332, 61.565354 ], [ 10.124352, 61.565345 ], [ 10.124352, 61.565338 ], [ 10.124355, 61.5653 ], [ 10.124346, 61.565283 ], [ 10.124338, 61.56527 ], [ 10.124332, 61.565257 ], [ 10.124317, 61.565212 ], [ 10.124318, 61.565199 ], [ 10.124324, 61.565188 ], [ 10.12433, 61.565182 ], [ 10.124338, 61.56512 ], [ 10.124332, 61.565106 ], [ 10.124339, 61.565091 ], [ 10.12435, 61.565077 ], [ 10.12436, 61.565061 ], [ 10.124357, 61.565051 ], [ 10.124366, 61.565037 ], [ 10.124375, 61.565022 ], [ 10.124375, 61.565013 ], [ 10.124369, 61.564985 ], [ 10.124365, 61.564976 ], [ 10.124368, 61.564964 ], [ 10.124372, 61.56495 ], [ 10.124384, 61.56494 ], [ 10.124395, 61.564923 ], [ 10.124419, 61.564898 ], [ 10.124429, 61.564868 ], [ 10.124436, 61.564815 ], [ 10.12443, 61.564795 ], [ 10.12442, 61.56476 ], [ 10.12441, 61.564743 ], [ 10.124405, 61.564729 ], [ 10.124387, 61.564714 ], [ 10.124369, 61.564704 ], [ 10.124353, 61.564698 ], [ 10.124334, 61.56469 ], [ 10.124319, 61.564685 ], [ 10.124302, 61.564684 ], [ 10.124255, 61.564673 ], [ 10.124205, 61.564663 ], [ 10.124183, 61.56466 ], [ 10.124068, 61.564627 ], [ 10.124055, 61.564622 ], [ 10.124041, 61.564617 ], [ 10.124047, 61.564609 ], [ 10.124052, 61.564606 ], [ 10.124044, 61.564603 ], [ 10.12403, 61.564603 ], [ 10.124017, 61.564601 ], [ 10.123999, 61.564586 ], [ 10.123998, 61.564583 ], [ 10.123998, 61.564583 ], [ 10.123999, 61.564583 ], [ 10.124035, 61.564552 ], [ 10.124051, 61.564545 ], [ 10.124063, 61.564536 ], [ 10.124075, 61.564533 ], [ 10.124082, 61.564525 ], [ 10.124089, 61.564517 ], [ 10.124101, 61.564508 ], [ 10.124117, 61.564489 ], [ 10.124125, 61.564479 ], [ 10.124128, 61.564467 ], [ 10.12413, 61.564456 ], [ 10.124131, 61.564446 ], [ 10.124127, 61.564435 ], [ 10.124132, 61.564423 ], [ 10.124134, 61.564411 ], [ 10.124121, 61.564392 ], [ 10.124113, 61.564383 ], [ 10.124112, 61.564376 ], [ 10.124118, 61.564364 ], [ 10.12412, 61.564358 ], [ 10.124123, 61.564343 ], [ 10.124139, 61.564337 ], [ 10.124144, 61.564331 ], [ 10.12415, 61.564326 ], [ 10.124162, 61.564317 ], [ 10.124169, 61.564305 ], [ 10.124175, 61.564296 ], [ 10.12418, 61.564288 ], [ 10.124185, 61.564282 ], [ 10.124196, 61.564276 ], [ 10.124199, 61.564271 ], [ 10.124208, 61.564266 ], [ 10.12421, 61.564257 ], [ 10.124214, 61.56425 ], [ 10.124219, 61.564241 ], [ 10.124225, 61.564229 ], [ 10.124226, 61.564221 ], [ 10.124234, 61.564202 ], [ 10.124252, 61.564184 ], [ 10.124263, 61.564175 ], [ 10.124273, 61.564167 ], [ 10.124281, 61.564161 ], [ 10.124289, 61.564155 ], [ 10.124301, 61.564146 ], [ 10.124311, 61.564135 ], [ 10.124322, 61.564124 ], [ 10.124328, 61.564116 ], [ 10.12433, 61.564109 ], [ 10.124332, 61.564099 ], [ 10.124332, 61.564088 ], [ 10.124333, 61.564084 ], [ 10.124336, 61.564078 ], [ 10.124342, 61.564073 ], [ 10.124347, 61.564067 ], [ 10.124359, 61.564058 ], [ 10.124364, 61.56405 ], [ 10.124369, 61.564044 ], [ 10.12437, 61.564035 ], [ 10.124371, 61.56403 ], [ 10.124374, 61.564018 ], [ 10.124377, 61.564013 ], [ 10.124386, 61.564008 ], [ 10.124392, 61.564001 ], [ 10.124399, 61.563993 ], [ 10.124404, 61.563986 ], [ 10.124403, 61.56398 ], [ 10.124408, 61.563972 ], [ 10.124416, 61.563967 ], [ 10.124424, 61.563961 ], [ 10.124427, 61.563953 ], [ 10.124429, 61.563949 ], [ 10.124425, 61.56394 ], [ 10.124427, 61.563933 ], [ 10.124435, 61.563926 ], [ 10.12443, 61.563918 ], [ 10.124431, 61.563909 ], [ 10.124433, 61.563898 ], [ 10.124437, 61.563888 ], [ 10.124436, 61.563878 ], [ 10.124438, 61.56387 ], [ 10.124434, 61.563864 ], [ 10.124434, 61.563857 ], [ 10.124435, 61.563848 ], [ 10.124443, 61.56384 ], [ 10.124451, 61.563834 ], [ 10.124454, 61.563829 ], [ 10.12446, 61.563824 ], [ 10.124464, 61.563819 ], [ 10.124471, 61.563815 ], [ 10.124481, 61.563808 ], [ 10.124496, 61.563798 ], [ 10.124511, 61.563789 ], [ 10.124527, 61.563779 ], [ 10.12454, 61.563769 ], [ 10.124546, 61.563759 ], [ 10.124546, 61.563752 ], [ 10.124551, 61.563746 ], [ 10.124559, 61.563737 ], [ 10.12457, 61.56373 ], [ 10.124578, 61.56372 ], [ 10.124583, 61.563713 ], [ 10.124586, 61.563703 ], [ 10.124594, 61.563694 ], [ 10.124611, 61.563685 ], [ 10.124623, 61.563677 ], [ 10.124631, 61.563669 ], [ 10.124641, 61.563661 ], [ 10.124654, 61.56365 ], [ 10.124663, 61.563641 ], [ 10.12467, 61.563631 ], [ 10.124678, 61.563621 ], [ 10.124685, 61.563612 ], [ 10.124689, 61.563604 ], [ 10.12469, 61.563592 ], [ 10.124692, 61.563581 ], [ 10.124703, 61.563568 ], [ 10.124709, 61.563557 ], [ 10.124717, 61.563549 ], [ 10.124725, 61.563543 ], [ 10.124735, 61.563534 ], [ 10.12475, 61.563512 ], [ 10.124754, 61.563504 ], [ 10.124761, 61.563495 ], [ 10.124799, 61.563457 ], [ 10.124814, 61.563437 ], [ 10.124865, 61.563396 ], [ 10.124874, 61.563389 ], [ 10.124885, 61.56338 ], [ 10.12491, 61.563365 ], [ 10.124923, 61.563359 ], [ 10.124944, 61.563341 ], [ 10.124949, 61.563333 ], [ 10.124999, 61.563283 ], [ 10.125006, 61.563277 ], [ 10.125021, 61.563263 ], [ 10.12503, 61.563256 ], [ 10.125035, 61.56325 ], [ 10.125038, 61.563242 ], [ 10.12504, 61.563236 ], [ 10.12504, 61.563223 ], [ 10.12504, 61.563211 ], [ 10.125042, 61.563202 ], [ 10.125045, 61.563193 ], [ 10.125047, 61.563181 ], [ 10.125046, 61.563168 ], [ 10.125049, 61.563157 ], [ 10.12506, 61.563148 ], [ 10.12507, 61.563141 ], [ 10.125074, 61.563133 ], [ 10.125079, 61.563121 ], [ 10.125085, 61.563112 ], [ 10.125092, 61.563103 ], [ 10.125099, 61.563093 ], [ 10.125106, 61.563086 ], [ 10.125113, 61.563079 ], [ 10.125113, 61.563067 ], [ 10.125119, 61.563054 ], [ 10.125127, 61.563044 ], [ 10.125131, 61.563032 ], [ 10.125131, 61.563022 ], [ 10.125143, 61.562995 ], [ 10.125148, 61.562986 ], [ 10.12515, 61.562976 ], [ 10.125158, 61.56294 ], [ 10.125155, 61.562925 ], [ 10.125148, 61.562914 ], [ 10.125137, 61.562904 ], [ 10.125127, 61.562896 ], [ 10.125121, 61.562891 ], [ 10.125112, 61.562882 ], [ 10.125104, 61.56286 ], [ 10.125103, 61.562851 ], [ 10.125105, 61.562844 ], [ 10.125099, 61.562838 ], [ 10.125096, 61.562823 ], [ 10.12509, 61.562818 ], [ 10.125086, 61.562812 ], [ 10.125076, 61.562802 ], [ 10.125072, 61.562795 ], [ 10.125073, 61.562791 ], [ 10.125073, 61.562786 ], [ 10.125072, 61.562782 ], [ 10.125074, 61.562775 ], [ 10.125077, 61.562766 ], [ 10.125068, 61.562756 ], [ 10.125071, 61.562745 ], [ 10.12506, 61.562736 ], [ 10.125053, 61.562728 ], [ 10.125045, 61.562721 ], [ 10.125041, 61.562712 ], [ 10.125036, 61.562701 ], [ 10.125024, 61.562695 ], [ 10.125015, 61.562689 ], [ 10.125008, 61.562682 ], [ 10.125003, 61.562674 ], [ 10.124999, 61.562665 ], [ 10.124987, 61.562656 ], [ 10.124977, 61.56265 ], [ 10.124963, 61.562645 ], [ 10.124946, 61.562637 ], [ 10.124928, 61.562633 ], [ 10.124909, 61.562629 ], [ 10.124886, 61.562622 ], [ 10.124867, 61.562616 ], [ 10.124859, 61.562609 ], [ 10.124841, 61.562591 ], [ 10.124836, 61.562585 ], [ 10.124831, 61.562573 ], [ 10.12482, 61.562566 ], [ 10.124814, 61.562559 ], [ 10.124805, 61.56255 ], [ 10.124799, 61.562546 ], [ 10.124793, 61.56254 ], [ 10.124784, 61.562533 ], [ 10.124778, 61.562526 ], [ 10.124767, 61.56252 ], [ 10.124754, 61.562516 ], [ 10.12475, 61.562505 ], [ 10.124745, 61.5625 ], [ 10.124739, 61.562495 ], [ 10.124735, 61.562494 ], [ 10.124723, 61.562488 ], [ 10.124716, 61.562484 ], [ 10.124715, 61.562478 ], [ 10.124715, 61.562471 ], [ 10.124716, 61.562463 ], [ 10.12471, 61.562458 ], [ 10.124717, 61.562449 ], [ 10.124725, 61.562444 ], [ 10.124728, 61.562433 ], [ 10.124724, 61.562423 ], [ 10.124713, 61.56241 ], [ 10.124711, 61.562404 ], [ 10.124697, 61.5624 ], [ 10.124685, 61.562395 ], [ 10.124674, 61.562393 ], [ 10.12466, 61.562388 ], [ 10.124646, 61.562384 ], [ 10.124628, 61.562378 ], [ 10.124613, 61.562373 ], [ 10.124603, 61.562369 ], [ 10.124588, 61.562362 ], [ 10.124573, 61.562357 ], [ 10.124567, 61.562351 ], [ 10.124564, 61.562345 ], [ 10.124563, 61.562341 ], [ 10.12455, 61.562336 ], [ 10.124535, 61.56233 ], [ 10.124525, 61.562324 ], [ 10.124525, 61.562324 ], [ 10.124522, 61.562322 ], [ 10.124484, 61.562309 ], [ 10.124465, 61.5623 ], [ 10.124425, 61.562285 ], [ 10.124387, 61.562272 ], [ 10.124322, 61.562249 ], [ 10.124306, 61.562242 ], [ 10.124281, 61.56224 ], [ 10.124236, 61.562229 ], [ 10.124215, 61.562223 ], [ 10.124191, 61.562217 ], [ 10.124115, 61.562212 ], [ 10.124043, 61.562199 ], [ 10.124019, 61.562195 ], [ 10.123971, 61.562184 ], [ 10.123943, 61.562175 ], [ 10.123918, 61.56217 ], [ 10.123901, 61.562168 ], [ 10.123881, 61.562161 ], [ 10.123849, 61.56215 ], [ 10.123825, 61.562144 ], [ 10.123806, 61.562137 ], [ 10.123785, 61.562132 ], [ 10.123769, 61.562124 ], [ 10.123735, 61.562114 ], [ 10.123719, 61.562111 ], [ 10.123699, 61.562107 ], [ 10.123691, 61.562102 ], [ 10.123677, 61.562097 ], [ 10.123662, 61.562091 ], [ 10.123643, 61.562087 ], [ 10.123619, 61.562083 ], [ 10.123598, 61.562079 ], [ 10.123584, 61.56208 ], [ 10.123565, 61.562078 ], [ 10.123546, 61.562078 ], [ 10.123526, 61.562077 ], [ 10.123503, 61.562075 ], [ 10.12348, 61.562073 ], [ 10.123457, 61.562073 ], [ 10.123432, 61.562072 ], [ 10.123409, 61.562072 ], [ 10.123387, 61.562069 ], [ 10.123372, 61.562065 ], [ 10.123352, 61.562063 ], [ 10.123329, 61.562064 ], [ 10.123307, 61.562062 ], [ 10.123278, 61.56206 ], [ 10.123253, 61.562058 ], [ 10.123233, 61.562056 ], [ 10.123207, 61.562056 ], [ 10.12319, 61.562055 ], [ 10.123172, 61.562054 ], [ 10.123154, 61.562052 ], [ 10.123139, 61.562049 ], [ 10.123114, 61.562045 ], [ 10.123099, 61.56204 ], [ 10.123084, 61.562037 ], [ 10.123069, 61.562035 ], [ 10.123052, 61.562035 ], [ 10.123026, 61.562035 ], [ 10.123005, 61.562034 ], [ 10.122993, 61.562036 ], [ 10.122993, 61.562036 ], [ 10.12299, 61.562038 ], [ 10.122969, 61.562039 ], [ 10.122955, 61.562038 ], [ 10.122955, 61.562038 ], [ 10.12295, 61.562038 ], [ 10.122862, 61.56205 ], [ 10.122744, 61.562067 ], [ 10.1227, 61.562077 ], [ 10.122678, 61.562077 ], [ 10.122654, 61.562067 ], [ 10.122586, 61.56205 ], [ 10.122547, 61.562044 ], [ 10.122514, 61.562033 ], [ 10.122483, 61.562028 ], [ 10.122389, 61.562015 ], [ 10.12236, 61.562007 ], [ 10.122253, 61.561992 ], [ 10.122214, 61.561983 ], [ 10.122175, 61.561979 ], [ 10.122108, 61.561963 ], [ 10.122079, 61.561954 ], [ 10.121964, 61.561929 ], [ 10.121886, 61.561918 ], [ 10.121852, 61.561917 ], [ 10.12179, 61.561915 ], [ 10.121599, 61.561917 ], [ 10.121566, 61.561909 ], [ 10.121539, 61.561899 ], [ 10.121513, 61.561889 ], [ 10.121501, 61.561883 ], [ 10.121492, 61.561872 ], [ 10.121494, 61.561861 ], [ 10.121496, 61.561859 ], [ 10.121509, 61.561851 ], [ 10.121538, 61.561833 ], [ 10.121541, 61.561827 ], [ 10.121553, 61.561813 ], [ 10.121548, 61.5618 ], [ 10.121546, 61.561783 ], [ 10.12155, 61.561766 ], [ 10.121567, 61.561684 ], [ 10.121567, 61.56167 ], [ 10.121575, 61.561654 ], [ 10.121585, 61.561623 ], [ 10.121605, 61.561594 ], [ 10.121629, 61.56158 ], [ 10.12165, 61.561562 ], [ 10.121669, 61.56155 ], [ 10.121688, 61.561536 ], [ 10.12169, 61.561521 ], [ 10.121689, 61.561507 ], [ 10.12169, 61.561491 ], [ 10.121697, 61.561484 ], [ 10.121673, 61.56147 ], [ 10.121649, 61.561458 ], [ 10.121639, 61.561438 ], [ 10.121621, 61.561416 ], [ 10.121606, 61.561404 ], [ 10.121592, 61.561392 ], [ 10.121586, 61.561383 ], [ 10.121572, 61.56135 ], [ 10.12158, 61.561327 ], [ 10.121594, 61.561302 ], [ 10.121591, 61.561271 ], [ 10.12157, 61.561208 ], [ 10.121562, 61.561191 ], [ 10.121565, 61.561174 ], [ 10.121563, 61.561164 ], [ 10.12157, 61.561161 ], [ 10.12157, 61.561161 ], [ 10.121618, 61.561145 ], [ 10.121653, 61.56114 ], [ 10.121719, 61.561125 ], [ 10.121758, 61.561117 ], [ 10.12188, 61.561091 ], [ 10.121901, 61.561087 ], [ 10.121926, 61.561077 ], [ 10.121972, 61.561048 ], [ 10.122004, 61.561029 ], [ 10.122043, 61.561016 ], [ 10.1221, 61.56098 ], [ 10.122127, 61.560966 ], [ 10.122156, 61.560952 ], [ 10.122184, 61.560942 ], [ 10.12229, 61.56092 ], [ 10.122349, 61.560907 ], [ 10.122464, 61.560879 ], [ 10.122584, 61.560854 ], [ 10.122636, 61.560834 ], [ 10.122664, 61.560812 ], [ 10.122682, 61.560786 ], [ 10.122705, 61.560763 ], [ 10.122749, 61.560742 ], [ 10.122798, 61.560721 ], [ 10.122841, 61.560705 ], [ 10.122857, 61.560706 ], [ 10.122875, 61.5607 ], [ 10.122893, 61.560693 ], [ 10.122916, 61.560689 ], [ 10.122929, 61.56069 ], [ 10.122955, 61.560683 ], [ 10.122999, 61.560674 ], [ 10.123028, 61.560667 ], [ 10.123047, 61.560656 ], [ 10.12306, 61.560647 ], [ 10.123065, 61.560638 ], [ 10.123086, 61.560631 ], [ 10.123121, 61.560619 ], [ 10.123156, 61.560593 ], [ 10.123184, 61.560551 ], [ 10.123203, 61.560533 ], [ 10.123233, 61.560523 ], [ 10.123262, 61.560505 ], [ 10.12327, 61.56049 ], [ 10.1233, 61.560471 ], [ 10.12339, 61.560418 ], [ 10.123457, 61.560398 ], [ 10.123528, 61.560385 ], [ 10.123592, 61.560371 ], [ 10.123634, 61.560363 ], [ 10.123668, 61.56035 ], [ 10.123694, 61.560341 ], [ 10.123713, 61.560331 ], [ 10.123831, 61.560268 ], [ 10.123869, 61.560259 ], [ 10.123901, 61.560246 ], [ 10.12398, 61.560181 ], [ 10.123986, 61.560162 ], [ 10.124009, 61.560156 ], [ 10.12401, 61.560142 ], [ 10.124025, 61.560126 ], [ 10.124148, 61.560039 ], [ 10.12418, 61.560014 ], [ 10.124205, 61.559994 ], [ 10.124232, 61.559978 ], [ 10.124255, 61.559965 ], [ 10.124301, 61.559953 ], [ 10.124372, 61.559941 ], [ 10.124457, 61.559923 ], [ 10.124523, 61.559908 ], [ 10.124583, 61.559893 ], [ 10.124687, 61.559863 ], [ 10.124881, 61.559802 ], [ 10.124975, 61.559777 ], [ 10.125047, 61.559763 ], [ 10.125088, 61.559756 ], [ 10.12513, 61.559755 ], [ 10.125215, 61.559743 ], [ 10.125257, 61.559732 ], [ 10.125284, 61.55972 ], [ 10.125307, 61.559705 ], [ 10.125323, 61.559691 ], [ 10.125358, 61.559662 ], [ 10.125484, 61.559587 ], [ 10.125518, 61.559563 ], [ 10.125541, 61.559537 ], [ 10.125571, 61.559509 ], [ 10.125687, 61.559412 ], [ 10.12571, 61.559382 ], [ 10.125741, 61.559354 ], [ 10.125764, 61.559328 ], [ 10.125795, 61.559301 ], [ 10.125801, 61.559277 ], [ 10.125799, 61.559266 ], [ 10.125806, 61.559253 ], [ 10.125819, 61.559237 ], [ 10.12583, 61.559217 ], [ 10.125837, 61.559199 ], [ 10.125879, 61.559164 ], [ 10.125913, 61.559145 ], [ 10.125937, 61.55913 ], [ 10.125964, 61.559119 ], [ 10.125982, 61.559115 ], [ 10.125968, 61.559118 ], [ 10.125964, 61.559121 ], [ 10.125972, 61.559124 ], [ 10.125972, 61.559124 ], [ 10.125973, 61.559124 ], [ 10.125972, 61.559124 ], [ 10.125981, 61.559117 ], [ 10.125972, 61.559124 ], [ 10.125972, 61.559124 ], [ 10.125972, 61.559124 ], [ 10.125972, 61.559124 ], [ 10.125972, 61.559124 ], [ 10.125972, 61.559124 ], [ 10.125986, 61.559117 ], [ 10.125993, 61.559111 ], [ 10.125995, 61.559111 ], [ 10.125997, 61.559111 ], [ 10.126007, 61.55911 ], [ 10.126021, 61.559104 ], [ 10.126032, 61.559102 ], [ 10.126036, 61.559103 ], [ 10.126032, 61.559106 ], [ 10.126043, 61.559107 ], [ 10.126043, 61.559107 ], [ 10.126043, 61.559107 ], [ 10.126043, 61.559107 ], [ 10.126043, 61.559107 ], [ 10.126043, 61.559107 ], [ 10.126043, 61.559107 ], [ 10.126042, 61.559107 ], [ 10.126026, 61.5591 ], [ 10.126007, 61.559095 ], [ 10.12599, 61.559093 ], [ 10.125981, 61.559095 ], [ 10.126006, 61.559095 ], [ 10.12598, 61.559094 ], [ 10.125976, 61.559096 ], [ 10.125971, 61.559099 ], [ 10.125971, 61.559099 ], [ 10.125971, 61.559099 ], [ 10.126013, 61.559121 ], [ 10.12604, 61.559119 ], [ 10.12604, 61.559119 ], [ 10.12604, 61.559119 ], [ 10.12604, 61.559119 ], [ 10.12604, 61.559119 ], [ 10.12604, 61.559119 ], [ 10.12604, 61.559119 ], [ 10.12604, 61.559119 ], [ 10.12604, 61.559119 ], [ 10.12604, 61.559119 ], [ 10.12604, 61.559119 ], [ 10.12604, 61.559119 ], [ 10.12604, 61.559119 ], [ 10.126075, 61.559107 ], [ 10.126099, 61.559108 ], [ 10.126121, 61.559105 ], [ 10.126138, 61.559104 ], [ 10.126242, 61.559104 ], [ 10.126283, 61.559104 ], [ 10.126329, 61.559094 ], [ 10.126433, 61.559065 ], [ 10.126606, 61.559041 ], [ 10.126674, 61.559024 ], [ 10.126735, 61.559027 ], [ 10.126793, 61.55903 ], [ 10.126838, 61.559026 ], [ 10.126859, 61.559024 ], [ 10.126891, 61.559021 ], [ 10.126925, 61.559023 ], [ 10.126971, 61.559034 ], [ 10.12701, 61.559036 ], [ 10.127085, 61.559035 ], [ 10.12712, 61.559034 ], [ 10.127144, 61.55904 ], [ 10.127174, 61.559047 ], [ 10.127212, 61.559052 ], [ 10.12726, 61.559048 ], [ 10.127292, 61.559045 ], [ 10.127336, 61.559039 ], [ 10.127383, 61.559042 ], [ 10.127473, 61.559035 ], [ 10.1275, 61.55903 ], [ 10.127567, 61.559024 ], [ 10.127597, 61.559031 ], [ 10.127621, 61.559035 ], [ 10.127634, 61.559037 ], [ 10.127634, 61.559037 ], [ 10.127716, 61.559031 ], [ 10.127732, 61.559023 ], [ 10.12775, 61.55902 ], [ 10.127773, 61.559017 ], [ 10.127877, 61.559021 ], [ 10.128047, 61.559016 ], [ 10.128082, 61.559016 ], [ 10.128117, 61.559015 ], [ 10.12815, 61.559012 ], [ 10.12817, 61.559011 ], [ 10.128188, 61.559007 ], [ 10.128286, 61.558992 ], [ 10.128353, 61.558988 ], [ 10.128468, 61.558981 ], [ 10.128718, 61.558957 ], [ 10.128779, 61.558948 ], [ 10.128849, 61.558939 ], [ 10.128996, 61.55892 ], [ 10.129061, 61.558912 ], [ 10.129139, 61.558909 ], [ 10.129199, 61.558916 ], [ 10.129258, 61.558923 ], [ 10.129307, 61.558926 ], [ 10.129348, 61.558927 ], [ 10.12938, 61.558934 ], [ 10.129426, 61.558938 ], [ 10.129472, 61.558943 ], [ 10.129503, 61.558946 ], [ 10.129538, 61.558948 ], [ 10.129728, 61.558955 ], [ 10.12977, 61.558956 ], [ 10.129815, 61.558958 ], [ 10.129872, 61.558948 ], [ 10.129933, 61.558953 ], [ 10.130034, 61.558963 ], [ 10.130235, 61.558992 ], [ 10.130341, 61.559008 ], [ 10.130434, 61.559021 ], [ 10.130518, 61.559037 ], [ 10.13059, 61.559049 ], [ 10.130653, 61.559064 ], [ 10.130704, 61.559077 ], [ 10.13075, 61.559089 ], [ 10.130797, 61.559098 ], [ 10.130838, 61.559108 ], [ 10.130879, 61.559126 ], [ 10.130908, 61.559146 ], [ 10.130936, 61.559163 ], [ 10.130977, 61.559179 ], [ 10.131016, 61.559193 ], [ 10.131045, 61.55921 ], [ 10.131069, 61.559225 ], [ 10.131092, 61.559241 ], [ 10.1311, 61.559255 ], [ 10.131114, 61.559268 ], [ 10.131134, 61.55928 ], [ 10.131174, 61.559296 ], [ 10.131299, 61.559361 ], [ 10.131328, 61.559375 ], [ 10.131438, 61.559415 ], [ 10.131502, 61.559445 ], [ 10.131687, 61.55952 ], [ 10.131744, 61.559542 ], [ 10.131906, 61.559605 ], [ 10.131961, 61.559634 ], [ 10.13201, 61.559654 ], [ 10.132065, 61.559669 ], [ 10.132095, 61.559684 ], [ 10.132129, 61.559703 ], [ 10.132172, 61.559716 ], [ 10.132265, 61.559783 ], [ 10.132335, 61.559812 ], [ 10.132393, 61.559842 ], [ 10.132471, 61.559874 ], [ 10.132561, 61.5599 ], [ 10.132633, 61.559923 ], [ 10.132724, 61.559934 ], [ 10.132794, 61.559949 ], [ 10.132884, 61.55997 ], [ 10.132956, 61.559975 ], [ 10.133026, 61.559982 ], [ 10.133237, 61.559983 ], [ 10.133361, 61.559975 ], [ 10.133616, 61.56 ], [ 10.133739, 61.559987 ], [ 10.133858, 61.559971 ], [ 10.133943, 61.559945 ], [ 10.134023, 61.55991 ], [ 10.134102, 61.559886 ], [ 10.134191, 61.559865 ], [ 10.134265, 61.559851 ], [ 10.134333, 61.559838 ], [ 10.134393, 61.559829 ], [ 10.134437, 61.559818 ], [ 10.134464, 61.55981 ], [ 10.134488, 61.5598 ], [ 10.134527, 61.559791 ], [ 10.134759, 61.559747 ], [ 10.134804, 61.559739 ], [ 10.134844, 61.55973 ], [ 10.135035, 61.559672 ], [ 10.135085, 61.55966 ], [ 10.135207, 61.559635 ], [ 10.135408, 61.559591 ], [ 10.135564, 61.559579 ], [ 10.135631, 61.559572 ], [ 10.135695, 61.559569 ], [ 10.135814, 61.559563 ], [ 10.136004, 61.559542 ], [ 10.136142, 61.559529 ], [ 10.136197, 61.559516 ], [ 10.136266, 61.559507 ], [ 10.136363, 61.559492 ], [ 10.136452, 61.5595 ], [ 10.136624, 61.559502 ], [ 10.136689, 61.559508 ], [ 10.136754, 61.559501 ], [ 10.136887, 61.559488 ], [ 10.13697, 61.559497 ], [ 10.137029, 61.559515 ], [ 10.137102, 61.559538 ], [ 10.137183, 61.559542 ], [ 10.137319, 61.559552 ], [ 10.137384, 61.559557 ], [ 10.137432, 61.559565 ], [ 10.137505, 61.559587 ], [ 10.13768, 61.559646 ], [ 10.137744, 61.559681 ], [ 10.137807, 61.559719 ], [ 10.137856, 61.559763 ], [ 10.137897, 61.559807 ], [ 10.137935, 61.559846 ], [ 10.137979, 61.559894 ], [ 10.138162, 61.560031 ], [ 10.138214, 61.560084 ], [ 10.138313, 61.560177 ], [ 10.138376, 61.560213 ], [ 10.138434, 61.560239 ], [ 10.138487, 61.560263 ], [ 10.138525, 61.560297 ], [ 10.138625, 61.560361 ], [ 10.138659, 61.560387 ], [ 10.138693, 61.560417 ], [ 10.138743, 61.560433 ], [ 10.138806, 61.560452 ], [ 10.13892, 61.560502 ], [ 10.138993, 61.560535 ], [ 10.139065, 61.560563 ], [ 10.139217, 61.560605 ], [ 10.139292, 61.560617 ], [ 10.139368, 61.560627 ], [ 10.139445, 61.560647 ], [ 10.139526, 61.560676 ], [ 10.139595, 61.560696 ], [ 10.139664, 61.560719 ], [ 10.139728, 61.560751 ], [ 10.139794, 61.560772 ], [ 10.139847, 61.560795 ], [ 10.13997, 61.560838 ], [ 10.140026, 61.560863 ], [ 10.140073, 61.560876 ], [ 10.1401, 61.560889 ], [ 10.140137, 61.560908 ], [ 10.140176, 61.560926 ], [ 10.140231, 61.560942 ], [ 10.140279, 61.560961 ], [ 10.140295, 61.560974 ], [ 10.14031, 61.560989 ], [ 10.140327, 61.561001 ], [ 10.140365, 61.561009 ], [ 10.140417, 61.561018 ], [ 10.140468, 61.561023 ], [ 10.140519, 61.561031 ], [ 10.140582, 61.561057 ], [ 10.140652, 61.561078 ], [ 10.140725, 61.561099 ], [ 10.140759, 61.561125 ], [ 10.1408, 61.561153 ], [ 10.140851, 61.561182 ], [ 10.140901, 61.561208 ], [ 10.140945, 61.561248 ], [ 10.141004, 61.561291 ], [ 10.141087, 61.561331 ], [ 10.141144, 61.561362 ], [ 10.141186, 61.561395 ], [ 10.141195, 61.561424 ], [ 10.141263, 61.561491 ], [ 10.141324, 61.561487 ], [ 10.141358, 61.561469 ], [ 10.141384, 61.56145 ], [ 10.141423, 61.561437 ], [ 10.14147, 61.561431 ], [ 10.14151, 61.561432 ], [ 10.14154, 61.561443 ], [ 10.141587, 61.561454 ], [ 10.141648, 61.561472 ], [ 10.141701, 61.561478 ], [ 10.141822, 61.561477 ], [ 10.141877, 61.561485 ], [ 10.141922, 61.561483 ], [ 10.141963, 61.561489 ], [ 10.141996, 61.561487 ], [ 10.142024, 61.561486 ], [ 10.14206, 61.561489 ], [ 10.142157, 61.561486 ], [ 10.142274, 61.561459 ], [ 10.142324, 61.561457 ], [ 10.142369, 61.561463 ], [ 10.142402, 61.561477 ], [ 10.142434, 61.561506 ], [ 10.142493, 61.561552 ], [ 10.142543, 61.561602 ], [ 10.142597, 61.561625 ], [ 10.142793, 61.561731 ], [ 10.142845, 61.561757 ], [ 10.142893, 61.561783 ], [ 10.142952, 61.561819 ], [ 10.143076, 61.561857 ], [ 10.143115, 61.561878 ], [ 10.143163, 61.561905 ], [ 10.143328, 61.561947 ], [ 10.143377, 61.561969 ], [ 10.143434, 61.561973 ], [ 10.143501, 61.561977 ], [ 10.143565, 61.561982 ], [ 10.143612, 61.561977 ], [ 10.143652, 61.561983 ], [ 10.143695, 61.562 ], [ 10.143751, 61.562018 ], [ 10.143798, 61.562042 ], [ 10.143842, 61.562058 ], [ 10.143886, 61.562056 ], [ 10.143915, 61.562055 ], [ 10.143955, 61.562054 ], [ 10.144035, 61.562044 ], [ 10.144158, 61.56203 ], [ 10.144225, 61.562024 ], [ 10.144272, 61.562001 ], [ 10.144294, 61.561981 ], [ 10.144336, 61.561967 ], [ 10.144458, 61.561899 ], [ 10.144519, 61.561886 ], [ 10.144601, 61.56188 ], [ 10.144675, 61.56186 ], [ 10.144753, 61.561837 ], [ 10.144844, 61.561817 ], [ 10.144942, 61.5618 ], [ 10.145036, 61.561789 ], [ 10.145109, 61.561767 ], [ 10.145126, 61.561732 ], [ 10.145151, 61.561708 ], [ 10.145192, 61.561697 ], [ 10.145241, 61.561695 ], [ 10.145302, 61.561697 ], [ 10.145434, 61.561707 ], [ 10.145521, 61.561709 ], [ 10.145604, 61.561704 ], [ 10.145682, 61.561685 ], [ 10.145746, 61.56166 ], [ 10.145817, 61.561628 ], [ 10.145878, 61.561606 ], [ 10.14595, 61.561588 ], [ 10.146009, 61.561554 ], [ 10.146084, 61.561525 ], [ 10.146161, 61.561498 ], [ 10.14624, 61.561483 ], [ 10.14631, 61.561463 ], [ 10.146388, 61.561449 ], [ 10.146441, 61.56143 ], [ 10.146496, 61.561409 ], [ 10.146549, 61.561397 ], [ 10.146668, 61.561365 ], [ 10.146728, 61.561353 ], [ 10.146774, 61.56133 ], [ 10.146801, 61.561301 ], [ 10.146846, 61.561279 ], [ 10.1469, 61.561272 ], [ 10.146961, 61.56128 ], [ 10.14706, 61.561315 ], [ 10.147118, 61.561304 ], [ 10.147153, 61.561282 ], [ 10.147248, 61.561248 ], [ 10.147311, 61.561253 ], [ 10.147378, 61.561245 ], [ 10.14743, 61.561232 ], [ 10.147472, 61.561201 ], [ 10.147522, 61.561174 ], [ 10.147588, 61.561168 ], [ 10.147661, 61.561165 ], [ 10.147719, 61.561155 ], [ 10.147774, 61.561138 ], [ 10.14792, 61.561085 ], [ 10.147973, 61.561074 ], [ 10.148034, 61.561077 ], [ 10.1481, 61.561066 ], [ 10.14815, 61.561056 ], [ 10.148222, 61.561057 ], [ 10.148274, 61.56108 ], [ 10.148315, 61.561091 ], [ 10.14835, 61.561115 ], [ 10.148379, 61.561136 ], [ 10.148401, 61.56116 ], [ 10.14842, 61.561189 ], [ 10.14845, 61.561216 ], [ 10.148538, 61.561264 ], [ 10.148589, 61.56129 ], [ 10.148632, 61.561319 ], [ 10.14875, 61.56139 ], [ 10.148818, 61.561424 ], [ 10.148883, 61.561452 ], [ 10.148945, 61.561477 ], [ 10.14902, 61.561499 ], [ 10.149197, 61.561542 ], [ 10.149279, 61.561575 ], [ 10.149393, 61.561665 ], [ 10.149444, 61.561716 ], [ 10.149458, 61.561772 ], [ 10.149423, 61.561832 ], [ 10.149375, 61.561882 ], [ 10.149334, 61.561931 ], [ 10.149301, 61.561976 ], [ 10.149293, 61.56202 ], [ 10.149309, 61.562057 ], [ 10.149336, 61.562092 ], [ 10.149375, 61.562125 ], [ 10.149398, 61.562157 ], [ 10.149466, 61.56224 ], [ 10.149507, 61.562287 ], [ 10.14956, 61.562352 ], [ 10.149624, 61.56241 ], [ 10.14969, 61.562459 ], [ 10.149789, 61.562493 ], [ 10.149889, 61.562519 ], [ 10.149997, 61.562531 ], [ 10.150098, 61.562556 ], [ 10.150214, 61.562591 ], [ 10.150312, 61.562623 ], [ 10.150392, 61.562652 ], [ 10.150485, 61.562668 ], [ 10.15057, 61.562687 ], [ 10.150646, 61.562718 ], [ 10.150725, 61.562743 ], [ 10.150794, 61.562776 ], [ 10.150905, 61.562845 ], [ 10.150988, 61.562864 ], [ 10.151062, 61.562872 ], [ 10.15111, 61.562877 ], [ 10.151155, 61.562894 ], [ 10.151175, 61.562909 ], [ 10.151195, 61.562932 ], [ 10.151204, 61.562962 ], [ 10.15119, 61.563 ], [ 10.15118, 61.563033 ], [ 10.151158, 61.563057 ], [ 10.151149, 61.56308 ], [ 10.151165, 61.563099 ], [ 10.151166, 61.563117 ], [ 10.151165, 61.563136 ], [ 10.151154, 61.563153 ], [ 10.151142, 61.563158 ], [ 10.151128, 61.563163 ], [ 10.151128, 61.563168 ], [ 10.151118, 61.563182 ], [ 10.151099, 61.563209 ], [ 10.151108, 61.563228 ], [ 10.151122, 61.563243 ], [ 10.15114, 61.563262 ], [ 10.151171, 61.563283 ], [ 10.151221, 61.563291 ], [ 10.151266, 61.563294 ], [ 10.15131, 61.56331 ], [ 10.151413, 61.563336 ], [ 10.151452, 61.563341 ], [ 10.151486, 61.563347 ], [ 10.151501, 61.563354 ], [ 10.151515, 61.563362 ], [ 10.151523, 61.563368 ], [ 10.151576, 61.56339 ], [ 10.151575, 61.563392 ], [ 10.151581, 61.563393 ], [ 10.151591, 61.563392 ], [ 10.151614, 61.563392 ], [ 10.15165, 61.563393 ], [ 10.151692, 61.563395 ], [ 10.151808, 61.563384 ], [ 10.151855, 61.563379 ], [ 10.151897, 61.563368 ], [ 10.151941, 61.563368 ], [ 10.151991, 61.563367 ], [ 10.152043, 61.563369 ], [ 10.152084, 61.563378 ], [ 10.152142, 61.563385 ], [ 10.152178, 61.563399 ], [ 10.152192, 61.563419 ], [ 10.152222, 61.563445 ], [ 10.152255, 61.563469 ], [ 10.152281, 61.563503 ], [ 10.152296, 61.563535 ], [ 10.152327, 61.563571 ], [ 10.152376, 61.563605 ], [ 10.152411, 61.563649 ], [ 10.15248, 61.563746 ], [ 10.152517, 61.563792 ], [ 10.152544, 61.563846 ], [ 10.152613, 61.563941 ], [ 10.152626, 61.563995 ], [ 10.152661, 61.564085 ], [ 10.152688, 61.564174 ], [ 10.152733, 61.564214 ], [ 10.152768, 61.56424 ], [ 10.152808, 61.564271 ], [ 10.152854, 61.564295 ], [ 10.152912, 61.564316 ], [ 10.152987, 61.564317 ], [ 10.153054, 61.564309 ], [ 10.153114, 61.564308 ], [ 10.153187, 61.564307 ], [ 10.153251, 61.564302 ], [ 10.153297, 61.564295 ], [ 10.153334, 61.564288 ], [ 10.153354, 61.564278 ], [ 10.153353, 61.564273 ], [ 10.153346, 61.564263 ], [ 10.15334, 61.564255 ], [ 10.153312, 61.564225 ], [ 10.153313, 61.564218 ], [ 10.153317, 61.56421 ], [ 10.1533, 61.564202 ], [ 10.153307, 61.564197 ], [ 10.153311, 61.564198 ], [ 10.153311, 61.564198 ], [ 10.153311, 61.564198 ], [ 10.153311, 61.564198 ], [ 10.153315, 61.564197 ], [ 10.153311, 61.564198 ], [ 10.153311, 61.564198 ], [ 10.153348, 61.564209 ], [ 10.153368, 61.564211 ], [ 10.153378, 61.564209 ], [ 10.153403, 61.564204 ], [ 10.15344, 61.564164 ], [ 10.153427, 61.564127 ], [ 10.15343, 61.564086 ], [ 10.153443, 61.564042 ], [ 10.153479, 61.564001 ], [ 10.153524, 61.563958 ], [ 10.153555, 61.56392 ], [ 10.153686, 61.563757 ], [ 10.153748, 61.563663 ], [ 10.153821, 61.563494 ], [ 10.153824, 61.563363 ], [ 10.153814, 61.563309 ], [ 10.153826, 61.563258 ], [ 10.153857, 61.563215 ], [ 10.153895, 61.563177 ], [ 10.153944, 61.563152 ], [ 10.153999, 61.563124 ], [ 10.154036, 61.563089 ], [ 10.154058, 61.563055 ], [ 10.154091, 61.563023 ], [ 10.154136, 61.562987 ], [ 10.154181, 61.562951 ], [ 10.154252, 61.562923 ], [ 10.154334, 61.562886 ], [ 10.154399, 61.562849 ], [ 10.154441, 61.562767 ], [ 10.154478, 61.562727 ], [ 10.154519, 61.562699 ], [ 10.154577, 61.562679 ], [ 10.154645, 61.562657 ], [ 10.154725, 61.562645 ], [ 10.154797, 61.562624 ], [ 10.154846, 61.562599 ], [ 10.154872, 61.56256 ], [ 10.154885, 61.562526 ], [ 10.154897, 61.562492 ], [ 10.154903, 61.562455 ], [ 10.154909, 61.562426 ], [ 10.154933, 61.562392 ], [ 10.154969, 61.562378 ], [ 10.155028, 61.562373 ], [ 10.155105, 61.562363 ], [ 10.155166, 61.562356 ], [ 10.155235, 61.562366 ], [ 10.155278, 61.56239 ], [ 10.155308, 61.562414 ], [ 10.155346, 61.562433 ], [ 10.155393, 61.562443 ], [ 10.155451, 61.562445 ], [ 10.155492, 61.562429 ], [ 10.155527, 61.562406 ], [ 10.155557, 61.562379 ], [ 10.15558, 61.562345 ], [ 10.155679, 61.56228 ], [ 10.155713, 61.56225 ], [ 10.155731, 61.562226 ], [ 10.155741, 61.562199 ], [ 10.155771, 61.562179 ], [ 10.155804, 61.562164 ], [ 10.155818, 61.562145 ], [ 10.155841, 61.562117 ], [ 10.155862, 61.562088 ], [ 10.155842, 61.562063 ], [ 10.155811, 61.562038 ], [ 10.155769, 61.56202 ], [ 10.155755, 61.56199 ], [ 10.155779, 61.56195 ], [ 10.155805, 61.561915 ], [ 10.15581, 61.561885 ], [ 10.155798, 61.561853 ], [ 10.155764, 61.561828 ], [ 10.155725, 61.561806 ], [ 10.155708, 61.561775 ], [ 10.155682, 61.561745 ], [ 10.155656, 61.561717 ], [ 10.155646, 61.561694 ], [ 10.155646, 61.561668 ], [ 10.15566, 61.561641 ], [ 10.155682, 61.561615 ], [ 10.15573, 61.561594 ], [ 10.1558, 61.561586 ], [ 10.155867, 61.561579 ], [ 10.155946, 61.561579 ], [ 10.156016, 61.561593 ], [ 10.156064, 61.561605 ], [ 10.156107, 61.56163 ], [ 10.156165, 61.561653 ], [ 10.156243, 61.561659 ], [ 10.15631, 61.561654 ], [ 10.156431, 61.561629 ], [ 10.156495, 61.561629 ], [ 10.156575, 61.561624 ], [ 10.156723, 61.561623 ], [ 10.156802, 61.561629 ], [ 10.156871, 61.561639 ], [ 10.156922, 61.561668 ], [ 10.156955, 61.561703 ], [ 10.156983, 61.561749 ], [ 10.157006, 61.561783 ], [ 10.157026, 61.561821 ], [ 10.157051, 61.561855 ], [ 10.1571, 61.561878 ], [ 10.157143, 61.561884 ], [ 10.157183, 61.561886 ], [ 10.157226, 61.56188 ], [ 10.15726, 61.561868 ], [ 10.157335, 61.561828 ], [ 10.157379, 61.561797 ], [ 10.15742, 61.56177 ], [ 10.15751, 61.561713 ], [ 10.15757, 61.561644 ], [ 10.157597, 61.561611 ], [ 10.157623, 61.561522 ], [ 10.157635, 61.561485 ], [ 10.15763, 61.561444 ], [ 10.157633, 61.561407 ], [ 10.157614, 61.56137 ], [ 10.157584, 61.561338 ], [ 10.157545, 61.561305 ], [ 10.157498, 61.56128 ], [ 10.157442, 61.561262 ], [ 10.157362, 61.561253 ], [ 10.157266, 61.561242 ], [ 10.157177, 61.561213 ], [ 10.157145, 61.561169 ], [ 10.157138, 61.561121 ], [ 10.157151, 61.561075 ], [ 10.157171, 61.561038 ], [ 10.157183, 61.561002 ], [ 10.157175, 61.560962 ], [ 10.157139, 61.560932 ], [ 10.157101, 61.560898 ], [ 10.157055, 61.560872 ], [ 10.156984, 61.560853 ], [ 10.156904, 61.560842 ], [ 10.156836, 61.560829 ], [ 10.156777, 61.560805 ], [ 10.156719, 61.560776 ], [ 10.156684, 61.560749 ], [ 10.156665, 61.560719 ], [ 10.156657, 61.560683 ], [ 10.156656, 61.560637 ], [ 10.156653, 61.560591 ], [ 10.156621, 61.560556 ], [ 10.156571, 61.560536 ], [ 10.156523, 61.560522 ], [ 10.15645, 61.560511 ], [ 10.156372, 61.560499 ], [ 10.156296, 61.560489 ], [ 10.156206, 61.560479 ], [ 10.156127, 61.560462 ], [ 10.156061, 61.560455 ], [ 10.155995, 61.560443 ], [ 10.155932, 61.560425 ], [ 10.155851, 61.560414 ], [ 10.155778, 61.560415 ], [ 10.155706, 61.560413 ], [ 10.155628, 61.560411 ], [ 10.155546, 61.560397 ], [ 10.155501, 61.560377 ], [ 10.155458, 61.560352 ], [ 10.155434, 61.560332 ], [ 10.155283, 61.560259 ], [ 10.155202, 61.560238 ], [ 10.155148, 61.560215 ], [ 10.155083, 61.560178 ], [ 10.154995, 61.560087 ], [ 10.154946, 61.560049 ], [ 10.154903, 61.560016 ], [ 10.154876, 61.559979 ], [ 10.154871, 61.559944 ], [ 10.154831, 61.559922 ], [ 10.154771, 61.559902 ], [ 10.154691, 61.559878 ], [ 10.154607, 61.55986 ], [ 10.154521, 61.559842 ], [ 10.154428, 61.559836 ], [ 10.154345, 61.559838 ], [ 10.154257, 61.559836 ], [ 10.154176, 61.559834 ], [ 10.154097, 61.559827 ], [ 10.154025, 61.559815 ], [ 10.153955, 61.55979 ], [ 10.15389, 61.559747 ], [ 10.153819, 61.559699 ], [ 10.153778, 61.559649 ], [ 10.15374, 61.559604 ], [ 10.153684, 61.559565 ], [ 10.153641, 61.559527 ], [ 10.153616, 61.559486 ], [ 10.153598, 61.559449 ], [ 10.153563, 61.559419 ], [ 10.153498, 61.559401 ], [ 10.153419, 61.559403 ], [ 10.153332, 61.559408 ], [ 10.153232, 61.559412 ], [ 10.153119, 61.559404 ], [ 10.153013, 61.55939 ], [ 10.152921, 61.559366 ], [ 10.15283, 61.559348 ], [ 10.152759, 61.559335 ], [ 10.152702, 61.559314 ], [ 10.152538, 61.559297 ], [ 10.152442, 61.559279 ], [ 10.152357, 61.559263 ], [ 10.152307, 61.559235 ], [ 10.152273, 61.559207 ], [ 10.152209, 61.559188 ], [ 10.152149, 61.559175 ], [ 10.152076, 61.559165 ], [ 10.152042, 61.559145 ], [ 10.151985, 61.559128 ], [ 10.151915, 61.559107 ], [ 10.151753, 61.559053 ], [ 10.151579, 61.559004 ], [ 10.151492, 61.558974 ], [ 10.151402, 61.558943 ], [ 10.151314, 61.558913 ], [ 10.15125, 61.558886 ], [ 10.151194, 61.558857 ], [ 10.15115, 61.558827 ], [ 10.151106, 61.558791 ], [ 10.151052, 61.558765 ], [ 10.151006, 61.55875 ], [ 10.150975, 61.558729 ], [ 10.150895, 61.558688 ], [ 10.150836, 61.558676 ], [ 10.150779, 61.558654 ], [ 10.150736, 61.558623 ], [ 10.150693, 61.558595 ], [ 10.150637, 61.558567 ], [ 10.150576, 61.558543 ], [ 10.150527, 61.558513 ], [ 10.150497, 61.558478 ], [ 10.150445, 61.55845 ], [ 10.150373, 61.558437 ], [ 10.150311, 61.558435 ], [ 10.150282, 61.558401 ], [ 10.15025, 61.558366 ], [ 10.150184, 61.558332 ], [ 10.150104, 61.558263 ], [ 10.150078, 61.55823 ], [ 10.150033, 61.558206 ], [ 10.149982, 61.558181 ], [ 10.149951, 61.558157 ], [ 10.149899, 61.558131 ], [ 10.149836, 61.558104 ], [ 10.149786, 61.558077 ], [ 10.149769, 61.558058 ], [ 10.149785, 61.558048 ], [ 10.149827, 61.558024 ], [ 10.14983, 61.557998 ], [ 10.149812, 61.557973 ], [ 10.14975, 61.557941 ], [ 10.149623, 61.557867 ], [ 10.149582, 61.557835 ], [ 10.149539, 61.557802 ], [ 10.149493, 61.55777 ], [ 10.149439, 61.55774 ], [ 10.14938, 61.557712 ], [ 10.149324, 61.557683 ], [ 10.14932, 61.557648 ], [ 10.149308, 61.557613 ], [ 10.149233, 61.557551 ], [ 10.14922, 61.557501 ], [ 10.149191, 61.557442 ], [ 10.149167, 61.557389 ], [ 10.149116, 61.557335 ], [ 10.149108, 61.55728 ], [ 10.149089, 61.557228 ], [ 10.149057, 61.557178 ], [ 10.148949, 61.557086 ], [ 10.148935, 61.557033 ], [ 10.148853, 61.556928 ], [ 10.148824, 61.556875 ], [ 10.148773, 61.556837 ], [ 10.148745, 61.556783 ], [ 10.148729, 61.556722 ], [ 10.148717, 61.556663 ], [ 10.148711, 61.556612 ], [ 10.148698, 61.556562 ], [ 10.148671, 61.556522 ], [ 10.148635, 61.556484 ], [ 10.148601, 61.556452 ], [ 10.148574, 61.556418 ], [ 10.148558, 61.556386 ], [ 10.148535, 61.556354 ], [ 10.148496, 61.55633 ], [ 10.148484, 61.556296 ], [ 10.148465, 61.556262 ], [ 10.148381, 61.556198 ], [ 10.148272, 61.556134 ], [ 10.148207, 61.556112 ], [ 10.148139, 61.556087 ], [ 10.148076, 61.556063 ], [ 10.148035, 61.55604 ], [ 10.147985, 61.556019 ], [ 10.147925, 61.555997 ], [ 10.147893, 61.55598 ], [ 10.147902, 61.555968 ], [ 10.147927, 61.555968 ], [ 10.147947, 61.555964 ], [ 10.147962, 61.55596 ], [ 10.147983, 61.555968 ], [ 10.148005, 61.555972 ], [ 10.148029, 61.555975 ], [ 10.148053, 61.555981 ], [ 10.148043, 61.555989 ], [ 10.148014, 61.555989 ], [ 10.147697, 61.555972 ], [ 10.147335, 61.555942 ], [ 10.147239, 61.555932 ], [ 10.147137, 61.555917 ], [ 10.146567, 61.555837 ], [ 10.146189, 61.555815 ], [ 10.145944, 61.555824 ], [ 10.145822, 61.555832 ], [ 10.145701, 61.555841 ], [ 10.145583, 61.555851 ], [ 10.145347, 61.55587 ], [ 10.144853, 61.555894 ], [ 10.144347, 61.555884 ], [ 10.144102, 61.555879 ], [ 10.143978, 61.555875 ], [ 10.143329, 61.55578 ], [ 10.143202, 61.555749 ], [ 10.143079, 61.555719 ], [ 10.142968, 61.555694 ], [ 10.14286, 61.555672 ], [ 10.142762, 61.55565 ], [ 10.142667, 61.555624 ], [ 10.142572, 61.5556 ], [ 10.142476, 61.555575 ], [ 10.142386, 61.555546 ], [ 10.1423, 61.55552 ], [ 10.142219, 61.555494 ], [ 10.142142, 61.555469 ], [ 10.142069, 61.555445 ], [ 10.141999, 61.55542 ], [ 10.141931, 61.555394 ], [ 10.141861, 61.555371 ], [ 10.141796, 61.555345 ], [ 10.141738, 61.555319 ], [ 10.141677, 61.555292 ], [ 10.141616, 61.555264 ], [ 10.141563, 61.555228 ], [ 10.141508, 61.555193 ], [ 10.141446, 61.555163 ], [ 10.141377, 61.555132 ], [ 10.141309, 61.555099 ], [ 10.141251, 61.555064 ], [ 10.141202, 61.555025 ], [ 10.141145, 61.554987 ], [ 10.141087, 61.554949 ], [ 10.141034, 61.554909 ], [ 10.14099, 61.554867 ], [ 10.140949, 61.554826 ], [ 10.140905, 61.554783 ], [ 10.140868, 61.554737 ], [ 10.14083, 61.554692 ], [ 10.140802, 61.554646 ], [ 10.140773, 61.554599 ], [ 10.140746, 61.554552 ], [ 10.140728, 61.554505 ], [ 10.140712, 61.554461 ], [ 10.140696, 61.554415 ], [ 10.140683, 61.554366 ], [ 10.140676, 61.554317 ], [ 10.140663, 61.554268 ], [ 10.140649, 61.55422 ], [ 10.14064, 61.554175 ], [ 10.140632, 61.554127 ], [ 10.140632, 61.554078 ], [ 10.140625, 61.554032 ], [ 10.140621, 61.553986 ], [ 10.140617, 61.553944 ], [ 10.140617, 61.553902 ], [ 10.140611, 61.553863 ], [ 10.140649, 61.553798 ], [ 10.140607, 61.55375 ], [ 10.140609, 61.553705 ], [ 10.140613, 61.553663 ], [ 10.140614, 61.553622 ], [ 10.140613, 61.55358 ], [ 10.140609, 61.55354 ], [ 10.140609, 61.553499 ], [ 10.140604, 61.553459 ], [ 10.1406, 61.553419 ], [ 10.140596, 61.553379 ], [ 10.140589, 61.553338 ], [ 10.140579, 61.553297 ], [ 10.140568, 61.553258 ], [ 10.140552, 61.553224 ], [ 10.140536, 61.553188 ], [ 10.140517, 61.553157 ], [ 10.140506, 61.553124 ], [ 10.140491, 61.553096 ], [ 10.140478, 61.553066 ], [ 10.140466, 61.553035 ], [ 10.140441, 61.553009 ], [ 10.140419, 61.552981 ], [ 10.140404, 61.552952 ], [ 10.140384, 61.552922 ], [ 10.14036, 61.552892 ], [ 10.140336, 61.552865 ], [ 10.14031, 61.552836 ], [ 10.140285, 61.552808 ], [ 10.140263, 61.552778 ], [ 10.140233, 61.552748 ], [ 10.140197, 61.552722 ], [ 10.140159, 61.552698 ], [ 10.140123, 61.552677 ], [ 10.140086, 61.552655 ], [ 10.140041, 61.552634 ], [ 10.140001, 61.552615 ], [ 10.139963, 61.552595 ], [ 10.139922, 61.552572 ], [ 10.139878, 61.55255 ], [ 10.139833, 61.55253 ], [ 10.139789, 61.552507 ], [ 10.139744, 61.552484 ], [ 10.139704, 61.552458 ], [ 10.13966, 61.552432 ], [ 10.139612, 61.552405 ], [ 10.139565, 61.552375 ], [ 10.139518, 61.552344 ], [ 10.139472, 61.55231 ], [ 10.139422, 61.552275 ], [ 10.139373, 61.552241 ], [ 10.139322, 61.552206 ], [ 10.139275, 61.552173 ], [ 10.139081, 61.552037 ], [ 10.138899, 61.551885 ], [ 10.138743, 61.551766 ], [ 10.138692, 61.551723 ], [ 10.138396, 61.551436 ], [ 10.13828, 61.55127 ], [ 10.138245, 61.551216 ], [ 10.13822, 61.551161 ], [ 10.138198, 61.551109 ], [ 10.138183, 61.551058 ], [ 10.138168, 61.55101 ], [ 10.138155, 61.550964 ], [ 10.138142, 61.550918 ], [ 10.138091, 61.550823 ], [ 10.138062, 61.550779 ], [ 10.138033, 61.550733 ], [ 10.137966, 61.550646 ], [ 10.137935, 61.550607 ], [ 10.137901, 61.550571 ], [ 10.137872, 61.550538 ], [ 10.137836, 61.550507 ], [ 10.137758, 61.550444 ], [ 10.137724, 61.550412 ], [ 10.13768, 61.55038 ], [ 10.13753, 61.550244 ], [ 10.137498, 61.55021 ], [ 10.137475, 61.550175 ], [ 10.137452, 61.550143 ], [ 10.137427, 61.550113 ], [ 10.137404, 61.550082 ], [ 10.137387, 61.550051 ], [ 10.137373, 61.550019 ], [ 10.13736, 61.549988 ], [ 10.137345, 61.549959 ], [ 10.137322, 61.5499 ], [ 10.137273, 61.549796 ], [ 10.137236, 61.549695 ], [ 10.137222, 61.549664 ], [ 10.137211, 61.549631 ], [ 10.137192, 61.549565 ], [ 10.137158, 61.549398 ], [ 10.137148, 61.54926 ], [ 10.137148, 61.549226 ], [ 10.137145, 61.549189 ], [ 10.137148, 61.549156 ], [ 10.137151, 61.549091 ], [ 10.13716, 61.549059 ], [ 10.137164, 61.549026 ], [ 10.137172, 61.548992 ], [ 10.137187, 61.548958 ], [ 10.137192, 61.548926 ], [ 10.137197, 61.54889 ], [ 10.137202, 61.548826 ], [ 10.137206, 61.548799 ], [ 10.137209, 61.548774 ], [ 10.137219, 61.548714 ], [ 10.137221, 61.54862 ], [ 10.137221, 61.548559 ], [ 10.137132, 61.548439 ], [ 10.137102, 61.548413 ], [ 10.137026, 61.548359 ], [ 10.136989, 61.548331 ], [ 10.136955, 61.548301 ], [ 10.13692, 61.548274 ], [ 10.136859, 61.54821 ], [ 10.136768, 61.548066 ], [ 10.136761, 61.54803 ], [ 10.136748, 61.547992 ], [ 10.136737, 61.547956 ], [ 10.136725, 61.547921 ], [ 10.136702, 61.547837 ], [ 10.136697, 61.547804 ], [ 10.136693, 61.54777 ], [ 10.136689, 61.547742 ], [ 10.136687, 61.547712 ], [ 10.136678, 61.547685 ], [ 10.136667, 61.547514 ], [ 10.136664, 61.547447 ], [ 10.136664, 61.547373 ], [ 10.13667, 61.547299 ], [ 10.13667, 61.547265 ], [ 10.136672, 61.547233 ], [ 10.136669, 61.547206 ], [ 10.13666, 61.54718 ], [ 10.13666, 61.547097 ], [ 10.136689, 61.546979 ], [ 10.136696, 61.546948 ], [ 10.136708, 61.546919 ], [ 10.136719, 61.546892 ], [ 10.136724, 61.546866 ], [ 10.136723, 61.546838 ], [ 10.136712, 61.546814 ], [ 10.136704, 61.54679 ], [ 10.136697, 61.546769 ], [ 10.136686, 61.546747 ], [ 10.136661, 61.54673 ], [ 10.136619, 61.54672 ], [ 10.136577, 61.546708 ], [ 10.136575, 61.546689 ], [ 10.136566, 61.546661 ], [ 10.136537, 61.546638 ], [ 10.136492, 61.546617 ], [ 10.136442, 61.546596 ], [ 10.136388, 61.546576 ], [ 10.136332, 61.546557 ], [ 10.136275, 61.546542 ], [ 10.136213, 61.546525 ], [ 10.136149, 61.546505 ], [ 10.136088, 61.54648 ], [ 10.136029, 61.546453 ], [ 10.135917, 61.5464 ], [ 10.135652, 61.546252 ], [ 10.135442, 61.546098 ], [ 10.135329, 61.545987 ], [ 10.135288, 61.545934 ], [ 10.135242, 61.545872 ], [ 10.135202, 61.545812 ], [ 10.135171, 61.545756 ], [ 10.135141, 61.5457 ], [ 10.135111, 61.545583 ], [ 10.135099, 61.545527 ], [ 10.135093, 61.54547 ], [ 10.135095, 61.54534 ], [ 10.135105, 61.545205 ], [ 10.135111, 61.545058 ], [ 10.135108, 61.544907 ], [ 10.135113, 61.544836 ], [ 10.135117, 61.544765 ], [ 10.135135, 61.544692 ], [ 10.13515, 61.544628 ], [ 10.135154, 61.544566 ], [ 10.135149, 61.544512 ], [ 10.135207, 61.54446 ], [ 10.135247, 61.544409 ], [ 10.135355, 61.544301 ], [ 10.135422, 61.544242 ], [ 10.135491, 61.544167 ], [ 10.135514, 61.54408 ], [ 10.13549, 61.543996 ], [ 10.13542, 61.543913 ], [ 10.13531, 61.543838 ], [ 10.135164, 61.543767 ], [ 10.135003, 61.543697 ], [ 10.134841, 61.543628 ], [ 10.134718, 61.543553 ], [ 10.134618, 61.543463 ], [ 10.134556, 61.543367 ], [ 10.13452, 61.543266 ], [ 10.134504, 61.543171 ], [ 10.134489, 61.543083 ], [ 10.134477, 61.543005 ], [ 10.134458, 61.542923 ], [ 10.134434, 61.542835 ], [ 10.134389, 61.542743 ], [ 10.134317, 61.542646 ], [ 10.134243, 61.542553 ], [ 10.134168, 61.542458 ], [ 10.134102, 61.542358 ], [ 10.134051, 61.542251 ], [ 10.13401, 61.542139 ], [ 10.133993, 61.542027 ], [ 10.133991, 61.54192 ], [ 10.133997, 61.541826 ], [ 10.133996, 61.541739 ], [ 10.133997, 61.54166 ], [ 10.133992, 61.541587 ], [ 10.133994, 61.541515 ], [ 10.133986, 61.541444 ], [ 10.133984, 61.541379 ], [ 10.133985, 61.541319 ], [ 10.133979, 61.541267 ], [ 10.133976, 61.541223 ], [ 10.13397, 61.541183 ], [ 10.133957, 61.541148 ], [ 10.133948, 61.541119 ], [ 10.133938, 61.541096 ], [ 10.133933, 61.541075 ], [ 10.13393, 61.541056 ], [ 10.133921, 61.541038 ], [ 10.133903, 61.541023 ], [ 10.133706, 61.540877 ], [ 10.133442, 61.540688 ], [ 10.1334, 61.540657 ], [ 10.133141, 61.540453 ], [ 10.133113, 61.540419 ], [ 10.133083, 61.540388 ], [ 10.133052, 61.540356 ], [ 10.13304, 61.540322 ], [ 10.133005, 61.540216 ], [ 10.132948, 61.539996 ], [ 10.132923, 61.539881 ], [ 10.132908, 61.53977 ], [ 10.132895, 61.539735 ], [ 10.132878, 61.5397 ], [ 10.132864, 61.539662 ], [ 10.132853, 61.53963 ], [ 10.132839, 61.539598 ], [ 10.13283, 61.539482 ], [ 10.132897, 61.539406 ], [ 10.132949, 61.539367 ], [ 10.133008, 61.539326 ], [ 10.133203, 61.539192 ], [ 10.133435, 61.539048 ], [ 10.133675, 61.538895 ], [ 10.133853, 61.538796 ], [ 10.133958, 61.538748 ], [ 10.134076, 61.538695 ], [ 10.134347, 61.538588 ], [ 10.134503, 61.538535 ], [ 10.134837, 61.538393 ], [ 10.134969, 61.538299 ], [ 10.135074, 61.538201 ], [ 10.135164, 61.538099 ], [ 10.135253, 61.538002 ], [ 10.135353, 61.537908 ], [ 10.135462, 61.537819 ], [ 10.13558, 61.537734 ], [ 10.135716, 61.537657 ], [ 10.135848, 61.537581 ], [ 10.135982, 61.537506 ], [ 10.136109, 61.53743 ], [ 10.13623, 61.537353 ], [ 10.136552, 61.537108 ], [ 10.136647, 61.537024 ], [ 10.136734, 61.53694 ], [ 10.136822, 61.536861 ], [ 10.136906, 61.536783 ], [ 10.136988, 61.536703 ], [ 10.137067, 61.53662 ], [ 10.137211, 61.536442 ], [ 10.137261, 61.536346 ], [ 10.137296, 61.536246 ], [ 10.137333, 61.536145 ], [ 10.137357, 61.536036 ], [ 10.137367, 61.535828 ], [ 10.137357, 61.53563 ], [ 10.137342, 61.535534 ], [ 10.137316, 61.535439 ], [ 10.137307, 61.535347 ], [ 10.137324, 61.535252 ], [ 10.137378, 61.535157 ], [ 10.137448, 61.535065 ], [ 10.137533, 61.534982 ], [ 10.137626, 61.534898 ], [ 10.137731, 61.534816 ], [ 10.137853, 61.534732 ], [ 10.137996, 61.534651 ], [ 10.138149, 61.534576 ], [ 10.138315, 61.53451 ], [ 10.138489, 61.534457 ], [ 10.13868, 61.534422 ], [ 10.138855, 61.534401 ], [ 10.139015, 61.534382 ], [ 10.139138, 61.534344 ], [ 10.139216, 61.534287 ], [ 10.139242, 61.534217 ], [ 10.139211, 61.534148 ], [ 10.139116, 61.534085 ], [ 10.138995, 61.534027 ], [ 10.138848, 61.533971 ], [ 10.13868, 61.53392 ], [ 10.138499, 61.533866 ], [ 10.138336, 61.533799 ], [ 10.138198, 61.533724 ], [ 10.138082, 61.533659 ], [ 10.137978, 61.533609 ], [ 10.137877, 61.533573 ], [ 10.137782, 61.533546 ], [ 10.137698, 61.533517 ], [ 10.137523, 61.533437 ], [ 10.137486, 61.533375 ], [ 10.137458, 61.533304 ], [ 10.137405, 61.53323 ], [ 10.137334, 61.533153 ], [ 10.137268, 61.533081 ], [ 10.137214, 61.533015 ], [ 10.137162, 61.532956 ], [ 10.137127, 61.532904 ], [ 10.137126, 61.532855 ], [ 10.137155, 61.532805 ], [ 10.137202, 61.532759 ], [ 10.137367, 61.532676 ], [ 10.137485, 61.532679 ], [ 10.13763, 61.532698 ], [ 10.137785, 61.532726 ], [ 10.137959, 61.532759 ], [ 10.13815, 61.532789 ], [ 10.138357, 61.532811 ], [ 10.138583, 61.53282 ], [ 10.138777, 61.532822 ], [ 10.138898, 61.532819 ], [ 10.138953, 61.532803 ], [ 10.138967, 61.532769 ], [ 10.138921, 61.532691 ], [ 10.138937, 61.532642 ], [ 10.138952, 61.532593 ], [ 10.138958, 61.532542 ], [ 10.138961, 61.532491 ], [ 10.138961, 61.532441 ], [ 10.138961, 61.532386 ], [ 10.138922, 61.532331 ], [ 10.138884, 61.532281 ], [ 10.138876, 61.532228 ], [ 10.138901, 61.532166 ], [ 10.138941, 61.532101 ], [ 10.138993, 61.532033 ], [ 10.139055, 61.531967 ], [ 10.139107, 61.531899 ], [ 10.139122, 61.53183 ], [ 10.139093, 61.531771 ], [ 10.139025, 61.53172 ], [ 10.138961, 61.531676 ], [ 10.138966, 61.531625 ], [ 10.139, 61.531576 ], [ 10.139055, 61.531531 ], [ 10.139093, 61.531483 ], [ 10.139096, 61.531432 ], [ 10.139089, 61.531279 ], [ 10.139076, 61.531227 ], [ 10.139061, 61.531175 ], [ 10.139057, 61.531123 ], [ 10.139075, 61.531072 ], [ 10.139108, 61.531021 ], [ 10.139102, 61.530965 ], [ 10.139072, 61.53092 ], [ 10.139054, 61.530874 ], [ 10.139046, 61.530826 ], [ 10.139042, 61.530776 ], [ 10.139039, 61.530727 ], [ 10.139033, 61.530678 ], [ 10.139014, 61.530629 ], [ 10.139005, 61.53058 ], [ 10.13899, 61.530531 ], [ 10.138979, 61.530486 ], [ 10.138986, 61.530446 ], [ 10.139002, 61.530405 ], [ 10.139034, 61.530371 ], [ 10.139078, 61.530347 ], [ 10.139134, 61.530332 ], [ 10.139195, 61.53032 ], [ 10.139245, 61.530314 ], [ 10.139291, 61.530309 ], [ 10.139333, 61.530305 ], [ 10.13937, 61.530301 ], [ 10.139405, 61.530298 ], [ 10.139426, 61.530299 ], [ 10.139438, 61.5303 ], [ 10.139453, 61.530302 ], [ 10.139463, 61.530303 ], [ 10.139462, 61.530305 ], [ 10.13946, 61.530304 ], [ 10.13946, 61.530304 ], [ 10.13946, 61.530304 ], [ 10.13946, 61.530304 ], [ 10.139455, 61.530295 ], [ 10.13946, 61.530304 ], [ 10.13946, 61.530304 ], [ 10.139452, 61.530296 ], [ 10.13946, 61.530304 ], [ 10.139443, 61.530296 ], [ 10.139439, 61.530299 ], [ 10.139446, 61.530292 ], [ 10.139442, 61.530291 ], [ 10.139442, 61.530291 ], [ 10.139442, 61.530291 ], [ 10.139442, 61.530291 ], [ 10.139442, 61.530291 ], [ 10.139442, 61.530291 ], [ 10.139442, 61.530291 ], [ 10.139442, 61.530291 ], [ 10.139442, 61.530291 ], [ 10.139442, 61.530291 ], [ 10.139442, 61.530291 ], [ 10.139442, 61.530291 ], [ 10.139442, 61.530291 ], [ 10.139442, 61.530291 ], [ 10.139442, 61.530291 ], [ 10.139442, 61.530291 ] ] } }
]
}
